{"type":"FeatureCollection","features":[{"type":"Feature","properties":{"district":"Al-Arab","population":57211,"schools":6.0,"seats":4726.0,"seats_per_1000_pop":82.606,"utilisation":0.682,"covered_share":1.0,"uncovered_pop":0.0,"illiteracy_rate":1.538,"priority_index":0.39,"priority_rank":9},"geometry":{"type":"Polygon","coordinates":[[[32.30455,31.27423],[32.30395,31.27425],[32.30235,31.27437],[32.302,31.2744],[32.30026,31.27453],[32.29799,31.2747],[32.29791,31.27441],[32.2974,31.27241],[32.29728,31.27206],[32.29717,31.27154],[32.29705,31.27109],[32.29696,31.27077],[32.29688,31.2705],[32.29675,31.26997],[32.29668,31.26967],[32.29763,31.26947],[32.29745,31.2687],[32.29648,31.26887],[32.29637,31.26837],[32.29632,31.26812],[32.29633,31.26804],[32.29635,31.26797],[32.29671,31.26774],[32.29619,31.26705],[32.29586,31.26659],[32.29476,31.26516],[32.29448,31.26478],[32.2936,31.26366],[32.29286,31.26407],[32.29209,31.26311],[32.29192,31.26288],[32.29188,31.26279],[32.29187,31.26277],[32.29182,31.26268],[32.29164,31.26243],[32.29066,31.26115],[32.29059,31.26105],[32.29052,31.26096],[32.28803,31.25766],[32.28741,31.25677],[32.28394,31.25228],[32.28582,31.25117],[32.28635,31.25088],[32.28793,31.24995],[32.28899,31.24935],[32.28909,31.2493],[32.28919,31.24925],[32.2896,31.24922],[32.29048,31.24911],[32.29042,31.24948],[32.29023,31.25101],[32.29022,31.25107],[32.29021,31.25113],[32.29008,31.2513],[32.28988,31.25265],[32.29023,31.25368],[32.29085,31.25466],[32.2933,31.2576],[32.2959,31.26075],[32.29617,31.26113],[32.29649,31.26158],[32.29662,31.26178],[32.29671,31.26187],[32.29677,31.26192],[32.29683,31.26189],[32.29703,31.26177],[32.29748,31.26151],[32.29773,31.26136],[32.29845,31.26096],[32.29901,31.26069],[32.29903,31.26073],[32.29905,31.26077],[32.30049,31.26263],[32.3028,31.26572],[32.30322,31.26636],[32.30337,31.26658],[32.30338,31.2666],[32.30339,31.26662],[32.30344,31.26688],[32.3036,31.26748],[32.30363,31.26757],[32.30366,31.26767],[32.30391,31.26876],[32.30418,31.26968],[32.30451,31.27115],[32.30456,31.27371],[32.30455,31.27423]]]}},{"type":"Feature","properties":{"district":"Al-Dawahy","population":141112,"schools":7.0,"seats":3944.0,"seats_per_1000_pop":27.949,"utilisation":0.733,"covered_share":1.0,"uncovered_pop":0.0,"illiteracy_rate":1.602,"priority_index":0.454,"priority_rank":6},"geometry":{"type":"Polygon","coordinates":[[[32.28394,31.25228],[32.28073,31.25417],[32.27734,31.25622],[32.27727,31.25628],[32.2772,31.25634],[32.27492,31.25849],[32.27416,31.25796],[32.26801,31.25392],[32.26649,31.25305],[32.26349,31.25132],[32.26347,31.25125],[32.26347,31.25119],[32.26347,31.25119],[32.26351,31.25106],[32.26558,31.24844],[32.26637,31.24745],[32.26639,31.2472],[32.26643,31.24714],[32.26647,31.24708],[32.26684,31.24641],[32.26699,31.2461],[32.26728,31.24576],[32.26857,31.24496],[32.26894,31.24476],[32.27032,31.24385],[32.27102,31.24345],[32.27168,31.24293],[32.27191,31.24275],[32.27258,31.2423],[32.27328,31.24177],[32.27391,31.24137],[32.2755,31.24033],[32.27623,31.23996],[32.27653,31.23972],[32.27685,31.23964],[32.27715,31.23938],[32.27724,31.23932],[32.27732,31.23927],[32.2778,31.2389],[32.27812,31.23855],[32.27822,31.23852],[32.27831,31.23848],[32.27864,31.23826],[32.27903,31.23798],[32.27918,31.23783],[32.27929,31.23782],[32.27933,31.23782],[32.27949,31.23773],[32.27974,31.23753],[32.27976,31.23747],[32.27979,31.23742],[32.27999,31.23731],[32.2801,31.23727],[32.28021,31.23722],[32.28051,31.23701],[32.28055,31.23695],[32.2806,31.23689],[32.28074,31.23686],[32.28081,31.23685],[32.28088,31.23685],[32.28102,31.23674],[32.28108,31.23669],[32.28114,31.23664],[32.2814,31.23637],[32.28166,31.2362],[32.28175,31.23617],[32.28184,31.23614],[32.28204,31.23603],[32.28219,31.23589],[32.2822,31.23588],[32.28221,31.2358],[32.28233,31.23579],[32.28234,31.23579],[32.28245,31.23572],[32.28248,31.23571],[32.28253,31.23568],[32.28258,31.23565],[32.28265,31.2356],[32.28269,31.23556],[32.28272,31.23547],[32.2828,31.23543],[32.28287,31.23545],[32.2829,31.23545],[32.28296,31.23544],[32.28303,31.23539],[32.28315,31.23533],[32.28321,31.2353],[32.28328,31.23526],[32.28336,31.23522],[32.28338,31.23522],[32.28346,31.23519],[32.2836,31.23512],[32.28361,31.23509],[32.28361,31.23507],[32.28369,31.23503],[32.28371,31.23503],[32.28377,31.23501],[32.28381,31.23492],[32.28381,31.23492],[32.28387,31.23486],[32.28393,31.23481],[32.28411,31.23473],[32.28416,31.23472],[32.2842,31.2347],[32.28448,31.23456],[32.28485,31.23448],[32.28492,31.23446],[32.285,31.23444],[32.28527,31.23441],[32.28531,31.23441],[32.28535,31.2344],[32.2856,31.23438],[32.28569,31.23438],[32.28578,31.23437],[32.28601,31.23432],[32.28605,31.23431],[32.28614,31.23429],[32.28622,31.23428],[32.28636,31.23425],[32.2866,31.23419],[32.2867,31.23418],[32.28675,31.23417],[32.28686,31.23416],[32.28702,31.2341],[32.28723,31.23409],[32.28775,31.23404],[32.28885,31.23399],[32.28954,31.23403],[32.29061,31.23392],[32.29064,31.23392],[32.29066,31.23392],[32.29103,31.23391],[32.2915,31.23399],[32.29172,31.23418],[32.29178,31.23427],[32.29183,31.23437],[32.29192,31.23459],[32.29176,31.23504],[32.29171,31.23511],[32.29166,31.23519],[32.29158,31.23544],[32.29161,31.23579],[32.29164,31.23603],[32.29162,31.23612],[32.29158,31.23621],[32.29155,31.23627],[32.29147,31.23648],[32.29146,31.23658],[32.29145,31.23663],[32.29145,31.23673],[32.29131,31.23676],[32.29126,31.2368],[32.2912,31.23684],[32.29119,31.23699],[32.29123,31.23708],[32.2913,31.23717],[32.29133,31.23718],[32.29149,31.23722],[32.29156,31.23732],[32.29156,31.23745],[32.29149,31.23757],[32.29141,31.23771],[32.29133,31.2379],[32.29131,31.23799],[32.29128,31.23808],[32.29128,31.23823],[32.29128,31.23829],[32.29126,31.23846],[32.29123,31.2386],[32.29123,31.23862],[32.29122,31.23864],[32.2912,31.23881],[32.29118,31.23885],[32.29117,31.23889],[32.29116,31.23894],[32.29113,31.23911],[32.2911,31.23918],[32.29107,31.23925],[32.29102,31.23942],[32.29098,31.23956],[32.29097,31.23958],[32.29096,31.23962],[32.29094,31.23969],[32.29092,31.23974],[32.29088,31.23991],[32.29088,31.24],[32.29088,31.24002],[32.29087,31.2401],[32.29087,31.24012],[32.29085,31.24021],[32.29085,31.24031],[32.29085,31.2404],[32.29086,31.24048],[32.29088,31.24056],[32.29088,31.24061],[32.29088,31.24062],[32.29089,31.24067],[32.29089,31.24079],[32.29087,31.24087],[32.29086,31.24088],[32.29081,31.24092],[32.29076,31.24094],[32.29078,31.24102],[32.29085,31.24107],[32.29092,31.24108],[32.29106,31.24111],[32.29115,31.24109],[32.29118,31.24108],[32.2912,31.24107],[32.29127,31.24105],[32.29134,31.24104],[32.29141,31.24102],[32.29144,31.24101],[32.29151,31.24101],[32.29167,31.241],[32.29169,31.24095],[32.29169,31.2409],[32.29169,31.24087],[32.29172,31.24083],[32.29173,31.24082],[32.29178,31.24078],[32.29179,31.2407],[32.29178,31.24065],[32.29178,31.24061],[32.29177,31.24057],[32.29177,31.2405],[32.29175,31.24041],[32.29174,31.24036],[32.29175,31.24026],[32.29176,31.24019],[32.29177,31.2401],[32.29182,31.23999],[32.29184,31.23993],[32.29184,31.23993],[32.29184,31.23992],[32.29186,31.23982],[32.29187,31.2398],[32.2919,31.23975],[32.29193,31.23965],[32.29197,31.23947],[32.29197,31.23936],[32.29198,31.23926],[32.29199,31.23917],[32.29199,31.23916],[32.29199,31.23908],[32.292,31.23901],[32.292,31.23896],[32.29201,31.23891],[32.29201,31.23888],[32.29201,31.23881],[32.29201,31.23865],[32.29202,31.23854],[32.29205,31.23841],[32.29208,31.23838],[32.29211,31.23835],[32.29214,31.23824],[32.29217,31.23813],[32.29218,31.23806],[32.29218,31.23801],[32.29219,31.23794],[32.29235,31.23711],[32.29239,31.23678],[32.29246,31.2363],[32.29253,31.23582],[32.29259,31.23548],[32.29262,31.23526],[32.29262,31.23517],[32.29262,31.23508],[32.29261,31.23486],[32.29263,31.23469],[32.29264,31.23465],[32.29272,31.23444],[32.29288,31.23423],[32.29326,31.23413],[32.29364,31.23403],[32.29375,31.234],[32.29386,31.23396],[32.29406,31.23399],[32.29404,31.23406],[32.29402,31.23416],[32.29368,31.23514],[32.29358,31.23588],[32.29337,31.23724],[32.29326,31.23954],[32.29272,31.24217],[32.29226,31.24562],[32.29152,31.24907],[32.29048,31.24911],[32.2896,31.24922],[32.28919,31.24925],[32.28909,31.2493],[32.28899,31.24935],[32.28793,31.24995],[32.28635,31.25088],[32.28582,31.25117],[32.28394,31.25228]]]}},{"type":"Feature","properties":{"district":"Al-Ganoub","population":39787,"schools":1.0,"seats":680.0,"seats_per_1000_pop":17.091,"utilisation":0.794,"covered_share":0.043,"uncovered_pop":38085.0,"illiteracy_rate":1.005,"priority_index":0.733,"priority_rank":3},"geometry":{"type":"MultiPolygon","coordinates":[[[[32.31081,31.04032],[32.3093,31.07505],[32.30769,31.1275],[32.30608,31.17996],[32.30346,31.22213],[32.30273,31.22856],[32.30258,31.23034],[32.30257,31.23086],[32.30254,31.23161],[32.30251,31.23225],[32.30252,31.23233],[32.30253,31.23241],[32.30259,31.23242],[32.30268,31.23244],[32.3027,31.23256],[32.30264,31.2326],[32.30255,31.23265],[32.30244,31.2327],[32.30242,31.23278],[32.3024,31.23285],[32.30204,31.23305],[32.3017,31.23309],[32.29992,31.23316],[32.29667,31.23328],[32.29487,31.23335],[32.29454,31.23351],[32.29393,31.23356],[32.29337,31.23338],[32.29207,31.2335],[32.29046,31.23364],[32.28905,31.23377],[32.28902,31.23382],[32.289,31.23386],[32.28888,31.23388],[32.28875,31.23389],[32.28871,31.23384],[32.28789,31.23385],[32.28781,31.23393],[32.28779,31.23396],[32.2877,31.23397],[32.28753,31.23398],[32.28723,31.23393],[32.28693,31.23396],[32.28692,31.23396],[32.2868,31.23397],[32.28676,31.23375],[32.28655,31.23338],[32.28629,31.23329],[32.2827,31.23417],[32.28075,31.23532],[32.27916,31.23636],[32.27832,31.23697],[32.27605,31.23862],[32.27203,31.2412],[32.27116,31.24176],[32.2676,31.24419],[32.26676,31.24475],[32.26662,31.24515],[32.26623,31.24535],[32.26486,31.24412],[32.26502,31.24403],[32.26473,31.24243],[32.26844,31.24009],[32.27199,31.2357],[32.27699,31.22968],[32.28079,31.22459],[32.28099,31.21942],[32.28318,31.19323],[32.28433,31.16957],[32.28165,31.16936],[32.27924,31.16881],[32.27881,31.16663],[32.27634,31.16149],[32.27434,31.16185],[32.27209,31.16325],[32.26838,31.16501],[32.26332,31.16632],[32.26249,31.16392],[32.26524,31.15999],[32.27054,31.15684],[32.27356,31.15371],[32.27522,31.14738],[32.27557,31.14393],[32.27536,31.13819],[32.27697,31.12853],[32.27666,31.12601],[32.27444,31.11949],[32.26865,31.11552],[32.26488,31.11292],[32.26458,31.11062],[32.26494,31.10764],[32.26346,31.1065],[32.26101,31.10331],[32.25576,31.09934],[32.24598,31.08623],[32.23434,31.0837],[32.22809,31.08513],[32.22595,31.08515],[32.22503,31.08608],[32.22492,31.08815],[32.22523,31.0909],[32.22285,31.09322],[32.21847,31.09498],[32.21314,31.09503],[32.21184,31.09757],[32.21093,31.09998],[32.21037,31.10791],[32.21033,31.11515],[32.20905,31.11952],[32.20666,31.12092],[32.20666,31.13137],[32.20655,31.14377],[32.20492,31.1517],[32.20471,31.15607],[32.20529,31.15985],[32.20229,31.16527],[32.20098,31.16793],[32.19857,31.16749],[32.19497,31.16764],[32.19461,31.17074],[32.1961,31.17245],[32.19156,31.17237],[32.18821,31.17126],[32.18897,31.16838],[32.18696,31.16771],[32.18298,31.16969],[32.17871,31.17031],[32.17309,31.16863],[32.17425,31.16541],[32.1797,31.16352],[32.18156,31.16259],[32.18087,31.16087],[32.17898,31.15963],[32.17684,31.15907],[32.17083,31.15889],[32.16653,31.15698],[32.16745,31.15514],[32.16969,31.15339],[32.17087,31.15109],[32.17298,31.14958],[32.17606,31.14978],[32.17835,31.1516],[32.18103,31.15284],[32.18652,31.15416],[32.1912,31.15424],[32.19508,31.15489],[32.1968,31.15361],[32.19717,31.1512],[32.1974,31.1481],[32.19572,31.14237],[32.19213,31.14321],[32.18999,31.143],[32.18621,31.13924],[32.1852,31.13374],[32.18369,31.13008],[32.18022,31.13022],[32.17582,31.13095],[32.16796,31.13217],[32.16016,31.1273],[32.16021,31.1203],[32.15763,31.11653],[32.15161,31.11566],[32.14587,31.11537],[32.13798,31.1136],[32.13316,31.11283],[32.12822,31.11219],[32.12411,31.11417],[32.12067,31.11661],[32.11712,31.12192],[32.1142,31.12287],[32.1122,31.12265],[32.11206,31.12014],[32.12286,31.10009],[32.12288,31.10007],[32.13902,31.09077],[32.15517,31.08146],[32.17678,31.06901],[32.17929,31.06271],[32.18413,31.04028],[32.18477,31.03757],[32.20053,31.03792],[32.21628,31.03827],[32.23204,31.03862],[32.24779,31.03896],[32.26355,31.03931],[32.2793,31.03965],[32.29506,31.03999],[32.31081,31.04032]]],[[[32.24346,31.21014],[32.23949,31.21304],[32.23629,31.21353],[32.23495,31.21262],[32.2348,31.21148],[32.23371,31.21],[32.23235,31.20852],[32.22889,31.20912],[32.22714,31.20833],[32.22658,31.2065],[32.22922,31.20349],[32.232,31.20152],[32.23663,31.1986],[32.23902,31.19743],[32.24274,31.19567],[32.24578,31.19347],[32.2495,31.19182],[32.25186,31.18859],[32.25344,31.18639],[32.25381,31.18444],[32.25365,31.18271],[32.25376,31.18053],[32.25388,31.17938],[32.25574,31.17856],[32.25722,31.18004],[32.25872,31.18232],[32.25811,31.18669],[32.25589,31.19004],[32.25327,31.19431],[32.2505,31.19652],[32.24892,31.19849],[32.24841,31.19999],[32.24896,31.20182],[32.25192,31.20294],[32.25591,31.2021],[32.2595,31.20068],[32.26243,31.20008],[32.2679,31.19969],[32.27044,31.19966],[32.27326,31.20056],[32.27676,31.20236],[32.27837,31.20315],[32.27907,31.20578],[32.27468,31.2072],[32.26973,31.20667],[32.26599,31.20614],[32.26238,31.20617],[32.25852,31.20701],[32.25479,31.20819],[32.25186,31.20833],[32.24824,31.20791],[32.24678,31.20815],[32.24346,31.21014]]],[[[32.15975,31.13752],[32.16378,31.13886],[32.1662,31.14091],[32.16294,31.14679],[32.15228,31.14849],[32.14495,31.14982],[32.1431,31.15156],[32.13845,31.16445],[32.13073,31.1659],[32.12139,31.16712],[32.1126,31.16903],[32.1045,31.17243],[32.10158,31.17429],[32.09894,31.17649],[32.09697,31.17961],[32.0966,31.18225],[32.09382,31.184],[32.08888,31.18438],[32.08593,31.18349],[32.08574,31.17878],[32.08837,31.17451],[32.08978,31.16979],[32.09349,31.16747],[32.09548,31.16653],[32.10853,31.16298],[32.11678,31.16039],[32.12446,31.15527],[32.13026,31.14879],[32.13713,31.143],[32.14614,31.13752],[32.156,31.13652],[32.15975,31.13752]]]]}},{"type":"Feature","properties":{"district":"Al-Ganoub 2","population":36341,"schools":0.0,"seats":0.0,"seats_per_1000_pop":0.0,"utilisation":null,"covered_share":0.015,"uncovered_pop":35787.0,"illiteracy_rate":1.183,"priority_index":0.753,"priority_rank":2},"geometry":{"type":"Polygon","coordinates":[[[32.3144,30.9009],[32.31627,30.91183],[32.31503,30.9372],[32.31369,30.96554],[32.31159,31.02101],[32.3112,31.03138],[32.31081,31.04032],[32.29506,31.03999],[32.2793,31.03965],[32.26355,31.03931],[32.24779,31.03896],[32.23204,31.03862],[32.21628,31.03827],[32.20053,31.03792],[32.18477,31.03757],[32.19031,31.01428],[32.19585,30.991],[32.20139,30.96771],[32.20692,30.94443],[32.20824,30.93865],[32.20859,30.93709],[32.2086,30.93708],[32.19498,30.92968],[32.18137,30.92227],[32.17981,30.90996],[32.17963,30.90859],[32.17959,30.90824],[32.17821,30.89738],[32.17853,30.89739],[32.20651,30.89809],[32.23448,30.89879],[32.26245,30.89949],[32.29042,30.90018],[32.292,30.90021],[32.3144,30.9009]]]}},{"type":"Feature","properties":{"district":"Al-Manasra","population":5304,"schools":3.0,"seats":2108.0,"seats_per_1000_pop":397.436,"utilisation":0.802,"covered_share":0.155,"uncovered_pop":4484.0,"illiteracy_rate":2.828,"priority_index":0.291,"priority_rank":11},"geometry":{"type":"MultiPolygon","coordinates":[[[[32.26646,31.2796],[32.25476,31.28155],[32.24847,31.28125],[32.22011,31.28784],[32.21475,31.28861],[32.20561,31.29072],[32.18889,31.29575],[32.17309,31.30403],[32.15694,31.31501],[32.14396,31.32439],[32.124,31.33804],[32.09966,31.34977],[32.08134,31.35585],[32.0636,31.36493],[32.05997,31.35951],[32.05997,31.35951],[32.06357,31.35748],[32.0689,31.35594],[32.07318,31.35533],[32.08117,31.35252],[32.08061,31.34976],[32.0786,31.3499],[32.07526,31.35004],[32.07379,31.35039],[32.07311,31.34914],[32.07269,31.34776],[32.0751,31.34763],[32.07711,31.34773],[32.08004,31.34713],[32.08364,31.34618],[32.08764,31.34466],[32.09773,31.33826],[32.10159,31.33651],[32.10571,31.33429],[32.10903,31.33232],[32.11289,31.3301],[32.12166,31.32601],[32.13044,31.32135],[32.13957,31.31312],[32.15062,31.30343],[32.16167,31.29375],[32.18183,31.28533],[32.19384,31.27952],[32.20022,31.27635],[32.20816,31.27244],[32.22158,31.26679],[32.23499,31.26115],[32.24993,31.25264],[32.26486,31.24412],[32.26623,31.24535],[32.26699,31.2461],[32.26684,31.24641],[32.26647,31.24708],[32.26643,31.24714],[32.26639,31.2472],[32.26637,31.24745],[32.26558,31.24844],[32.26351,31.25106],[32.26347,31.25119],[32.26347,31.25119],[32.26347,31.25125],[32.26349,31.25132],[32.26109,31.25374],[32.26045,31.25453],[32.25894,31.25619],[32.25706,31.259],[32.25603,31.26055],[32.25555,31.26128],[32.25464,31.26222],[32.25248,31.26459],[32.25114,31.26611],[32.2503,31.26642],[32.25034,31.26816],[32.26498,31.27272],[32.26507,31.27302],[32.26524,31.27367],[32.26572,31.27546],[32.26571,31.27554],[32.26569,31.27563],[32.26566,31.2757],[32.26562,31.27578],[32.26561,31.27584],[32.26561,31.27586],[32.2656,31.27589],[32.26559,31.27591],[32.26557,31.276],[32.26587,31.27706],[32.26646,31.2796]]],[[[32.09786,31.31438],[32.09239,31.31592],[32.08716,31.31458],[32.08527,31.31253],[32.08441,31.30737],[32.08487,31.30094],[32.08681,31.29576],[32.09051,31.29182],[32.0933,31.29019],[32.09703,31.28867],[32.10048,31.28704],[32.1054,31.28447],[32.10913,31.28341],[32.11393,31.28222],[32.12221,31.28192],[32.12556,31.28235],[32.12824,31.28279],[32.13052,31.28357],[32.13255,31.28517],[32.13271,31.28769],[32.12953,31.28978],[32.12511,31.28959],[32.12136,31.28916],[32.11721,31.28839],[32.11387,31.28819],[32.11119,31.28833],[32.10414,31.29068],[32.09949,31.29393],[32.09499,31.29776],[32.09289,31.30099],[32.09144,31.30272],[32.09039,31.3048],[32.09041,31.30664],[32.0907,31.30813],[32.09191,31.30915],[32.09326,31.30994],[32.09431,31.30856],[32.09592,31.30854],[32.09786,31.31438]]],[[[32.15204,31.24975],[32.15273,31.25159],[32.15221,31.25297],[32.15078,31.25631],[32.14357,31.25694],[32.1413,31.25673],[32.13941,31.25549],[32.13886,31.25446],[32.13991,31.25227],[32.14149,31.25099],[32.14309,31.24994],[32.14602,31.24935],[32.14816,31.24967],[32.1507,31.24954],[32.15204,31.24975]]],[[[32.10017,31.23721],[32.10245,31.23788],[32.10372,31.24339],[32.1027,31.24787],[32.09968,31.2518],[32.09715,31.25297],[32.09341,31.25323],[32.08967,31.25314],[32.08833,31.25269],[32.08844,31.25132],[32.08838,31.24615],[32.08888,31.24305],[32.09044,31.23902],[32.09269,31.23705],[32.0959,31.23702],[32.10017,31.23721]]],[[[32.16983,31.2403],[32.16732,31.24296],[32.16548,31.24551],[32.16069,31.24681],[32.1556,31.24628],[32.15212,31.24596],[32.14998,31.24529],[32.14849,31.24359],[32.14981,31.2422],[32.15179,31.24069],[32.15069,31.23806],[32.14974,31.23646],[32.1489,31.23359],[32.14888,31.23199],[32.15099,31.22967],[32.15232,31.22897],[32.15393,31.2293],[32.15515,31.23124],[32.15505,31.23377],[32.15549,31.23664],[32.15725,31.23857],[32.16125,31.23785],[32.16521,31.23426],[32.16986,31.23215],[32.17439,31.23108],[32.17679,31.23071],[32.17865,31.22932],[32.1797,31.22793],[32.18169,31.22688],[32.18383,31.22755],[32.18349,31.23226],[32.18424,31.23834],[32.18319,31.24041],[32.18038,31.23987],[32.17796,31.23874],[32.17595,31.23795],[32.17407,31.23774],[32.17274,31.2381],[32.16983,31.2403]]],[[[32.18552,31.21295],[32.18152,31.21356],[32.17726,31.21429],[32.17367,31.2157],[32.16889,31.21873],[32.16572,31.22105],[32.16334,31.22314],[32.15921,31.22386],[32.1572,31.22342],[32.15597,31.22159],[32.1586,31.2179],[32.1627,31.21488],[32.16562,31.21347],[32.16907,31.21149],[32.17333,31.20996],[32.18452,31.20757],[32.19613,31.20701],[32.20468,31.2067],[32.20935,31.2062],[32.21482,31.20615],[32.21763,31.20647],[32.22031,31.20702],[32.22114,31.20896],[32.21797,31.2122],[32.21036,31.21216],[32.20583,31.21278],[32.20156,31.21339],[32.19608,31.21344],[32.19153,31.2129],[32.18552,31.21295]]]]}},{"type":"Feature","properties":{"district":"Al-Munakh","population":80396,"schools":9.0,"seats":6800.0,"seats_per_1000_pop":84.581,"utilisation":0.828,"covered_share":1.0,"uncovered_pop":0.0,"illiteracy_rate":1.306,"priority_index":0.356,"priority_rank":10},"geometry":{"type":"Polygon","coordinates":[[[32.29799,31.2747],[32.29683,31.27479],[32.29382,31.27502],[32.2794,31.27743],[32.27869,31.27583],[32.27828,31.27472],[32.27823,31.27463],[32.27818,31.27453],[32.27973,31.27414],[32.27908,31.27241],[32.27891,31.27183],[32.27889,31.27177],[32.27887,31.2717],[32.27879,31.2715],[32.27868,31.27115],[32.27801,31.26931],[32.27759,31.26817],[32.27753,31.268],[32.27776,31.26794],[32.27808,31.26786],[32.27833,31.2678],[32.2788,31.26768],[32.27928,31.26756],[32.27953,31.26749],[32.27982,31.26741],[32.28055,31.26722],[32.28065,31.2672],[32.28074,31.26717],[32.28006,31.26534],[32.27877,31.26169],[32.27861,31.26136],[32.27834,31.26082],[32.27825,31.26064],[32.27821,31.26059],[32.27816,31.26054],[32.27758,31.26017],[32.27702,31.25981],[32.27617,31.25928],[32.27492,31.25849],[32.2772,31.25634],[32.27727,31.25628],[32.27734,31.25622],[32.28073,31.25417],[32.28394,31.25228],[32.28741,31.25677],[32.28803,31.25766],[32.29052,31.26096],[32.29059,31.26105],[32.29066,31.26115],[32.29164,31.26243],[32.29182,31.26268],[32.29187,31.26277],[32.29188,31.26279],[32.29192,31.26288],[32.29209,31.26311],[32.29286,31.26407],[32.2936,31.26366],[32.29448,31.26478],[32.29476,31.26516],[32.29586,31.26659],[32.29619,31.26705],[32.29671,31.26774],[32.29635,31.26797],[32.29633,31.26804],[32.29632,31.26812],[32.29637,31.26837],[32.29648,31.26887],[32.29745,31.2687],[32.29763,31.26947],[32.29668,31.26967],[32.29675,31.26997],[32.29688,31.2705],[32.29696,31.27077],[32.29705,31.27109],[32.29717,31.27154],[32.29728,31.27206],[32.2974,31.27241],[32.29791,31.27441],[32.29799,31.2747]]]}},{"type":"Feature","properties":{"district":"Al-Sharq","population":32927,"schools":3.0,"seats":1802.0,"seats_per_1000_pop":54.727,"utilisation":0.746,"covered_share":0.913,"uncovered_pop":2857.0,"illiteracy_rate":1.397,"priority_index":0.425,"priority_rank":8},"geometry":{"type":"Polygon","coordinates":[[[32.29897,31.23396],[32.30051,31.23386],[32.30215,31.23391],[32.30314,31.24092],[32.30338,31.24679],[32.30277,31.24702],[32.30573,31.25259],[32.30087,31.25528],[32.30115,31.25571],[32.30201,31.25528],[32.3027,31.25616],[32.30217,31.25652],[32.30254,31.25702],[32.30589,31.25514],[32.30709,31.25676],[32.30455,31.25825],[32.30517,31.25913],[32.30951,31.25658],[32.31075,31.25814],[32.30914,31.25899],[32.30981,31.25979],[32.31139,31.25896],[32.32209,31.27364],[32.32321,31.27515],[32.32346,31.27547],[32.32416,31.27639],[32.32478,31.27723],[32.32501,31.27755],[32.32875,31.28389],[32.33389,31.2923],[32.33273,31.29304],[32.32042,31.27558],[32.31682,31.2737],[32.31026,31.27398],[32.30455,31.27423],[32.30456,31.27371],[32.30451,31.27115],[32.30418,31.26968],[32.30391,31.26876],[32.30366,31.26767],[32.30363,31.26757],[32.3036,31.26748],[32.30344,31.26688],[32.30339,31.26662],[32.30338,31.2666],[32.30337,31.26658],[32.30322,31.26636],[32.3028,31.26572],[32.30049,31.26263],[32.29905,31.26077],[32.29903,31.26073],[32.29901,31.26069],[32.29845,31.26096],[32.29773,31.26136],[32.29748,31.26151],[32.29703,31.26177],[32.29683,31.26189],[32.29677,31.26192],[32.29671,31.26187],[32.29662,31.26178],[32.29649,31.26158],[32.29617,31.26113],[32.2959,31.26075],[32.2933,31.2576],[32.29085,31.25466],[32.29023,31.25368],[32.28988,31.25265],[32.29008,31.2513],[32.29021,31.25113],[32.29022,31.25107],[32.29023,31.25101],[32.29042,31.24948],[32.29048,31.24911],[32.29152,31.24907],[32.29226,31.24562],[32.29272,31.24217],[32.29326,31.23954],[32.29337,31.23724],[32.29358,31.23588],[32.29368,31.23514],[32.29402,31.23416],[32.29404,31.23406],[32.29406,31.23399],[32.29422,31.23402],[32.29426,31.23402],[32.29449,31.23404],[32.2946,31.23401],[32.29463,31.23394],[32.29465,31.23386],[32.29473,31.23383],[32.2949,31.23389],[32.2949,31.23399],[32.2949,31.23399],[32.29492,31.23409],[32.29521,31.23408],[32.29573,31.23405],[32.29617,31.23402],[32.29645,31.23401],[32.29682,31.23401],[32.29706,31.23401],[32.29709,31.23395],[32.29712,31.2339],[32.29886,31.23384],[32.29898,31.23387],[32.29898,31.23389],[32.29897,31.23396]]]}},{"type":"Feature","properties":{"district":"Al-Zohour","population":252928,"schools":6.0,"seats":4624.0,"seats_per_1000_pop":18.282,"utilisation":0.823,"covered_share":1.0,"uncovered_pop":28.0,"illiteracy_rate":1.787,"priority_index":0.489,"priority_rank":5},"geometry":{"type":"Polygon","coordinates":[[[32.2794,31.27743],[32.26646,31.2796],[32.26587,31.27706],[32.26557,31.276],[32.26559,31.27591],[32.2656,31.27589],[32.26561,31.27586],[32.26561,31.27584],[32.26562,31.27578],[32.26566,31.2757],[32.26569,31.27563],[32.26571,31.27554],[32.26572,31.27546],[32.26524,31.27367],[32.26507,31.27302],[32.26498,31.27272],[32.25034,31.26816],[32.2503,31.26642],[32.25114,31.26611],[32.25248,31.26459],[32.25464,31.26222],[32.25555,31.26128],[32.25603,31.26055],[32.25706,31.259],[32.25894,31.25619],[32.26045,31.25453],[32.26109,31.25374],[32.26349,31.25132],[32.26649,31.25305],[32.26801,31.25392],[32.27416,31.25796],[32.27492,31.25849],[32.27617,31.25928],[32.27702,31.25981],[32.27758,31.26017],[32.27816,31.26054],[32.27821,31.26059],[32.27825,31.26064],[32.27834,31.26082],[32.27861,31.26136],[32.27877,31.26169],[32.28006,31.26534],[32.28074,31.26717],[32.28065,31.2672],[32.28055,31.26722],[32.27982,31.26741],[32.27953,31.26749],[32.27928,31.26756],[32.2788,31.26768],[32.27833,31.2678],[32.27808,31.26786],[32.27776,31.26794],[32.27753,31.268],[32.27759,31.26817],[32.27801,31.26931],[32.27868,31.27115],[32.27879,31.2715],[32.27887,31.2717],[32.27889,31.27177],[32.27891,31.27183],[32.27908,31.27241],[32.27973,31.27414],[32.27818,31.27453],[32.27823,31.27463],[32.27828,31.27472],[32.27869,31.27583],[32.2794,31.27743]]]}},{"type":"Feature","properties":{"district":"Mubark-Sharq Tafrea","population":6932,"schools":0.0,"seats":0.0,"seats_per_1000_pop":0.0,"utilisation":null,"covered_share":0.0,"uncovered_pop":6932.0,"illiteracy_rate":1.587,"priority_index":0.543,"priority_rank":4},"geometry":{"type":"Polygon","coordinates":[[[32.55033,31.0825],[32.55002,31.08272],[32.54128,31.08942],[32.53736,31.09277],[32.53201,31.09719],[32.52755,31.10076],[32.52328,31.10365],[32.52006,31.10639],[32.51685,31.10929],[32.51435,31.11203],[32.51167,31.11493],[32.50882,31.11782],[32.50166,31.12789],[32.49897,31.13216],[32.49683,31.13414],[32.49575,31.13628],[32.49378,31.13856],[32.49199,31.14146],[32.49055,31.14428],[32.48698,31.14733],[32.48198,31.1522],[32.47911,31.15739],[32.47252,31.16073],[32.46948,31.16377],[32.46339,31.17262],[32.45928,31.17642],[32.45196,31.1819],[32.44571,31.18554],[32.44036,31.18904],[32.43536,31.19345],[32.43303,31.19634],[32.42928,31.19862],[32.42429,31.20089],[32.42179,31.20226],[32.39755,31.21255],[32.38433,31.22212],[32.3711,31.23169],[32.35067,31.23898],[32.34993,31.23511],[32.3506,31.23322],[32.34879,31.22604],[32.34924,31.22331],[32.34392,31.20485],[32.34225,31.20346],[32.33211,31.17023],[32.32198,31.13701],[32.31154,31.10621],[32.31129,31.09184],[32.31385,31.03263],[32.3164,30.97342],[32.31772,30.9372],[32.31838,30.91937],[32.31866,30.91164],[32.324,30.91185],[32.33819,30.91819],[32.35238,30.92454],[32.36658,30.93088],[32.38077,30.93722],[32.3808,30.93723],[32.3902,30.94143],[32.39038,30.94151],[32.41544,30.95271],[32.4405,30.9639],[32.4545,30.97017],[32.4685,30.97644],[32.4825,30.9827],[32.49651,30.98896],[32.49936,30.99024],[32.52049,30.99969],[32.52602,31.00217],[32.53712,31.00713],[32.54483,31.05145],[32.55033,31.0825]]]}},{"type":"Feature","properties":{"district":"Port Fuad","population":85015,"schools":6.0,"seats":4998.0,"seats_per_1000_pop":58.79,"utilisation":0.683,"covered_share":0.675,"uncovered_pop":27625.0,"illiteracy_rate":2.258,"priority_index":0.767,"priority_rank":1},"geometry":{"type":"Polygon","coordinates":[[[32.34434,31.24363],[32.32721,31.25414],[32.32721,31.25414],[32.32721,31.25414],[32.32753,31.25447],[32.32754,31.25448],[32.32768,31.25465],[32.3279,31.2549],[32.32805,31.25506],[32.32975,31.25686],[32.32975,31.25686],[32.32964,31.25701],[32.32955,31.25712],[32.32955,31.25712],[32.32955,31.25712],[32.33007,31.25767],[32.33007,31.25767],[32.33007,31.25767],[32.32953,31.25851],[32.32952,31.25861],[32.32951,31.25871],[32.32912,31.25914],[32.32836,31.25997],[32.32845,31.2601],[32.32847,31.26014],[32.32853,31.26011],[32.32851,31.26034],[32.32851,31.26034],[32.32804,31.26056],[32.32732,31.26087],[32.32685,31.2614],[32.32684,31.26141],[32.32684,31.26141],[32.32683,31.26142],[32.32683,31.26143],[32.32682,31.26144],[32.32682,31.26145],[32.32681,31.26146],[32.32681,31.26147],[32.3268,31.26147],[32.3268,31.26148],[32.3268,31.26149],[32.32679,31.2615],[32.32679,31.2615],[32.32679,31.26151],[32.32678,31.26152],[32.32678,31.26153],[32.32678,31.26154],[32.32678,31.26155],[32.32677,31.26156],[32.32677,31.26157],[32.32677,31.26157],[32.32677,31.26158],[32.32676,31.26159],[32.32676,31.2616],[32.32676,31.26161],[32.32676,31.26162],[32.32676,31.26163],[32.32676,31.26164],[32.32676,31.26164],[32.32676,31.26165],[32.32676,31.26166],[32.32676,31.26167],[32.32676,31.26168],[32.32676,31.26169],[32.32676,31.2617],[32.32676,31.26171],[32.32676,31.26172],[32.32676,31.26173],[32.32676,31.26174],[32.32676,31.26175],[32.32676,31.26176],[32.32676,31.26176],[32.32677,31.26177],[32.32677,31.26177],[32.32677,31.26178],[32.32677,31.26179],[32.32677,31.2618],[32.32678,31.26181],[32.32678,31.26182],[32.32678,31.26183],[32.32679,31.26184],[32.32679,31.26185],[32.32679,31.26186],[32.3268,31.26187],[32.3268,31.26188],[32.3268,31.26188],[32.32681,31.26189],[32.32681,31.2619],[32.32682,31.26191],[32.32682,31.26192],[32.32683,31.26193],[32.32683,31.26194],[32.32684,31.26195],[32.32684,31.26195],[32.32685,31.26196],[32.32685,31.26197],[32.3269,31.26205],[32.32694,31.26212],[32.32698,31.26218],[32.32701,31.26225],[32.32704,31.26232],[32.32707,31.26239],[32.3271,31.26246],[32.32713,31.26253],[32.32716,31.2626],[32.32739,31.26348],[32.3276,31.26437],[32.32782,31.26526],[32.32803,31.26614],[32.32816,31.26668],[32.3283,31.26721],[32.32843,31.26774],[32.32856,31.26828],[32.32871,31.26887],[32.32886,31.26945],[32.32901,31.27004],[32.32916,31.27063],[32.32929,31.27114],[32.32942,31.27166],[32.32955,31.27217],[32.32967,31.27269],[32.32965,31.27269],[32.3296,31.27269],[32.32947,31.27218],[32.32935,31.27167],[32.32922,31.27116],[32.32909,31.27065],[32.32894,31.27006],[32.32879,31.26947],[32.32864,31.26888],[32.32849,31.2683],[32.32844,31.26809],[32.32839,31.26789],[32.32557,31.26976],[32.32555,31.26974],[32.32838,31.26785],[32.3283,31.26754],[32.32823,31.26723],[32.32809,31.2667],[32.32796,31.26616],[32.32774,31.26527],[32.32753,31.26439],[32.32731,31.2635],[32.32709,31.26261],[32.32706,31.26254],[32.32703,31.26247],[32.327,31.26241],[32.32697,31.26234],[32.32694,31.26227],[32.3269,31.2622],[32.32687,31.26214],[32.32683,31.26207],[32.32678,31.26199],[32.32678,31.26198],[32.32677,31.26197],[32.32677,31.26196],[32.32676,31.26196],[32.32676,31.26195],[32.32675,31.26194],[32.32675,31.26193],[32.32674,31.26192],[32.32674,31.26191],[32.32673,31.2619],[32.32673,31.2619],[32.32673,31.26189],[32.32672,31.26188],[32.32672,31.26187],[32.32671,31.26186],[32.32671,31.26185],[32.32671,31.26184],[32.32671,31.26183],[32.3267,31.26182],[32.3267,31.26181],[32.3267,31.2618],[32.3267,31.2618],[32.32669,31.26179],[32.32669,31.26178],[32.32669,31.26177],[32.32669,31.26176],[32.32669,31.26175],[32.32669,31.26174],[32.32669,31.26173],[32.32669,31.26172],[32.32669,31.26171],[32.32669,31.2617],[32.32669,31.26169],[32.32669,31.26168],[32.32669,31.26167],[32.32669,31.26166],[32.32669,31.26165],[32.32669,31.26164],[32.32669,31.26163],[32.32669,31.26163],[32.32669,31.26162],[32.3267,31.26161],[32.3267,31.2616],[32.3267,31.26159],[32.3267,31.26158],[32.3267,31.26157],[32.32671,31.26156],[32.32671,31.26155],[32.32671,31.26154],[32.32672,31.26153],[32.32672,31.26152],[32.32672,31.26151],[32.32673,31.26151],[32.32673,31.2615],[32.32673,31.26149],[32.32674,31.26149],[32.32674,31.26148],[32.32674,31.26147],[32.32675,31.26146],[32.32675,31.26145],[32.32676,31.26145],[32.32677,31.26144],[32.32677,31.26143],[32.32677,31.26143],[32.32677,31.26143],[32.32677,31.26143],[32.32677,31.26143],[32.32677,31.26143],[32.32677,31.26143],[32.32677,31.26143],[32.32677,31.26143],[32.32677,31.26143],[32.32677,31.26143],[32.32677,31.26143],[32.32677,31.26143],[32.32677,31.26143],[32.32677,31.26143],[32.32677,31.26143],[32.32677,31.26143],[32.32677,31.26143],[32.32677,31.26143],[32.32677,31.26143],[32.32677,31.26143],[32.32677,31.26142],[32.32677,31.26142],[32.32677,31.26142],[32.32677,31.26142],[32.32677,31.26142],[32.32677,31.26142],[32.32677,31.26142],[32.32677,31.26142],[32.32677,31.26142],[32.32677,31.26142],[32.32677,31.26142],[32.32677,31.26142],[32.32677,31.26142],[32.32677,31.26142],[32.32677,31.26142],[32.32677,31.26142],[32.32677,31.26142],[32.32677,31.26142],[32.32677,31.26142],[32.32677,31.26142],[32.32677,31.26141],[32.32677,31.26141],[32.32677,31.26141],[32.32677,31.26141],[32.32677,31.26141],[32.32677,31.26141],[32.32677,31.26141],[32.32677,31.26141],[32.32677,31.26141],[32.32677,31.26141],[32.32677,31.26141],[32.32677,31.26141],[32.32677,31.26141],[32.32677,31.26141],[32.32677,31.26141],[32.32677,31.26141],[32.3266,31.2612],[32.32648,31.26059],[32.32639,31.26027],[32.32627,31.26003],[32.32518,31.26007],[32.32518,31.26007],[32.32518,31.26037],[32.32525,31.26037],[32.32526,31.2606],[32.32503,31.2606],[32.32503,31.26038],[32.32513,31.26037],[32.32511,31.26007],[32.32428,31.26012],[32.32384,31.26038],[32.32384,31.26038],[32.32401,31.2606],[32.32396,31.26063],[32.32415,31.26088],[32.32411,31.2609],[32.32393,31.26065],[32.32387,31.26069],[32.32371,31.26046],[32.32267,31.26104],[32.32283,31.26127],[32.3227,31.26135],[32.32251,31.26112],[32.32251,31.26112],[32.32009,31.26244],[32.3195,31.26166],[32.32037,31.26117],[32.32035,31.26114],[32.32003,31.26071],[32.32014,31.26065],[32.32044,31.26103],[32.32117,31.26062],[32.3251,31.25846],[32.32424,31.25502],[32.32287,31.25578],[32.32304,31.25644],[32.32307,31.25644],[32.32311,31.25643],[32.32312,31.25647],[32.32308,31.25648],[32.32305,31.25649],[32.32315,31.25691],[32.32319,31.25691],[32.32322,31.2569],[32.32324,31.25695],[32.3232,31.25696],[32.32317,31.25697],[32.32332,31.25759],[32.32294,31.25779],[32.32276,31.25753],[32.32271,31.25755],[32.32263,31.2576],[32.32252,31.25743],[32.32258,31.25739],[32.32264,31.25735],[32.32186,31.25634],[32.32093,31.25687],[32.32191,31.2582],[32.32162,31.25837],[32.3212,31.25779],[32.32089,31.25796],[32.32131,31.25854],[32.32104,31.25868],[32.32046,31.25792],[32.32005,31.25739],[32.31899,31.25797],[32.31899,31.25801],[32.31899,31.25805],[32.31943,31.25863],[32.31991,31.25926],[32.3199,31.25929],[32.31989,31.25932],[32.31982,31.25936],[32.3197,31.25942],[32.31969,31.25947],[32.31969,31.25951],[32.31866,31.26008],[32.31865,31.26008],[32.31863,31.26008],[32.31821,31.25954],[32.31731,31.25833],[32.31722,31.25838],[32.31712,31.25844],[32.31668,31.25779],[32.31695,31.25765],[32.31689,31.25756],[32.31684,31.25747],[32.31717,31.25729],[32.31725,31.25725],[32.31732,31.25726],[32.3174,31.2572],[32.3173,31.25706],[32.31724,31.25709],[32.3172,31.2571],[32.31696,31.25673],[32.31698,31.25671],[32.317,31.25668],[32.31672,31.2563],[32.31661,31.25636],[32.3165,31.25641],[32.31622,31.25655],[32.31623,31.25657],[32.31624,31.25659],[32.31589,31.25677],[32.31576,31.25657],[32.31571,31.25659],[32.31561,31.25646],[32.31568,31.25643],[32.31565,31.25639],[32.31553,31.25644],[32.31544,31.25648],[32.3152,31.25619],[32.31528,31.25613],[32.31537,31.25607],[32.31537,31.25607],[32.31489,31.25545],[32.31488,31.25545],[32.31488,31.25546],[32.31471,31.25524],[32.31478,31.25518],[32.31489,31.25508],[32.31485,31.25505],[32.31476,31.25509],[32.31459,31.25518],[32.31453,31.25511],[32.31474,31.25489],[32.31477,31.25486],[32.31474,31.25483],[32.31471,31.2548],[32.31448,31.25491],[32.31425,31.25464],[32.31433,31.25457],[32.31443,31.25449],[32.31434,31.2544],[32.31415,31.25449],[32.31404,31.25454],[32.31393,31.25439],[32.31396,31.25436],[32.31404,31.2543],[32.31373,31.25388],[32.31369,31.2539],[32.31366,31.25391],[32.31368,31.25393],[32.31364,31.25395],[32.31358,31.25388],[32.31362,31.25386],[32.31364,31.25389],[32.31367,31.25387],[32.3137,31.25385],[32.31367,31.2538],[32.31364,31.25375],[32.31381,31.25366],[32.31387,31.25364],[32.31386,31.25362],[32.31385,31.25361],[32.3142,31.2534],[32.31422,31.25343],[32.31426,31.25341],[32.31428,31.25344],[32.31432,31.25349],[32.31439,31.25345],[32.31441,31.25339],[32.31394,31.25276],[32.31363,31.25291],[32.31366,31.25296],[32.31367,31.25297],[32.3137,31.25295],[32.31372,31.25299],[32.3136,31.25306],[32.31358,31.25302],[32.31362,31.253],[32.31361,31.25299],[32.31358,31.25295],[32.31334,31.25307],[32.31337,31.2531],[32.31343,31.25318],[32.31327,31.25327],[32.31322,31.25321],[32.31332,31.25314],[32.3133,31.25313],[32.31328,31.25311],[32.31321,31.25315],[32.31317,31.25317],[32.31315,31.25314],[32.31317,31.25312],[32.31316,31.25312],[32.3131,31.25304],[32.31307,31.25306],[32.31304,31.25307],[32.31313,31.2532],[32.31306,31.25323],[32.31286,31.25298],[32.31292,31.25295],[32.313,31.25303],[32.31302,31.25303],[32.31306,31.253],[32.31287,31.25279],[32.3128,31.25282],[32.31273,31.25285],[32.31239,31.25241],[32.31265,31.25227],[32.31247,31.25205],[32.31243,31.25207],[32.31242,31.25207],[32.3124,31.25205],[32.31238,31.25201],[32.31238,31.25201],[32.31233,31.25203],[32.31227,31.25195],[32.31242,31.25188],[32.31253,31.25182],[32.31246,31.25174],[32.31242,31.25169],[32.31218,31.25182],[32.31213,31.25177],[32.31291,31.25132],[32.31295,31.25138],[32.31297,31.2514],[32.31302,31.25137],[32.3126,31.25083],[32.31256,31.25085],[32.31252,31.25087],[32.31194,31.25004],[32.31177,31.2498],[32.31172,31.24982],[32.31167,31.24984],[32.31149,31.24994],[32.31153,31.24999],[32.31157,31.25003],[32.31224,31.25086],[32.31222,31.25091],[32.31221,31.25095],[32.31171,31.25121],[32.31168,31.25117],[32.31164,31.25119],[32.31156,31.25107],[32.31158,31.25102],[32.31158,31.25102],[32.3116,31.25097],[32.3114,31.25066],[32.31136,31.25068],[32.31132,31.2507],[32.31102,31.25032],[32.3108,31.25003],[32.31065,31.24984],[32.31071,31.24981],[32.31084,31.24973],[32.3104,31.24919],[32.31031,31.24923],[32.31022,31.24928],[32.30906,31.24772],[32.30906,31.24772],[32.30906,31.24772],[32.30906,31.24771],[32.30906,31.24771],[32.30906,31.24771],[32.30906,31.24771],[32.30905,31.24771],[32.30905,31.24771],[32.30905,31.24771],[32.30905,31.24771],[32.30905,31.2477],[32.30905,31.2477],[32.30905,31.2477],[32.30905,31.2477],[32.30905,31.2477],[32.30905,31.2477],[32.30905,31.2477],[32.30905,31.24769],[32.30905,31.24769],[32.30905,31.24769],[32.30905,31.24769],[32.30905,31.24769],[32.30905,31.24769],[32.30905,31.24768],[32.30905,31.24768],[32.30905,31.24768],[32.30905,31.24768],[32.30905,31.24768],[32.30905,31.24768],[32.30905,31.24768],[32.30905,31.24767],[32.30905,31.24767],[32.30905,31.24767],[32.30905,31.24767],[32.30905,31.24767],[32.30905,31.24767],[32.30905,31.24767],[32.30905,31.24766],[32.30905,31.24766],[32.30905,31.24766],[32.30905,31.24766],[32.30905,31.24766],[32.30905,31.24766],[32.30905,31.24766],[32.30906,31.24765],[32.30906,31.24765],[32.30906,31.24765],[32.30906,31.24765],[32.30906,31.24765],[32.30906,31.24765],[32.30906,31.24765],[32.30906,31.24765],[32.30906,31.24764],[32.30906,31.24764],[32.30906,31.24764],[32.30951,31.24737],[32.30955,31.2474],[32.30959,31.24742],[32.31017,31.24705],[32.31019,31.24704],[32.31019,31.24703],[32.31016,31.24699],[32.3102,31.24698],[32.31022,31.24701],[32.31023,31.24701],[32.31031,31.24697],[32.31035,31.24701],[32.31083,31.24672],[32.31089,31.24666],[32.31089,31.24666],[32.31089,31.24664],[32.31111,31.24652],[32.3118,31.24614],[32.31246,31.24576],[32.31248,31.24575],[32.31249,31.24574],[32.3125,31.24574],[32.31251,31.24573],[32.31253,31.24572],[32.31254,31.24571],[32.31255,31.24571],[32.31256,31.2457],[32.31257,31.24569],[32.31258,31.24568],[32.31259,31.24568],[32.3126,31.24567],[32.31261,31.24566],[32.31262,31.24565],[32.31263,31.24564],[32.31264,31.24564],[32.31265,31.24563],[32.31266,31.24562],[32.31267,31.24561],[32.31268,31.2456],[32.31269,31.24559],[32.3127,31.24558],[32.31271,31.24557],[32.31272,31.24556],[32.31272,31.24555],[32.31273,31.24554],[32.31274,31.24553],[32.31275,31.24552],[32.31275,31.24551],[32.31276,31.2455],[32.31277,31.24549],[32.31278,31.24548],[32.31296,31.24518],[32.31303,31.24506],[32.31304,31.24506],[32.31307,31.24506],[32.3131,31.24501],[32.31309,31.245],[32.31308,31.245],[32.31311,31.24493],[32.31312,31.24493],[32.31314,31.24494],[32.31337,31.24446],[32.31335,31.24444],[32.31332,31.24443],[32.31352,31.24398],[32.31357,31.24398],[32.31357,31.24398],[32.31358,31.24398],[32.31358,31.24398],[32.31358,31.24398],[32.31359,31.24398],[32.31359,31.24398],[32.31359,31.24397],[32.3136,31.24397],[32.3136,31.24397],[32.3136,31.24397],[32.31361,31.24397],[32.31361,31.24397],[32.31361,31.24396],[32.31362,31.24396],[32.31362,31.24396],[32.31362,31.24396],[32.31362,31.24396],[32.31363,31.24395],[32.31363,31.24395],[32.31363,31.24395],[32.31364,31.24395],[32.31364,31.24395],[32.31364,31.24394],[32.31365,31.24394],[32.31365,31.24394],[32.31365,31.24394],[32.31365,31.24393],[32.31366,31.24393],[32.31366,31.24393],[32.31366,31.24393],[32.31367,31.24392],[32.31367,31.24392],[32.31367,31.24392],[32.31367,31.24391],[32.31368,31.24391],[32.31368,31.24391],[32.31368,31.24391],[32.31368,31.2439],[32.31368,31.2439],[32.31369,31.2439],[32.31369,31.24389],[32.31369,31.24389],[32.31369,31.24389],[32.31369,31.24388],[32.3137,31.24388],[32.3137,31.24388],[32.3137,31.24388],[32.3137,31.24387],[32.3137,31.24387],[32.3137,31.24387],[32.3137,31.24386],[32.31371,31.24386],[32.31371,31.24386],[32.31371,31.24385],[32.31371,31.24385],[32.31371,31.24385],[32.31371,31.24384],[32.31371,31.24384],[32.31371,31.24384],[32.31371,31.24383],[32.31371,31.24383],[32.31372,31.24382],[32.31372,31.24382],[32.31372,31.24382],[32.31372,31.24381],[32.31372,31.24381],[32.31372,31.24381],[32.31372,31.2438],[32.31372,31.2438],[32.31372,31.2438],[32.31372,31.24379],[32.31372,31.24379],[32.31372,31.24379],[32.31372,31.24378],[32.31372,31.24378],[32.31372,31.24378],[32.31372,31.24377],[32.31372,31.24377],[32.31371,31.24377],[32.31371,31.24376],[32.31371,31.24376],[32.31371,31.24376],[32.31371,31.24376],[32.31371,31.24375],[32.31371,31.24375],[32.31371,31.24375],[32.31371,31.24374],[32.31371,31.24374],[32.31371,31.24374],[32.3137,31.24373],[32.3137,31.24373],[32.3137,31.24373],[32.31365,31.2437],[32.31396,31.24306],[32.31398,31.24307],[32.314,31.24308],[32.31415,31.24272],[32.31438,31.24217],[32.31441,31.24218],[32.31444,31.24219],[32.31463,31.24177],[32.31456,31.24173],[32.31451,31.2417],[32.31454,31.24164],[32.31459,31.24166],[32.31461,31.24167],[32.3152,31.24036],[32.3152,31.24036],[32.3152,31.24036],[32.3152,31.24036],[32.3152,31.24036],[32.3152,31.24035],[32.3152,31.24035],[32.3152,31.24035],[32.3152,31.24035],[32.3152,31.24035],[32.3152,31.24035],[32.3152,31.24035],[32.3152,31.24035],[32.3152,31.24035],[32.3152,31.24034],[32.3152,31.24034],[32.3152,31.24034],[32.3152,31.24034],[32.3152,31.24034],[32.3152,31.24034],[32.3152,31.24034],[32.3152,31.24034],[32.3152,31.24034],[32.3152,31.24033],[32.3152,31.24033],[32.3152,31.24033],[32.31519,31.24033],[32.31519,31.24033],[32.31519,31.24033],[32.31519,31.24033],[32.31519,31.24033],[32.31519,31.24033],[32.31519,31.24033],[32.31519,31.24033],[32.31519,31.24032],[32.31519,31.24032],[32.31519,31.24032],[32.31519,31.24032],[32.31519,31.24032],[32.31519,31.24032],[32.31519,31.24032],[32.31518,31.24032],[32.31518,31.24032],[32.31518,31.24032],[32.31518,31.24032],[32.31518,31.24031],[32.31518,31.24031],[32.31518,31.24031],[32.31518,31.24031],[32.31518,31.24031],[32.31518,31.24031],[32.31518,31.24031],[32.31517,31.24031],[32.31517,31.24031],[32.31517,31.24031],[32.31517,31.24031],[32.31517,31.24031],[32.31517,31.24031],[32.31517,31.24031],[32.31517,31.2403],[32.31517,31.2403],[32.31517,31.2403],[32.31516,31.2403],[32.31516,31.2403],[32.31516,31.2403],[32.31516,31.2403],[32.31516,31.2403],[32.31516,31.2403],[32.31516,31.2403],[32.31516,31.2403],[32.31515,31.2403],[32.31515,31.2403],[32.31515,31.2403],[32.31515,31.2403],[32.31515,31.2403],[32.31515,31.2403],[32.3144,31.24011],[32.31439,31.24011],[32.31439,31.24011],[32.31438,31.24011],[32.31438,31.24011],[32.31437,31.24011],[32.31437,31.24011],[32.31436,31.24011],[32.31436,31.24011],[32.31435,31.24011],[32.31434,31.24011],[32.31434,31.24011],[32.31433,31.24011],[32.31433,31.24011],[32.31432,31.24011],[32.31432,31.24011],[32.31431,31.24011],[32.31431,31.24011],[32.3143,31.24012],[32.3143,31.24012],[32.31429,31.24012],[32.31429,31.24012],[32.31428,31.24012],[32.31428,31.24012],[32.31427,31.24012],[32.31427,31.24013],[32.31426,31.24013],[32.31426,31.24013],[32.31425,31.24013],[32.31425,31.24013],[32.31424,31.24014],[32.31424,31.24014],[32.31423,31.24014],[32.31423,31.24014],[32.31422,31.24015],[32.31422,31.24015],[32.31422,31.24015],[32.31421,31.24015],[32.31421,31.24016],[32.3142,31.24016],[32.3142,31.24016],[32.31419,31.24016],[32.31419,31.24017],[32.31419,31.24017],[32.31418,31.24017],[32.31418,31.24018],[32.31417,31.24018],[32.31417,31.24018],[32.31417,31.24018],[32.31416,31.24019],[32.31416,31.24019],[32.31416,31.24019],[32.31415,31.2402],[32.31415,31.2402],[32.31415,31.24021],[32.31414,31.24021],[32.31414,31.24021],[32.31414,31.24022],[32.31413,31.24022],[32.31413,31.24022],[32.31413,31.24023],[32.31412,31.24023],[32.31412,31.24024],[32.31412,31.24024],[32.31412,31.24024],[32.31411,31.24025],[32.31411,31.24025],[32.31411,31.24026],[32.31411,31.24026],[32.3141,31.24026],[32.3141,31.24027],[32.3141,31.24027],[32.3141,31.24028],[32.3139,31.24073],[32.31364,31.24132],[32.31364,31.24133],[32.31364,31.24133],[32.31363,31.24134],[32.31363,31.24134],[32.31363,31.24135],[32.31363,31.24135],[32.31362,31.24135],[32.31362,31.24136],[32.31362,31.24136],[32.31362,31.24136],[32.31361,31.24137],[32.31361,31.24137],[32.31361,31.24137],[32.31361,31.24138],[32.3136,31.24138],[32.3136,31.24138],[32.3136,31.24139],[32.31359,31.24139],[32.31359,31.24139],[32.31359,31.2414],[32.31358,31.2414],[32.31358,31.2414],[32.31358,31.24141],[32.31357,31.24141],[32.31357,31.24141],[32.31357,31.24141],[32.31356,31.24142],[32.31356,31.24142],[32.31356,31.24142],[32.31355,31.24143],[32.31355,31.24143],[32.31354,31.24143],[32.31354,31.24143],[32.31354,31.24144],[32.31353,31.24144],[32.31353,31.24144],[32.31352,31.24144],[32.31352,31.24144],[32.31352,31.24145],[32.31351,31.24145],[32.31351,31.24145],[32.3135,31.24145],[32.3135,31.24145],[32.31349,31.24146],[32.31349,31.24146],[32.31348,31.24146],[32.31348,31.24146],[32.31348,31.24146],[32.31347,31.24146],[32.31347,31.24146],[32.31346,31.24147],[32.31346,31.24147],[32.31345,31.24147],[32.31345,31.24147],[32.31344,31.24147],[32.31344,31.24147],[32.31343,31.24147],[32.31343,31.24147],[32.31342,31.24147],[32.31342,31.24147],[32.31341,31.24147],[32.31341,31.24148],[32.3134,31.24148],[32.3134,31.24148],[32.31339,31.24148],[32.31339,31.24148],[32.31339,31.24148],[32.31338,31.24148],[32.31338,31.24148],[32.31337,31.24148],[32.31337,31.24148],[32.31336,31.24148],[32.31336,31.24148],[32.31335,31.24148],[32.31335,31.24147],[32.31334,31.24147],[32.31334,31.24147],[32.31333,31.24147],[32.31333,31.24147],[32.31332,31.24147],[32.31332,31.24147],[32.31331,31.24147],[32.31331,31.24147],[32.3133,31.24147],[32.3133,31.24147],[32.31329,31.24146],[32.31329,31.24146],[32.31328,31.24146],[32.31328,31.24146],[32.31328,31.24146],[32.31327,31.24146],[32.31327,31.24146],[32.31326,31.24145],[32.31326,31.24145],[32.31325,31.24145],[32.31325,31.24145],[32.31324,31.24145],[32.31324,31.24144],[32.31324,31.24144],[32.31323,31.24144],[32.31323,31.24144],[32.31322,31.24144],[32.31322,31.24143],[32.31322,31.24143],[32.31321,31.24143],[32.31321,31.24143],[32.3132,31.24142],[32.3132,31.24142],[32.3132,31.24142],[32.31319,31.24141],[32.31319,31.24141],[32.31319,31.24141],[32.31318,31.24141],[32.31318,31.2414],[32.31318,31.2414],[32.31317,31.2414],[32.31317,31.24139],[32.31317,31.24139],[32.31316,31.24139],[32.31316,31.24138],[32.31316,31.24138],[32.31315,31.24138],[32.31315,31.24137],[32.31315,31.24137],[32.31315,31.24137],[32.31314,31.24136],[32.31314,31.24136],[32.31314,31.24136],[32.31314,31.24135],[32.31313,31.24135],[32.31313,31.24135],[32.31313,31.24134],[32.31313,31.24134],[32.31312,31.24133],[32.31312,31.24133],[32.31312,31.24133],[32.31312,31.24132],[32.31312,31.24132],[32.31312,31.24131],[32.31311,31.24131],[32.31311,31.24131],[32.31311,31.2413],[32.31311,31.2413],[32.31311,31.24129],[32.31311,31.24129],[32.31311,31.24129],[32.31311,31.24128],[32.3131,31.24128],[32.3131,31.24127],[32.3131,31.24127],[32.3131,31.24127],[32.31306,31.24094],[32.3131,31.24093],[32.31314,31.24093],[32.31311,31.24068],[32.31305,31.24068],[32.31299,31.24068],[32.31298,31.24057],[32.31302,31.24056],[32.31309,31.24055],[32.31304,31.24029],[32.31294,31.2403],[32.31288,31.2403],[32.31285,31.2401],[32.3129,31.2401],[32.31284,31.23968],[32.31133,31.23978],[32.31133,31.23981],[32.31133,31.23984],[32.31089,31.23989],[32.30925,31.24008],[32.30924,31.24006],[32.30918,31.24006],[32.30919,31.24018],[32.30922,31.24018],[32.30937,31.24112],[32.30962,31.2427],[32.30962,31.2427],[32.30962,31.2427],[32.30962,31.2427],[32.30962,31.24271],[32.30962,31.24271],[32.30962,31.24271],[32.30962,31.24271],[32.30962,31.24271],[32.30962,31.24272],[32.30962,31.24272],[32.30961,31.24272],[32.30961,31.24272],[32.30961,31.24272],[32.30961,31.24273],[32.30961,31.24273],[32.30961,31.24273],[32.30961,31.24273],[32.30961,31.24273],[32.30961,31.24274],[32.30961,31.24274],[32.30961,31.24274],[32.30961,31.24274],[32.30961,31.24274],[32.30961,31.24274],[32.30961,31.24275],[32.3096,31.24275],[32.3096,31.24275],[32.3096,31.24275],[32.3096,31.24275],[32.3096,31.24276],[32.3096,31.24276],[32.3096,31.24276],[32.3096,31.24276],[32.3096,31.24276],[32.30959,31.24276],[32.30959,31.24277],[32.30959,31.24277],[32.30959,31.24277],[32.30959,31.24277],[32.30959,31.24277],[32.30959,31.24277],[32.30958,31.24277],[32.30958,31.24278],[32.30958,31.24278],[32.30958,31.24278],[32.30958,31.24278],[32.30958,31.24278],[32.30957,31.24278],[32.30957,31.24278],[32.30957,31.24279],[32.30957,31.24279],[32.30957,31.24279],[32.30957,31.24279],[32.30956,31.24279],[32.30956,31.24279],[32.30956,31.24279],[32.30956,31.24279],[32.30956,31.24279],[32.30956,31.2428],[32.30955,31.2428],[32.30955,31.2428],[32.30955,31.2428],[32.30955,31.2428],[32.30955,31.2428],[32.30954,31.2428],[32.30954,31.2428],[32.30954,31.2428],[32.30954,31.2428],[32.30953,31.2428],[32.30953,31.24281],[32.30953,31.24281],[32.30953,31.24281],[32.30953,31.24281],[32.30952,31.24281],[32.30952,31.24281],[32.30952,31.24281],[32.30952,31.24281],[32.30952,31.24281],[32.30951,31.24281],[32.30951,31.24281],[32.30951,31.24281],[32.30951,31.24281],[32.3095,31.24281],[32.3095,31.24281],[32.3095,31.24281],[32.3095,31.24281],[32.30949,31.24281],[32.30949,31.24281],[32.30949,31.24281],[32.30949,31.24281],[32.30949,31.24281],[32.30948,31.24281],[32.30948,31.24281],[32.30948,31.24281],[32.30948,31.24281],[32.30947,31.24281],[32.30947,31.24281],[32.30947,31.24281],[32.30947,31.24281],[32.30947,31.24281],[32.30946,31.24281],[32.30946,31.24281],[32.30946,31.24281],[32.30946,31.24281],[32.30945,31.24281],[32.30945,31.24281],[32.30945,31.24281],[32.30945,31.24281],[32.30945,31.24281],[32.30944,31.24281],[32.30944,31.24281],[32.30944,31.2428],[32.30944,31.2428],[32.30944,31.2428],[32.30943,31.2428],[32.30943,31.2428],[32.30943,31.2428],[32.30943,31.2428],[32.30942,31.2428],[32.30942,31.2428],[32.30942,31.2428],[32.30942,31.2428],[32.30942,31.24279],[32.30942,31.24279],[32.30941,31.24279],[32.30941,31.24279],[32.30941,31.24279],[32.30941,31.24279],[32.30941,31.24279],[32.3094,31.24279],[32.3094,31.24279],[32.3094,31.24278],[32.3094,31.24278],[32.3094,31.24278],[32.3094,31.24278],[32.30939,31.24278],[32.30939,31.24278],[32.30939,31.24278],[32.30939,31.24277],[32.30939,31.24277],[32.30939,31.24277],[32.30938,31.24277],[32.30938,31.24277],[32.30938,31.24277],[32.30938,31.24277],[32.30938,31.24276],[32.30938,31.24276],[32.30938,31.24276],[32.30938,31.24276],[32.30937,31.24276],[32.30937,31.24276],[32.30937,31.24275],[32.30937,31.24275],[32.30937,31.24275],[32.30937,31.24275],[32.30937,31.24275],[32.30937,31.24275],[32.30937,31.24274],[32.30937,31.24274],[32.30936,31.24274],[32.30936,31.24274],[32.30936,31.24274],[32.30936,31.24273],[32.30936,31.24273],[32.30936,31.24273],[32.30936,31.24273],[32.30936,31.24273],[32.30936,31.24272],[32.30936,31.24272],[32.30936,31.24272],[32.30936,31.24272],[32.30936,31.24272],[32.30936,31.24272],[32.30868,31.23838],[32.30863,31.23808],[32.30861,31.238],[32.3086,31.23797],[32.3086,31.23795],[32.30859,31.2379],[32.30858,31.23784],[32.30857,31.23779],[32.30856,31.23773],[32.30849,31.23735],[32.30842,31.23698],[32.30837,31.23667],[32.30831,31.23635],[32.30826,31.23604],[32.30822,31.23573],[32.3082,31.23566],[32.30818,31.23559],[32.30815,31.23544],[32.30815,31.23544],[32.30815,31.23543],[32.30814,31.23543],[32.30814,31.23543],[32.30814,31.23542],[32.30814,31.23542],[32.30814,31.23542],[32.30814,31.23541],[32.30814,31.23541],[32.30814,31.23541],[32.30814,31.2354],[32.30814,31.2354],[32.30814,31.2354],[32.30814,31.23539],[32.30814,31.23539],[32.30814,31.23539],[32.30814,31.23538],[32.30814,31.23538],[32.30814,31.23537],[32.30814,31.23537],[32.30814,31.23537],[32.30814,31.23536],[32.30814,31.23536],[32.30814,31.23536],[32.30814,31.23535],[32.30814,31.23535],[32.30814,31.23535],[32.30814,31.23534],[32.30814,31.23534],[32.30814,31.23534],[32.30814,31.23533],[32.30814,31.23533],[32.30815,31.23533],[32.30815,31.23532],[32.30815,31.23532],[32.30815,31.23532],[32.30815,31.23531],[32.30815,31.23531],[32.30815,31.23531],[32.30815,31.2353],[32.30816,31.2353],[32.30816,31.2353],[32.30816,31.23529],[32.30816,31.23529],[32.30816,31.23529],[32.30817,31.23528],[32.30817,31.23528],[32.30817,31.23528],[32.30817,31.23527],[32.30817,31.23527],[32.30818,31.23527],[32.30818,31.23526],[32.30818,31.23526],[32.30818,31.23526],[32.30819,31.23526],[32.30819,31.23525],[32.30819,31.23525],[32.30819,31.23525],[32.3082,31.23524],[32.3082,31.23524],[32.3082,31.23524],[32.3082,31.23524],[32.30821,31.23523],[32.30821,31.23523],[32.30821,31.23523],[32.30822,31.23523],[32.30822,31.23522],[32.30822,31.23522],[32.30823,31.23522],[32.30823,31.23522],[32.30823,31.23522],[32.30824,31.23522],[32.30824,31.23521],[32.30825,31.23521],[32.30825,31.23521],[32.30826,31.23521],[32.30826,31.23521],[32.30827,31.23521],[32.30828,31.23521],[32.30828,31.23521],[32.30829,31.23521],[32.30829,31.23521],[32.3083,31.23521],[32.3083,31.23521],[32.30831,31.23521],[32.30831,31.23521],[32.30832,31.2352],[32.30832,31.2352],[32.30833,31.2352],[32.30833,31.2352],[32.30834,31.23521],[32.30834,31.23521],[32.30835,31.23521],[32.30835,31.23521],[32.30836,31.23521],[32.30836,31.23521],[32.30837,31.23521],[32.30837,31.23521],[32.30838,31.23521],[32.30838,31.23521],[32.30838,31.23521],[32.30838,31.23521],[32.30838,31.23521],[32.30838,31.23521],[32.30838,31.23521],[32.30838,31.23521],[32.30839,31.23521],[32.30839,31.23521],[32.30839,31.23521],[32.30839,31.23521],[32.30839,31.23521],[32.30839,31.23521],[32.30839,31.23521],[32.3084,31.23521],[32.3084,31.23521],[32.3084,31.23521],[32.3084,31.23521],[32.3084,31.23521],[32.3084,31.23521],[32.3084,31.23521],[32.3084,31.23521],[32.30841,31.23521],[32.30841,31.23521],[32.30841,31.23521],[32.30841,31.23521],[32.30841,31.23521],[32.30841,31.23521],[32.30841,31.23521],[32.30842,31.23521],[32.30842,31.23521],[32.30842,31.23521],[32.30842,31.23521],[32.30842,31.23521],[32.30842,31.23521],[32.30842,31.23521],[32.30843,31.23521],[32.30843,31.23521],[32.30843,31.23521],[32.30843,31.23521],[32.30843,31.23521],[32.30843,31.23521],[32.30843,31.23521],[32.30843,31.23521],[32.30844,31.23521],[32.30844,31.23521],[32.30844,31.2352],[32.30844,31.2352],[32.30844,31.2352],[32.30844,31.2352],[32.30844,31.2352],[32.30844,31.2352],[32.30845,31.2352],[32.30845,31.2352],[32.30845,31.2352],[32.30845,31.2352],[32.30845,31.2352],[32.30845,31.2352],[32.30845,31.2352],[32.30845,31.2352],[32.30846,31.2352],[32.30846,31.23519],[32.30846,31.23519],[32.30846,31.23519],[32.30846,31.23519],[32.30846,31.23519],[32.30846,31.23519],[32.30846,31.23519],[32.30846,31.23519],[32.30846,31.23519],[32.30846,31.23519],[32.30847,31.23519],[32.30847,31.23518],[32.30847,31.23518],[32.30847,31.23518],[32.30847,31.23518],[32.30847,31.23518],[32.30847,31.23518],[32.30847,31.23518],[32.30847,31.23518],[32.30847,31.23518],[32.30847,31.23518],[32.30847,31.23517],[32.30847,31.23517],[32.30848,31.23517],[32.30847,31.23517],[32.30847,31.23517],[32.30847,31.23517],[32.30847,31.23517],[32.30847,31.23516],[32.30847,31.23516],[32.30847,31.23516],[32.30847,31.23516],[32.30847,31.23516],[32.30847,31.23516],[32.30847,31.23515],[32.30847,31.23515],[32.30847,31.23515],[32.30847,31.23515],[32.30847,31.23515],[32.30847,31.23515],[32.30847,31.23515],[32.30847,31.23514],[32.30847,31.23514],[32.30847,31.23514],[32.30847,31.23514],[32.30847,31.23514],[32.30847,31.23514],[32.30847,31.23513],[32.30846,31.23513],[32.30846,31.23513],[32.30846,31.23513],[32.30846,31.23513],[32.30846,31.23513],[32.30846,31.23513],[32.30846,31.23513],[32.30846,31.23513],[32.30846,31.23513],[32.30846,31.23513],[32.30846,31.23513],[32.30846,31.23513],[32.30846,31.23513],[32.30846,31.23513],[32.30846,31.23513],[32.30846,31.23513],[32.30846,31.23513],[32.30846,31.23513],[32.30846,31.23513],[32.30846,31.23513],[32.30846,31.23512],[32.30846,31.23512],[32.30846,31.23512],[32.30846,31.23512],[32.30846,31.23512],[32.30846,31.23512],[32.30846,31.23512],[32.30846,31.23512],[32.30846,31.23512],[32.30846,31.23512],[32.30846,31.23512],[32.30846,31.23512],[32.30846,31.23512],[32.30846,31.23512],[32.30846,31.23512],[32.30846,31.23512],[32.30846,31.23512],[32.30846,31.23512],[32.30846,31.23512],[32.30846,31.23512],[32.30846,31.23512],[32.30846,31.23512],[32.30846,31.23512],[32.30846,31.23512],[32.30846,31.23512],[32.30846,31.23511],[32.30846,31.23511],[32.30846,31.23511],[32.30846,31.23511],[32.30846,31.23511],[32.30846,31.23511],[32.30846,31.23511],[32.30846,31.23511],[32.30846,31.23511],[32.30846,31.23511],[32.30846,31.23511],[32.30846,31.23511],[32.30846,31.23511],[32.30846,31.23511],[32.30846,31.23511],[32.30846,31.23511],[32.30846,31.23511],[32.30846,31.23511],[32.30846,31.23511],[32.30846,31.23511],[32.30846,31.23511],[32.30846,31.23511],[32.30846,31.23511],[32.30846,31.23511],[32.30846,31.23511],[32.30846,31.23511],[32.30846,31.23511],[32.30846,31.2351],[32.30846,31.2351],[32.30846,31.2351],[32.30846,31.2351],[32.30846,31.2351],[32.30846,31.2351],[32.30846,31.2351],[32.30846,31.2351],[32.30846,31.2351],[32.30847,31.2351],[32.30847,31.2351],[32.30847,31.2351],[32.30847,31.2351],[32.30847,31.2351],[32.30847,31.2351],[32.30847,31.2351],[32.30847,31.2351],[32.30848,31.2351],[32.30848,31.23509],[32.30849,31.23509],[32.30849,31.23509],[32.3085,31.23509],[32.30851,31.23509],[32.30851,31.23508],[32.30852,31.23508],[32.30852,31.23508],[32.30853,31.23508],[32.30853,31.23508],[32.30854,31.23508],[32.30854,31.23508],[32.30855,31.23508],[32.30855,31.23507],[32.30855,31.23507],[32.30856,31.23507],[32.30856,31.23507],[32.30856,31.23507],[32.30856,31.23507],[32.30857,31.23507],[32.30857,31.23507],[32.30857,31.23507],[32.30857,31.23507],[32.30858,31.23507],[32.30858,31.23507],[32.30858,31.23507],[32.30858,31.23507],[32.30859,31.23507],[32.30859,31.23507],[32.30859,31.23507],[32.30859,31.23507],[32.3086,31.23507],[32.3086,31.23507],[32.3086,31.23507],[32.3086,31.23507],[32.30861,31.23507],[32.30861,31.23507],[32.30861,31.23507],[32.30861,31.23508],[32.30861,31.23508],[32.30862,31.23508],[32.30862,31.23508],[32.30862,31.23508],[32.30862,31.23508],[32.30863,31.23508],[32.30863,31.23508],[32.30863,31.23508],[32.30863,31.23508],[32.30863,31.23508],[32.30863,31.23508],[32.30863,31.23508],[32.30863,31.23508],[32.30863,31.23508],[32.30863,31.23508],[32.30863,31.23509],[32.30863,31.23509],[32.30863,31.23509],[32.30864,31.23509],[32.30864,31.23509],[32.30864,31.23509],[32.30864,31.23509],[32.30864,31.23509],[32.30864,31.23509],[32.30864,31.23509],[32.30864,31.23509],[32.30864,31.23509],[32.30864,31.23509],[32.30864,31.23509],[32.30864,31.23509],[32.30864,31.23509],[32.30864,31.23509],[32.30864,31.2351],[32.30864,31.2351],[32.30864,31.2351],[32.30864,31.2351],[32.30864,31.2351],[32.30864,31.2351],[32.30864,31.2351],[32.30864,31.2351],[32.30864,31.2351],[32.30864,31.2351],[32.30864,31.2351],[32.30864,31.2351],[32.30864,31.2351],[32.30864,31.2351],[32.30864,31.2351],[32.30864,31.23511],[32.30864,31.23511],[32.30864,31.23511],[32.30864,31.23511],[32.30864,31.23511],[32.30864,31.23511],[32.30864,31.23511],[32.30864,31.23511],[32.30864,31.23511],[32.30864,31.23511],[32.30864,31.23511],[32.30864,31.23511],[32.30864,31.23511],[32.30864,31.23511],[32.30864,31.23511],[32.30864,31.23511],[32.30864,31.23512],[32.30864,31.23512],[32.30864,31.23512],[32.30863,31.23512],[32.30863,31.23512],[32.30863,31.23512],[32.30863,31.23512],[32.30863,31.23512],[32.30863,31.23512],[32.30863,31.23512],[32.30863,31.23512],[32.30863,31.23512],[32.30863,31.23512],[32.30863,31.23512],[32.30863,31.23512],[32.30863,31.23512],[32.30863,31.23512],[32.30863,31.23512],[32.30863,31.23512],[32.30863,31.23512],[32.30863,31.23512],[32.30863,31.23512],[32.30863,31.23513],[32.30863,31.23513],[32.30863,31.23513],[32.30863,31.23513],[32.30863,31.23513],[32.30863,31.23513],[32.30863,31.23513],[32.30863,31.23513],[32.30863,31.23513],[32.30863,31.23513],[32.30863,31.23513],[32.30863,31.23513],[32.30863,31.23513],[32.30863,31.23513],[32.30863,31.23513],[32.30863,31.23513],[32.30863,31.23513],[32.30863,31.23513],[32.30863,31.23513],[32.30863,31.23513],[32.30863,31.23513],[32.30863,31.23513],[32.30863,31.23513],[32.30863,31.23513],[32.30863,31.23513],[32.30863,31.23513],[32.30863,31.23513],[32.30863,31.23514],[32.30863,31.23514],[32.30863,31.23514],[32.30863,31.23514],[32.30863,31.23514],[32.30863,31.23514],[32.30863,31.23514],[32.30863,31.23514],[32.30863,31.23514],[32.30863,31.23514],[32.30863,31.23514],[32.30863,31.23514],[32.30863,31.23514],[32.30863,31.23514],[32.30863,31.23514],[32.30863,31.23514],[32.30863,31.23514],[32.30863,31.23514],[32.30863,31.23514],[32.30863,31.23514],[32.30863,31.23514],[32.30863,31.23514],[32.30863,31.23514],[32.30863,31.23514],[32.30863,31.23514],[32.30863,31.23514],[32.30863,31.23514],[32.30863,31.23515],[32.30863,31.23515],[32.30863,31.23515],[32.30863,31.23515],[32.30863,31.23515],[32.30863,31.23515],[32.30863,31.23515],[32.30863,31.23515],[32.30863,31.23515],[32.30863,31.23515],[32.30863,31.23515],[32.30863,31.23515],[32.30863,31.23515],[32.30863,31.23515],[32.30863,31.23515],[32.30863,31.23515],[32.30863,31.23515],[32.30863,31.23515],[32.30863,31.23515],[32.30863,31.23515],[32.30863,31.23515],[32.30863,31.23515],[32.30863,31.23515],[32.30863,31.23515],[32.30863,31.23515],[32.30863,31.23515],[32.30863,31.23515],[32.30864,31.23515],[32.30864,31.23515],[32.30864,31.23515],[32.30864,31.23515],[32.30864,31.23515],[32.30864,31.23515],[32.30864,31.23515],[32.30864,31.23515],[32.30864,31.23515],[32.30864,31.23515],[32.30864,31.23516],[32.30864,31.23516],[32.30864,31.23516],[32.30864,31.23516],[32.30865,31.23516],[32.30865,31.23516],[32.30865,31.23516],[32.30865,31.23516],[32.30865,31.23516],[32.30865,31.23516],[32.30865,31.23516],[32.30865,31.23516],[32.30865,31.23516],[32.30865,31.23516],[32.30865,31.23516],[32.30865,31.23516],[32.30865,31.23516],[32.30865,31.23516],[32.30866,31.23516],[32.30866,31.23516],[32.30866,31.23516],[32.30866,31.23516],[32.30866,31.23515],[32.30866,31.23515],[32.30866,31.23515],[32.30866,31.23515],[32.30866,31.23515],[32.30866,31.23515],[32.30866,31.23515],[32.30927,31.23513],[32.30926,31.23504],[32.30926,31.23494],[32.30983,31.23495],[32.30982,31.23504],[32.30981,31.23513],[32.31077,31.23512],[32.31072,31.23369],[32.30867,31.2337],[32.30843,31.23371],[32.30832,31.23371],[32.30827,31.23369],[32.30815,31.23358],[32.30816,31.23357],[32.30816,31.23357],[32.30816,31.23356],[32.30816,31.23356],[32.30816,31.23356],[32.30817,31.23355],[32.30817,31.23355],[32.30817,31.23355],[32.30817,31.23354],[32.30817,31.23354],[32.30818,31.23354],[32.30818,31.23353],[32.30818,31.23353],[32.30818,31.23353],[32.30819,31.23352],[32.30819,31.23352],[32.30819,31.23352],[32.30819,31.23352],[32.3082,31.23351],[32.3082,31.23351],[32.3082,31.23351],[32.3082,31.23351],[32.30821,31.2335],[32.30822,31.23348],[32.30823,31.23346],[32.30824,31.23345],[32.30824,31.23343],[32.30825,31.23342],[32.30825,31.2334],[32.30826,31.23339],[32.30827,31.23337],[32.30827,31.23336],[32.30828,31.23334],[32.30828,31.23333],[32.30828,31.23331],[32.30829,31.2333],[32.30829,31.23329],[32.30829,31.23328],[32.3083,31.23326],[32.3083,31.23325],[32.3083,31.23323],[32.3083,31.23322],[32.30831,31.2332],[32.30831,31.23318],[32.30831,31.23317],[32.30831,31.23315],[32.30831,31.23314],[32.30831,31.23312],[32.30831,31.2331],[32.30831,31.23309],[32.30831,31.23307],[32.30831,31.23306],[32.30831,31.23304],[32.30831,31.23303],[32.3083,31.23301],[32.3083,31.23299],[32.3083,31.23298],[32.3083,31.23298],[32.3083,31.23297],[32.3083,31.23297],[32.3083,31.23297],[32.3083,31.23297],[32.3083,31.23297],[32.30829,31.23297],[32.30829,31.23297],[32.30829,31.23297],[32.30829,31.23297],[32.30829,31.23297],[32.30829,31.23296],[32.30829,31.23296],[32.30829,31.23296],[32.30829,31.23296],[32.30829,31.23296],[32.30829,31.23296],[32.30829,31.23296],[32.30828,31.23296],[32.30828,31.23296],[32.30828,31.23296],[32.30828,31.23296],[32.30828,31.23296],[32.30828,31.23295],[32.30828,31.23295],[32.30828,31.23295],[32.30828,31.23295],[32.30828,31.23295],[32.30828,31.23295],[32.30828,31.23295],[32.30828,31.23295],[32.30828,31.23295],[32.30827,31.23295],[32.30827,31.23294],[32.30827,31.23294],[32.30824,31.23288],[32.30821,31.23282],[32.30821,31.23282],[32.30808,31.23254],[32.30718,31.23046],[32.30718,31.22105],[32.30898,31.22207],[32.30915,31.22223],[32.30915,31.22228],[32.30915,31.22231],[32.30921,31.22241],[32.30933,31.22247],[32.30948,31.22247],[32.31019,31.22304],[32.31293,31.22511],[32.31349,31.22538],[32.314,31.22571],[32.3141,31.22575],[32.31419,31.2258],[32.31431,31.226],[32.3168,31.22789],[32.31714,31.22821],[32.31757,31.22792],[32.31762,31.2279],[32.31766,31.22787],[32.31807,31.22751],[32.31813,31.22746],[32.31818,31.22741],[32.31921,31.22644],[32.31976,31.22592],[32.3203,31.22541],[32.32096,31.22481],[32.32141,31.22438],[32.32201,31.22382],[32.32239,31.22346],[32.32276,31.22314],[32.32311,31.2228],[32.32403,31.22197],[32.32451,31.22151],[32.32537,31.22073],[32.32692,31.21927],[32.32768,31.21857],[32.32936,31.21702],[32.32999,31.21643],[32.33125,31.21527],[32.33148,31.21508],[32.33202,31.21543],[32.3325,31.2158],[32.33283,31.21608],[32.33361,31.21664],[32.33499,31.21601],[32.33597,31.21556],[32.33621,31.21539],[32.33632,31.21537],[32.33642,31.21535],[32.33662,31.21526],[32.34095,31.21374],[32.34641,31.23103],[32.34764,31.23625],[32.34367,31.2389],[32.34434,31.24363]]]}},{"type":"Feature","properties":{"district":"Port Fuad 2","population":11418,"schools":1.0,"seats":680.0,"seats_per_1000_pop":59.555,"utilisation":0.713,"covered_share":0.341,"uncovered_pop":7530.0,"illiteracy_rate":1.226,"priority_index":0.44,"priority_rank":7},"geometry":{"type":"Polygon","coordinates":[[[32.34095,31.21374],[32.33662,31.21526],[32.33642,31.21535],[32.33632,31.21537],[32.33621,31.21539],[32.33597,31.21556],[32.33499,31.21601],[32.33361,31.21664],[32.33283,31.21608],[32.3325,31.2158],[32.33202,31.21543],[32.33148,31.21508],[32.33125,31.21527],[32.32999,31.21643],[32.32936,31.21702],[32.32768,31.21857],[32.32692,31.21927],[32.32537,31.22073],[32.32451,31.22151],[32.32403,31.22197],[32.32311,31.2228],[32.32276,31.22314],[32.32239,31.22346],[32.32201,31.22382],[32.32141,31.22438],[32.32096,31.22481],[32.3203,31.22541],[32.31976,31.22592],[32.31921,31.22644],[32.31818,31.22741],[32.31813,31.22746],[32.31807,31.22751],[32.31766,31.22787],[32.31762,31.2279],[32.31757,31.22792],[32.31714,31.22821],[32.3168,31.22789],[32.31431,31.226],[32.31419,31.2258],[32.3141,31.22575],[32.314,31.22571],[32.31349,31.22538],[32.31293,31.22511],[32.31019,31.22304],[32.30948,31.22247],[32.30933,31.22247],[32.30921,31.22241],[32.30915,31.22231],[32.30915,31.22228],[32.30915,31.22223],[32.30898,31.22207],[32.30718,31.22105],[32.30716,31.19497],[32.3076,31.19231],[32.3077,31.18845],[32.30811,31.17166],[32.30874,31.15437],[32.30936,31.13708],[32.30936,31.12977],[32.31006,31.11963],[32.31042,31.11399],[32.31089,31.11413],[32.31297,31.12007],[32.31787,31.13724],[32.31797,31.13791],[32.32176,31.15029],[32.32675,31.16765],[32.333,31.18888],[32.33362,31.18942],[32.33453,31.19337],[32.34095,31.21374]]]}}]}