{"type":"FeatureCollection","features":[{"type":"Feature","properties":{},"geometry":{"type":"Polygon","coordinates":[[[26.5744029093129,29.320475796336517],[26.599106579626188,29.328323519156182],[26.58114044655256,29.343976472701897],[26.59012342678499,29.379201576418993],[26.572157804904396,29.37724942818336],[26.583386062154098,29.38900156905208],[26.578894485733496,29.404638899082627],[26.56542374885223,29.406596671570753],[26.545207662579017,29.426157817671225],[26.533979782246853,29.424205876649882],[26.53397872152752,29.441805077608862],[26.524995611942664,29.44767923422451],[26.529487145106923,29.46918197919021],[26.507030323723264,29.467230865477177],[26.511522878506327,29.480925456085682],[26.524995568686325,29.484838244827206],[26.52050399226573,29.504369993754267],[26.511520839424534,29.504377811954804],[26.52050399226573,29.512203527923376],[26.524995568686325,29.547360964870403],[26.50029189837304,29.562989514427283],[26.47783730057106,29.56299128804878],[26.473342483105792,29.5844818685492],[26.473343123651247,29.609871452546624],[26.489062957321547,29.619638352216416],[26.477834403081598,29.629389409864135],[26.48457138090095,29.63330367344637],[26.477836647374602,29.648916626855804],[26.495800321952444,29.648918913477456],[26.500305116154816,29.658676286857848],[26.500309864678723,29.65087064819862],[26.509292844911155,29.648912629535673],[26.500309864678723,29.644999715868277],[26.504783474793637,29.635255710878077],[26.516012415845132,29.64306348225502],[26.524995568686325,29.660628754088194],[26.520504379077273,29.668429017765085],[26.529491137487447,29.676238439695318],[26.54522008343562,29.676239160945016],[26.547471417094997,29.67038591364376],[26.572157121102602,29.67428851244965],[26.551945711011708,29.691837542604986],[26.55643660363051,29.709389480065656],[26.533979405329315,29.721097094158136],[26.536226548819613,29.74255661206058],[26.55868239184081,29.74840909915226],[26.56542127040594,29.769851376683892],[26.578894485733496,29.77180422757769],[26.58788401405591,29.785448527258815],[26.610335520677683,29.77180422757769],[26.626056038149773,29.781550585446038],[26.626058669254324,29.793242679257794],[26.63504905464676,29.79324492505471],[26.644040310137843,29.779601389761925],[26.664245173403874,29.78544871316362],[26.66872601414545,29.775702884556328],[26.66648128665448,29.82052240831216],[26.673234042937498,29.82052306433262],[26.677709166986645,29.806886675536695],[26.697926806328415,29.82442269378081],[26.715887566561726,29.81662961721516],[26.727116507613218,29.826371609516485],[26.72262497444896,29.838053718310615],[26.73160808403382,29.84974851644965],[26.731608470845362,29.869219563661776],[26.74508281329561,29.880909213068314],[26.740591920676803,29.917895090051655],[26.7652949071883,29.917899896519707],[26.76754137920039,29.933466006231875],[26.783265961394594,29.950984260691474],[26.81022535339895,29.947091597697234],[26.82370336696175,29.92179285372786],[26.832668553497264,29.923739275247936],[26.83716119063719,29.94319728231626],[26.84390991540536,29.943200804481947],[26.855144401905935,29.917899896519707],[26.879841696738005,29.927631668879897],[26.891077013270714,29.917899896519707],[26.904549111427958,29.917897616033564],[26.904551742532508,29.90232654566722],[26.91351692906802,29.900379705608227],[26.929237446540114,29.92957831145407],[26.92923850725944,29.95098106538272],[26.938238565686987,29.93541700509758],[26.9472037522225,29.937363160180045],[26.94720413903405,29.954871318821198],[26.965170057904892,29.984059458154746],[26.965170741706686,30.005449791961446],[26.98762794000788,30.02101179606145],[26.978644830423026,30.052110339830715],[26.983137424306612,30.075438669405887],[27.02580633958296,30.104589924348062],[27.02581188503204,30.12401598909345],[27.061752168729516,30.116245458988978],[27.066248493674024,30.106532761877567],[27.08195104484043,30.110418322340195],[27.093179985891922,30.12595903602156],[27.08869240185185,30.170623653396795],[27.12462102083611,30.162858427958813],[27.129115228361258,30.19391861885364],[27.165045208621486,30.188097426779688],[27.192004530800865,30.221092477112922],[27.200995786291948,30.201684978892782],[27.243663723205835,30.197800173875653],[27.25489470333912,30.157033125708292],[27.26835146629523,30.157033125708292],[27.27285202586867,30.166741771588878],[27.2863309897594,30.166740854526328],[27.293055136608515,30.157033125708292],[27.299793185041207,30.19391609990348],[27.315513018711506,30.203625904695027],[27.322251444061735,30.22885035399346],[27.3402199733258,30.246314825378626],[27.35146359638197,30.23273519824239],[27.371657723968976,30.238556023165923],[27.373907504559796,30.24631527903675],[27.387378241441066,30.248256632045774],[27.38288870410226,30.26959176386549],[27.39860718249256,30.263775614265313],[27.400855009784653,30.277349875746367],[27.416580718801615,30.283170744300534],[27.468226617011823,30.269594600395354],[27.474967974023244,30.283169586007357],[27.4996775156118,30.287049451879795],[27.50193140647199,30.27347373287382],[27.5176339576384,30.27347373287382],[27.51988178493049,30.28704665320667],[27.544583416161984,30.302562339207647],[27.54009335367562,30.333577229960756],[27.57377866289587,30.339395520515446],[27.582767361186146,30.362650855308214],[27.59400872309424,30.339395520515446],[27.602991875935434,30.331642317463146],[27.6231999774476,30.33551768908266],[27.623203969828122,30.31807273497411],[27.63891973877631,30.318071819322608],[27.643398097415133,30.308379025262905],[27.647892958136737,30.31807097476454],[27.659118614887223,30.320011361846067],[27.650135634654788,30.331636076587696],[27.659118614887223,30.329703920774104],[27.66810328166265,30.358772396773254],[27.67933070877991,30.35296214837251],[27.690559649831407,30.36458918954104],[27.68607361885989,30.383963929952042],[27.699560768978284,30.37427733470136],[27.744458566878578,30.37427733470136],[27.748957373925837,30.382027010715948],[27.766916448981565,30.378152323968834],[27.769171220344703,30.38590184164551],[27.81183221318754,30.37427733470136],[27.823061154239035,30.382027159620755],[27.814078044654178,30.39558088554993],[27.82531248789841,30.40527235719819],[27.83879963801681,30.395587874512184],[27.858993765603817,30.395587874512184],[27.86349171750563,30.4052726133425],[27.87246849486561,30.399462018750263],[27.874719828524988,30.40527235719819],[27.89044378370084,30.405272946954735],[27.89269855506398,30.38590184164551],[27.906173284325774,30.37427733470136],[27.92636741191278,30.37427733470136],[27.93760110148818,30.39558695958593],[27.98700369359085,30.405272946954735],[28.002731441689605,30.4304494903876],[28.013969604485883,30.430446196809896],[28.009479541999518,30.418830434516277],[28.016216906630415,30.413020313281454],[28.049903729784898,30.399462018750263],[28.09704731589549,30.399462018750263],[28.112772581891488,30.41301939851853],[28.137471503680867,30.413020313281454],[28.141972063254308,30.418830434516277],[28.148718411038047,30.405272946954735],[28.16892327430407,30.413020164423894],[28.17117629314103,30.405272946954735],[28.193630182863497,30.40527164123627],[28.19812575166462,30.395587874512184],[28.216074091041328,30.395587874512184],[28.22731113474271,30.405272909647568],[28.2677272198782,30.399462018750263],[28.276719355872235,30.413020313281454],[28.301432009338363,30.399462018750263],[28.30591460260612,30.405272946954735],[28.314906738600154,30.399462018750263],[28.335100866187165,30.399462018750263],[28.337355637550303,30.405272946954735],[28.371033477551943,30.399462018750263],[28.373286496388907,30.405272798085363],[28.404720300706426,30.405272946954735],[28.409219979776914,30.41302027597725],[28.43166975923001,30.405272946954735],[28.45862908140939,30.418830397214293],[28.460882972269577,30.40914670697235],[28.487824328143272,30.41302027597725],[28.51028632051563,30.40527164123627],[28.523763981438616,30.395583778660296],[28.526010830368243,30.382027159620755],[28.54846472009071,30.385900535668068],[28.561943441733025,30.358775841708777],[28.579895065410742,30.378150564839565],[28.597858086792122,30.378152323968834],[28.600110250483638,30.385901507967105],[28.633790698156904,30.382027159620755],[28.636043716993864,30.391713427716194],[28.678715445515717,30.391713576606243],[28.701182310771554,30.37427733470136],[28.72138802918302,30.374277000983277],[28.72364019287454,30.36846456279646],[28.739355961822724,30.374276419575555],[28.746098074977528,30.358775841708777],[28.761800626143934,30.362651445322044],[28.764047928288466,30.374273890311876],[28.770796996766908,30.374276419575555],[28.779784511320464,30.368459062081737],[28.77753910992171,30.35490008453817],[28.791009846802982,30.352960841955024],[28.804488568445297,30.339395520515446],[28.813453754980806,30.339395520515446],[28.815707645840995,30.349086123559125],[28.831434742667874,30.345208260152926],[28.83368381517918,30.335518995732986],[28.88982214495543,30.345209686057498],[28.903303249698443,30.331642317463146],[28.916773986579713,30.33551768908266],[28.936989012133598,30.318068635875502],[28.934735301489788,30.310302333516777],[28.919023767170533,30.31805722580447],[28.92126955538083,30.294806220949198],[28.943709471178135,30.306440168260604],[28.94371584665936,30.31419503223252],[28.957202166745613,30.300623367159904],[28.972904717912023,30.30450127290836],[28.9774018397817,30.314194775849597],[28.99088344445101,30.314194775849597],[28.9908889899001,30.288988729667974],[29.00211529984704,30.28704721724808],[29.020084236633977,30.263775614265313],[29.05601130254968,30.259895507954745],[29.105423504823545,30.232730407044876],[29.087457882942946,30.224958038345818],[29.091945466983017,30.2133157421487],[29.071737365470856,30.213314433870504],[29.04927948336786,30.203610377440473],[29.047026464530905,30.195846592576213],[29.042524152431287,30.20943292612679],[29.02680918040827,30.20361096841145],[29.020066270328297,30.217195788496095],[29.004345752856207,30.223017533312248],[28.96169374316621,30.223017533312248],[28.945966850212905,30.213314768136758],[28.903303249698443,30.20943292612679],[28.89207102434594,30.193907126642234],[28.878589715729365,30.19196428414738],[28.867352672027977,30.20166945133206],[28.856124117788028,30.19585195378859],[28.851632327164648,30.238549776366263],[28.867352672027977,30.238556023165923],[28.869598460238276,30.252121087869558],[28.851634785660437,30.248243384718602],[28.85163215455589,30.267639459527885],[28.804488568445297,30.27539772570825],[28.802238031711088,30.267640375650345],[28.764064380659917,30.2618203575206],[28.759562940583525,30.254061055788295],[28.755063261513037,30.271518669265244],[28.746098074977528,30.27539772570825],[28.743851226047898,30.25794486621057],[28.73486913392603,30.256000910667012],[28.734868073206698,30.244365084758197],[28.72363381739332,30.236600598627387],[28.701169092989776,30.236601180852233],[28.685443826993776,30.25406101842348],[28.67872442866856,30.252121087869558],[28.680968702944625,30.240484149204114],[28.674220431391365,30.240481290859513],[28.67870646236288,30.256000910667012],[28.66524969940677,30.25794076459869],[28.660750892359513,30.248241260944656],[28.64279181730378,30.25406101842348],[28.629310712560773,30.230779657917395],[28.600121841308106,30.240480700110023],[28.586640736565094,30.22301786754553],[28.582137569320032,30.230779323710497],[28.557451865312427,30.230779323710497],[28.550713816879735,30.199733279757957],[28.532739211846298,30.178375353337966],[28.481078160575915,30.201673555291933],[28.48108184838049,30.207506724798417],[28.499043405538973,30.209448452462755],[28.499043405538973,30.23854050142447],[28.49230604090808,30.24436098257932],[28.47434871837853,30.236600264440273],[28.431687725535692,30.24436098257932],[28.413716671329396,30.22689942159343],[28.40249247880181,30.230779323710497],[28.38676641588064,30.2171963793855],[28.368795791991534,30.217195825874928],[28.35980453650045,30.252121087869558],[28.34185619712374,30.25794076459869],[28.3283788367574,30.23272194882298],[28.317146151329236,30.22301786754553],[28.29694043291777,30.223017533312248],[28.29468826922625,30.213314768136758],[28.26548697711698,30.21331502478322],[28.2654814316679,30.221076989991793],[28.245287304080893,30.230779323710497],[28.234055731924848,30.199730760956555],[28.20935469271611,30.199728486952946],[28.198123120560066,30.18226036000962],[28.186896810613124,30.18031673859751],[28.184648391298275,30.164786860329812],[28.16893050493073,30.162842894277137],[28.175667869561632,30.139555154330072],[28.198122467363607,30.137611202930337],[28.20935469271611,30.110418322340195],[28.23180858243858,30.106531452181788],[28.240795727660295,30.09293209708983],[28.314896002921135,30.1337283265131],[28.33959244260776,30.129843832340352],[28.357568611945943,30.137612928964128],[28.368805655647325,30.129843832340352],[28.395749568721833,30.129843240926967],[28.420456745402408,30.11430088899132],[28.427178182809413,30.098761182584592],[28.42942871954362,30.106531844255386],[28.454127641333,30.110418322340195],[28.4653598666855,30.133726712282602],[28.47659538709178,30.133728438384328],[28.48109506616227,30.124016580541745],[28.492322946494433,30.124012473348042],[28.49007821900346,30.110418322340195],[28.501306987446192,30.116240121962296],[28.487832430793162,30.094875163777974],[28.505780770169874,30.089045849151265],[28.517023685146526,30.09875987278582],[28.53050240678884,30.06766875558417],[28.550708125200316,30.06766842082419],[28.561943441733025,30.05795036800888],[28.611332816053917,30.05795036800888],[28.613579664983543,30.071551734070443],[28.62032670457413,30.071555694068806],[28.633807980660794,30.06183303802833],[28.633807603743254,30.046275602023805],[28.600121841308106,30.0384951777201],[28.593382437595416,30.022943562664707],[28.579902516788753,30.017107317227456],[28.56641705184794,30.032662541768943],[28.54845403046656,30.032664307084065],[28.543977136050636,30.0423834109587],[28.487823447640324,30.011273273336194],[28.442916666587188,30.0384951777201],[28.43617930195629,30.030718253499646],[28.44066936444266,30.015166031394216],[28.424940497249004,30.015162611875073],[28.411457837946084,30.02489142019128],[28.420440818178516,30.02878948185267],[28.415949628569464,30.04628152486467],[28.4249503609048,30.042398963585246],[28.43616133565061,30.046271491600336],[28.418195029968217,30.055991025514473],[28.415960832582385,30.04821580951931],[28.402477143600677,30.052105603823474],[28.420440818178516,30.06765320692615],[28.404720300706426,30.0734837823761],[28.38900306753534,30.069598534903587],[28.39124557144463,30.08708712229989],[28.380027366072156,30.077370791180183],[28.368805655647325,30.083200644645203],[28.346337909888547,30.063766003217747],[28.303659831242978,30.083200644645203],[28.294685661554627,30.07737064181329],[28.278974127235376,30.083200644645203],[28.240784136835828,30.069597105000152],[28.240777761354614,30.092916552402347],[28.229566786608803,30.094859619396],[28.220583633767603,30.06961231859937],[28.2318125748191,30.048231026404473],[28.28121268481901,30.048230876993603],[28.30815140766358,30.036566557422727],[28.319385097238975,30.048230108241363],[28.328363501556264,30.044343022676227],[28.332859070357387,30.054061435449515],[28.344099946252246,30.054059903102804],[28.330627256072248,30.015178131317807],[28.3665588067177,29.97432875861296],[28.3620672302971,29.958756901546423],[28.350824014763806,29.95875506704584],[28.337364620703145,29.98015337561659],[28.33960972511165,29.952920268370814],[28.323878300616887,29.94902405908188],[28.328363501556264,29.960698485961938],[28.310401944397782,29.962645065296833],[28.29694043291777,29.974317308717552],[28.29918617787173,29.939300729797864],[28.290194965636978,29.927616470988728],[28.278958200011484,29.931511856978943],[28.258744067037004,29.958752787496017],[28.25202466871179,29.95486127631064],[28.2520165660619,29.931509048216803],[28.236304151239697,29.945131831938387],[28.21608651189793,29.92761702612152],[28.1913776513547,29.927616583092824],[28.186878844307444,29.94318582883441],[28.16893050493073,29.94902372392131],[28.180159445982227,29.888697866467595],[28.18914108488919,29.886747298718547],[28.19363311452469,29.871161079003596],[28.17791365777193,29.88089363515187],[28.16893050493073,29.873104372137266],[28.175667826305293,29.86142636395803],[28.16667003471576,29.849734702232002],[28.166666750414752,29.86531450082067],[28.153192193761722,29.875058014698403],[28.153192021152957,29.900364130734378],[28.13748946998655,29.913991214354215],[28.13748946998655,29.884803615823813],[28.150964199248346,29.853644135664705],[28.159946668287745,29.849743706695133],[28.159947179480774,29.836103339564414],[28.15094623294266,29.849732933667553],[28.135243681776252,29.849732933667553],[28.141980873798385,29.838051434328467],[28.130738887573877,29.83220168375911],[28.11727737609386,29.853628553490648],[28.115028303582555,29.839994987859708],[28.10155685862177,29.841941238024205],[28.106048435042368,29.826371609516485],[28.11952248050237,29.824418476041423],[28.115023485233674,29.81271700343399],[28.103787964827397,29.812718735122164],[28.101538892316086,29.82245933949632],[28.097057179551282,29.81271700343399],[28.085821005948546,29.820513223444078],[28.083572586633696,29.832200763599932],[28.072343818190966,29.838051434328467],[28.0768352220028,29.855576306397268],[28.056641094415795,29.86531450082067],[28.043166365154,29.8477850667541],[28.052148834193403,29.828309118696414],[28.02744584768191,29.81076837726143],[28.04091989314191,29.797137972383666],[28.045411469562506,29.77374279382047],[28.036411034217423,29.781534992031144],[28.013971118420116,29.77958579604345],[28.013971118420116,29.77180422757769],[28.03193674030071,29.771799414072795],[28.018462694840714,29.76400645834987],[28.03193674030071,29.75815291895451],[28.02744584768191,29.732809312947193],[28.03642696144131,29.730856317090826],[28.038669243284325,29.72109287206522],[28.02069255582712,29.73474667008586],[28.01844472853503,29.742543864214362],[27.98475994446234,29.750346154940665],[27.98026632895995,29.775687290230735],[27.96005423506726,29.80492238352136],[27.93312274284936,29.80492238352136],[27.93086797148622,29.787382352301353],[27.921876222303727,29.79323490379699],[27.928613200123078,29.795193892611188],[27.92636741191278,29.801024864528845],[27.919637277908546,29.79712734347271],[27.901681707905176,29.80492238352136],[27.899435919694877,29.79129599461911],[27.908419029279735,29.781542024527923],[27.899435919694877,29.77958579604345],[27.89942954421366,29.769839582703938],[27.885943224127402,29.781534992031144],[27.867994884750694,29.77958579604345],[27.885961147176747,29.758149170197438],[27.876969934942,29.7503433410792],[27.865749096540394,29.756192484815195],[27.852274367278604,29.738643917048833],[27.863501794395862,29.721095745397257],[27.854506937707125,29.7210931993989],[27.827570696965314,29.738643917048833],[27.811850179493224,29.69965171239552],[27.829815424456285,29.691844207576217],[27.82083333233442,29.68209325568042],[27.832061212666584,29.676235629364367],[27.834308061596214,29.658677208610882],[27.8432879301364,29.658675436671988],[27.8567659436992,29.64111159616633],[27.863490887473493,29.648918319203855],[27.881465621631964,29.648917597758256],[27.88820697864338,29.62159065443939],[27.921892287863635,29.60987280279966],[27.908413527086992,29.562990109207522],[27.89717615755942,29.562990831268177],[27.8949263769686,29.570802882616555],[27.870226699035836,29.57080419935558],[27.865731130234714,29.58252180138686],[27.834308061596214,29.60205030914732],[27.841045426227108,29.561043891755833],[27.83429337959154,29.557130865349993],[27.834290095290527,29.566896274081287],[27.80509553235844,29.596196975648343],[27.784882754663954,29.65085503447102],[27.780409144549044,29.637207710476332],[27.784900334158092,29.63525016936812],[27.798372165930424,29.58838252377636],[27.77589960182276,29.629383868031443],[27.771425991707844,29.615733634308427],[27.79836734758154,29.55712912925275],[27.76018112343246,29.5708057391259],[27.73996699045798,29.619622733646136],[27.733247592132766,29.60597117774819],[27.746721934583015,29.57666805677557],[27.735487834893984,29.566896868838523],[27.72200878742548,29.566896311704788],[27.7017885908829,29.594239359645435],[27.690567752481293,29.588380788216377],[27.688313861621104,29.594239359645435],[27.659124160336304,29.59814550457808],[27.63890652099453,29.615718015133027],[27.600733666868532,29.61962332809261],[27.596236544998856,29.629383868031443],[27.578275784765545,29.629384462420333],[27.57377866289587,29.637192094629675],[27.57154097733546,29.625479565354777],[27.51989771215438,29.643047867316454],[27.531126266394327,29.619628276015735],[27.51090469565739,29.61962277124998],[27.49966765195601,29.637192094629675],[27.472736159738105,29.643047867316454],[27.470490371527806,29.635255710878077],[27.486210716391135,29.621584368792266],[27.481719312579298,29.611828765127953],[27.49070242216416,29.60596413295209],[27.479473524369,29.586443429036283],[27.506422982892584,29.57277175603923],[27.537860025456247,29.57277043932586],[27.55133768637923,29.561047575165446],[27.55583032351916,29.54151526629687],[27.57828492132114,29.53760575120864],[27.587271358463344,29.51611225039485],[27.602991875935434,29.508294654505878],[27.641163900029298,29.508294317869833],[27.663628157613502,29.490702856501798],[27.688313861621104,29.490702856501798],[27.690568632984245,29.49656712870096],[27.719768870490448,29.492656333866258],[27.731001803922467,29.473108003218904],[27.748963361080953,29.473107079770735],[27.77816335633874,29.441820723661948],[27.8006197245075,29.437905658414067],[27.807358430463864,29.418339581899094],[27.793883873810834,29.398784965023772],[27.811850179493224,29.381174174768113],[27.834308061596214,29.361603055001392],[27.856761951318678,29.361601735543218],[27.881468930210694,29.34006564444959],[27.87248646117129,29.33026577649422],[27.876974045211366,29.316560861215407],[27.845529772021045,29.30676839614601],[27.825324908755015,29.30872657989062],[27.825324224953224,29.293063690184695],[27.81634175591382,29.291100219038036],[27.820832945522874,29.273476377086087],[27.811850179493224,29.26955275756169],[27.811850179493224,29.25585404589761],[27.825324736146253,29.24996958096027],[27.820828583810513,29.234284402922043],[27.796115688095973,29.242123466886692],[27.784900720969638,29.25583837126347],[27.775916054194212,29.234286961177506],[27.760197050656352,29.22644420849005],[27.755704413516426,29.202926946584395],[27.748957373925837,29.202922952281014],[27.73996699045798,29.23624320072716],[27.726495545497194,29.238204665927043],[27.71975489656529,29.249960214119973],[27.704052345398882,29.249960214119973],[27.719772862870972,29.224499976946973],[27.728754954992837,29.22253588458041],[27.737739168553365,29.18921517252421],[27.746721934583015,29.187248983488836],[27.746722321394557,29.16176304004754],[27.753459686025455,29.159794047800727],[27.746722321394557,29.155863795009353],[27.748968109604856,29.128418438361756],[27.760179084350668,29.130380185033097],[27.75793967162159,29.15195658979248],[27.766934242678484,29.151950612877442],[27.76244283886665,29.130380185033097],[27.784882754663954,29.12449483273168],[27.787132535254777,29.134302243687817],[27.825306942449334,29.142149878949493],[27.83429564073961,29.155878887777885],[27.867976918445013,29.151956927606932],[27.890434800548,29.15980189246626],[27.94658760845536,29.222539991009068],[27.969048978732925,29.222539691178103],[28.00498468127791,29.20489702764458],[28.03642882791434,29.163717836166263],[28.025189323792592,29.15782516853463],[28.013953152114436,29.167630569912514],[27.980284295265637,29.171552528539884],[27.978036993121105,29.157828504268476],[27.969055354214138,29.155863795009353],[27.96680805206961,29.128406231705668],[27.95333483674205,29.134287872854525],[27.95108798781242,29.102900777108246],[27.926385378218463,29.08915994670617],[27.930876911382725,29.077391271257945],[27.924138076073934,29.063647595330792],[27.899428689068216,29.053828789376762],[27.838787217160206,29.06168168468967],[27.825306942449334,29.073458638418035],[27.80285305272687,29.077385512957086],[27.79835748392575,29.08719741404608],[27.787131827175266,29.08719919596063],[27.762424872560967,29.112707421137117],[27.744476533184258,29.10878321616074],[27.748968109604856,29.09113814177967],[27.760193058275828,29.091136818832116],[27.787146509179937,29.0695486405642],[27.800617246061208,29.069547317339385],[27.80735860307263,29.05384434398215],[27.816341712657483,29.051874055553412],[27.800608817585125,29.049902787798175],[27.77589960182276,29.073458638418035],[27.726495545497194,29.095049102071453],[27.713035498240078,29.118593447970554],[27.71078971002978,29.09702540226537],[27.733246078198533,29.07739640254139],[27.737739168553365,29.057770642375054],[27.753458172091225,29.051877648670335],[27.75795057864426,29.036163291897545],[27.730987829997307,29.04401356062997],[27.719772862870972,29.05775493747926],[27.72875597245583,29.018492308107145],[27.717517211004882,29.018485260463923],[27.686086039716493,29.04008541497301],[27.679348675085592,29.026356070589415],[27.692822720545596,29.020459924596576],[27.69282234362806,29.000813130376958],[27.681582872471427,28.994916561864844],[27.67933070877991,29.00473729311007],[27.663628157613502,29.008665459645833],[27.652396585457456,28.977238248912663],[27.643398097415133,28.989023133921364],[27.63443291087962,28.98509422092674],[27.634427365430536,28.95562321522369],[27.623189995902965,28.955623941585372],[27.62318600352244,28.965447417409205],[27.602977902010277,28.9693784010514],[27.596236544998856,28.983129708458616],[27.578288205622147,28.989023133921364],[27.582775789662225,28.97723727159839],[27.57155084099125,28.983129708458616],[27.56929782215429,28.977236098190446],[27.544601382467665,28.97723594719018],[27.551335462797553,28.96544920142615],[27.54235559425737,28.96937707654259],[27.537860025456247,28.959553973617698],[27.49293666280633,28.941866668585526],[27.492930287325112,28.95365754492451],[27.479455944874864,28.96545299539354],[27.479455558063318,28.985102078901686],[27.49517607553541,28.99493193799181],[27.49517607553541,29.00473729311007],[27.465998795107208,29.00473729311007],[27.463744023744066,28.99491622353521],[27.412099878060037,29.00473729311007],[27.412099705451276,28.947768432518266],[27.40086020132952,28.94186648113428],[27.364921873272312,28.967415758540287],[27.36492035933808,28.98509422092674],[27.351445630076288,29.002773153847386],[27.337974893195018,29.004738617166094],[27.333479324393895,29.016521344714107],[27.31777677322749,29.022412866462147],[27.245911550497926,29.00473729311007],[27.234676233965214,28.994916561864844],[27.205487362712546,28.99491622353521],[27.196498664422272,28.98313030662272],[27.17629211597866,28.983129708458616],[27.1740390971417,28.973306737479856],[27.156066048160817,28.97723727159839],[27.151570479359695,28.987058696081526],[27.12688477535209,28.987058696081526],[27.102174729557586,28.975271623878594],[27.061756917253422,28.96937707654259],[27.055019552622525,28.961517609086513],[27.059510445241333,28.95169728808468],[27.050521600720714,28.947762443760325],[27.021332729468046,28.95562261690058],[26.927009624635495,28.937935626893324],[26.91802092634522,28.92417759016216],[26.868619131167726,28.916314094544767],[26.86412117926591,28.906484973497776],[26.850652825485337,28.910416530504108],[26.848403752974026,28.90648641991137],[26.839417508952625,28.90255292888905],[26.82370336696175,28.90255259025759],[26.825948982563286,28.86913052909572],[26.81695877170419,28.863224103229037],[26.774278060029495,28.90648463487915],[26.758575508863085,28.90648463487915],[26.751835513127638,28.884858849747555],[26.722642897498307,28.880923682100207],[26.720390733806788,28.875024445804854],[26.711395990141128,28.884856545972877],[26.684464497923223,28.884856545972877],[26.679968929122104,28.875025432798125],[26.650777674768744,28.86519073760984],[26.693446966962625,28.814053106140634],[26.679960500646025,28.806171588975403],[26.666480225935153,28.84552120771527],[26.639534051712573,28.851424243327063],[26.628301826360072,28.871090870952962],[26.626070012074933,28.863225277927743],[26.617076169609586,28.865192523351965],[26.612581308887982,28.896654243984795],[26.594615175814354,28.898626726893404],[26.60809448099129,28.918294672345453],[26.63728497920127,28.91436400380683],[26.644022343832162,28.920261343414968],[26.63728497920127,28.93400477460474],[26.619319060330422,28.928113796633756],[26.6215684541097,28.9359846178577],[26.63503919099097,28.937951350003093],[26.63055089887138,28.95367148142842],[26.675463378776346,28.95563833732604],[26.677709166986645,28.973306586473857],[26.64851498097209,28.97724010125701],[26.64627141634347,29.00475122273454],[26.65975754330893,29.006715324403146],[26.655269251189342,28.99493193799181],[26.67997292150263,28.979216288433495],[26.715896549714568,28.989038849273623],[26.722642897498307,28.975287002926358],[26.74732860150591,28.971357568197824],[26.756325728272262,28.979214964050616],[26.76082061327159,28.96545226918857],[26.747346567811594,28.961517609086513],[26.754083932442487,28.94384734797578],[26.763049118978,28.947777826895102],[26.758557715166166,28.95759704507353],[26.767540695398598,28.95956836881199],[26.767543326503148,28.96742568232001],[26.789998577501585,28.967427984260713],[26.796735942132482,28.973322304213966],[26.792245879646117,28.9851064445584],[26.80348572761998,28.985109338723383],[26.80349127306906,28.95956836881199],[26.823699374581228,28.96153200400778],[26.832686519802945,28.94384734797578],[26.855141117604926,28.935984158269125],[26.85963597832653,28.926158347679312],[26.891059046965033,28.949743010431202],[26.89105943377658,28.9674224063828],[26.900042199806226,28.975271285484688],[26.850638851560177,28.983131032791377],[26.846143282759055,29.002773153847386],[26.832671837798273,29.004739076449443],[26.825931188866367,29.018485222637846],[26.801245484858764,29.012593476851436],[26.803490589267266,29.000813827377936],[26.792253348864726,28.99491622353521],[26.78550700108099,29.012593476851436],[26.758565645207295,29.004737330941186],[26.720379142982324,29.018485222637846],[26.704667608663073,29.012593476851436],[26.70241283729993,29.018485222637846],[26.67547060940301,29.018485373577867],[26.666480225935153,29.03615844343623],[26.630553160019453,29.03615904129342],[26.61482709709828,29.049902190020603],[26.57665268990372,29.057756260855445],[26.565419756471705,29.073458638418035],[26.52051122289239,29.07738434068676],[26.51825820405543,29.08327223653858],[26.473351423002295,29.07738418983289],[26.46885086342886,29.08719741404608],[26.37454572490199,29.08719741404608],[26.363316783850497,29.075421432818846],[26.365562572060796,29.0695486405642],[26.41496353720615,29.073474002849345],[26.428444641949163,29.059733735513646],[26.446406199107646,29.06954771346307],[26.444165159421253,29.057770642375054],[26.45763984542671,29.05383726093937],[26.448649505215187,29.04008556588146],[26.428431424167385,29.04008634233903],[26.42618088743318,29.049902190020603],[26.4217000466916,29.044012387980164],[26.392500439759914,29.04401257524631],[26.3902482760684,29.053828638488422],[26.327372581661248,29.04990252817015],[26.352069876493317,29.051881138731012],[26.361053029334514,29.059718030916834],[26.327367720114264,29.061684576709297],[26.33185778260063,29.075421432818846],[26.313892160720034,29.093089745615796],[26.31164568870794,29.124479138008546],[26.30041692026521,29.134294188669532],[26.302663596586076,29.149991445654795],[26.313897022367318,29.155878887777885],[26.347578300072723,29.155879484940275],[26.361060259961178,29.169607105072313],[26.399231428909594,29.163724150172236],[26.42393509922288,29.173529138891517],[26.455376134167064,29.202938484347836],[26.45538088269097,29.23037867080757],[26.475602201984913,29.226458566421258],[26.477851982575736,29.218620019871555],[26.504783474793637,29.22254002876018],[26.504783474793637,29.23428347730653],[26.489063129930308,29.238209196051233],[26.493559282266048,29.271526552396832],[26.511538805730215,29.261731864349727],[26.578894485733496,29.24997588965484],[26.59012342678499,29.263691062095173],[26.576649381324994,29.269557595018796],[26.58114290504835,29.285237464565906],[26.61482709709828,29.289157216203137],[26.6215684541097,29.302865811594486],[26.644022343832162,29.304825540918426],[26.63728497920127,29.320475796336517],[26.621582428034856,29.322433867542436],[26.61034450383052,29.3106848765774],[26.601352367836487,29.31655954117408],[26.576655073004417,29.310685213868553],[26.5744029093129,29.320475796336517]],[[26.81696600233085,28.90256831873286],[26.823685400656068,28.904518631192143],[26.819211790541154,28.90648463487915],[26.81696600233085,28.90256831873286]],[[26.84391546085444,28.91043225778741],[26.850634859179653,28.914348277119597],[26.84616124906474,28.916314094544767],[26.84391546085444,28.91043225778741]],[[27.522143500364677,28.95956836881199],[27.52886289868989,28.961517609086513],[27.524389288574977,28.965447417409205],[27.522143500364677,28.95956836881199]],[[27.62994133445902,28.987074411732312],[27.636660732784232,28.989023133921364],[27.632187122669322,28.99098753444466],[27.62994133445902,28.987074411732312]],[[27.89494434327428,29.057770642375054],[27.901663741599492,29.059718030916834],[27.897190131484578,29.061681086980382],[27.89494434327428,29.057770642375054]],[[27.479455558063318,29.586427805324096],[27.45250938384074,29.58838252377636],[27.450260311329433,29.605955557060224],[27.40087093700854,29.61376559914855],[27.412099878060037,29.60011325007441],[27.454766569754707,29.582535652425562],[27.45701564226601,29.57277175603923],[27.481701346273617,29.57277175603923],[27.479455558063318,29.586427805324096]],[[27.780391178243356,29.648918913477456],[27.782636966453655,29.662564649801357],[27.769180203497545,29.67427290235612],[27.76693441528725,29.668434557448546],[27.780391178243356,29.648918913477456]],[[27.89494434327428,29.8049379732924],[27.901663741599492,29.81076837726143],[27.897190131484578,29.812716965902407],[27.89494434327428,29.8049379732924]],[[27.93536853105966,29.808835339813474],[27.942087929384872,29.81076837726143],[27.937614319269958,29.812716965902407],[27.93536853105966,29.808835339813474]],[[28.110540011462966,29.853644135664705],[28.11725940978818,29.855576306397268],[28.11278579967326,29.857524021298577],[28.110540011462966,29.853644135664705]],[[28.13297992726027,29.845852745231458],[28.135225715470572,29.851680762580244],[28.130752105355654,29.853628553490648],[28.128506317145355,29.84974851644965],[28.13297992726027,29.845852745231458]],[[28.990871023594416,30.28317089335575],[28.9841516252692,30.288973215896608],[28.9819058370589,30.28511021046083],[28.990871023594416,30.28317089335575]],[[28.548468712471234,30.04045486634501],[28.570908628268537,30.03851073095701],[28.557433899006746,30.059878571972895],[28.539485559630034,30.059878571972895],[28.537239771419735,30.052118877517827],[28.548468712471234,30.04045486634501]],[[27.679348675085592,29.010629486915704],[27.68606807341081,29.00475300607367],[27.68382228520051,29.012593476851436],[27.679348675085592,29.010629486915704]],[[29.069491577260557,30.24630106636012],[29.071737365470856,30.238556023165923],[29.080702552006365,30.240496221545083],[29.076210975585767,30.24630106636012],[29.069491577260557,30.24630106636012]],[[29.078474730101746,30.23854050142447],[29.080720518312045,30.23273519824239],[29.08968570484756,30.23661578648811],[29.087439916637262,30.240480700110023],[29.078474730101746,30.23854050142447]],[[28.99538056632069,30.27541324162619],[29.002099964645907,30.277337196440712],[28.99762635453099,30.279276628845192],[28.99538056632069,30.27541324162619]],[[28.880845367595455,30.27541324162619],[28.892056342341263,30.277337196440712],[28.883091155805754,30.28315537866434],[28.880845367595455,30.27541324162619]],[[28.802242780234998,30.28511021046083],[28.811207966770507,30.287033975154003],[28.804488568445297,30.288973215896608],[28.802242780234998,30.28511021046083]],[[28.797733237508716,30.28704948923206],[28.79997902571902,30.29285158237005],[28.791013839183503,30.298668844528855],[28.788768050973204,30.288988729667974],[28.797733237508716,30.28704948923206]],[[28.779766931826323,30.294806220949198],[28.782012720036622,30.300607855228915],[28.77753910992171,30.302546827583416],[28.775293321711413,30.298684356766607],[28.779766931826323,30.294806220949198]],[[28.775275355405732,30.28317089335575],[28.77752114361603,30.29091241830244],[28.768555957080515,30.29285158237005],[28.766310168870216,30.28511021046083],[28.775275355405732,30.28317089335575]],[[28.537221805114054,30.06376596578075],[28.528256618578542,30.061822287958886],[28.53050240678884,30.054062745840195],[28.537221805114054,30.05795036800888],[28.537221805114054,30.06376596578075]],[[28.49007821900346,30.256000910667012],[28.501289193749272,30.248256632045774],[28.496797617328674,30.25794076459869],[28.49007821900346,30.256000910667012]],[[28.427196149115098,30.090988992213763],[28.442916666587188,30.07155584344448],[28.4518818531227,30.073499330118022],[28.456373429543298,30.08514390256353],[28.447391337421433,30.089034412500787],[28.445144488491803,30.10457438149382],[28.43393351374599,30.10457438149382],[28.427196149115098,30.090988992213763]],[[28.411475631643004,30.07932956109431],[28.422686606388815,30.07544277861849],[28.424932394599114,30.0890303038528],[28.411475631643004,30.090973447220787],[28.411475631643004,30.07932956109431]],[[28.234058363029398,29.94709336453457],[28.240777761354614,29.95486127631064],[28.236304151239697,29.958752787496017],[28.234058363029398,29.94709336453457]],[[28.220583633767603,29.956822616988607],[28.22730303209282,29.96848089894567],[28.222829421977906,29.97042640696412],[28.220583633767603,29.956822616988607]],[[28.225075210188205,29.95486127631064],[28.225075210188205,29.943201397010313],[28.22954882030312,29.943201397010313],[28.231794608513418,29.95486127631064],[28.225075210188205,29.95486127631064]],[[28.11503158788356,29.884803615823813],[28.121750986208777,29.890629358348527],[28.11727737609386,29.892576388896586],[28.11503158788356,29.884803615823813]],[[28.11952316430416,29.88284085584704],[28.11952316430416,29.871172540769944],[28.123996774419076,29.869225092252112],[28.13073413904997,29.88089363515187],[28.11952316430416,29.88284085584704]],[[28.088082129359975,29.89259196498762],[28.094801527685192,29.896470335889383],[28.090327917570274,29.898417252331104],[28.088082129359975,29.89259196498762]],[[28.092573705780573,29.890629358348527],[28.092573705780573,29.880909213068314],[28.101538892316086,29.869225092252112],[28.103784680526385,29.88284085584704],[28.092573705780573,29.890629358348527]],[[28.106030468736684,29.871156961332655],[28.10380264683207,29.865330081170328],[28.108276256946983,29.867277605718396],[28.106030468736684,29.871156961332655]],[[28.013953152114436,29.78543327016161],[28.002742177368624,29.787382352301353],[28.002742177368624,29.77765215613151],[28.009461575693834,29.775702884556328],[28.013953152114436,29.78543327016161]],[[27.926385378218463,29.818578091631643],[27.933104776543676,29.82051094073072],[27.92863116642876,29.82245933949632],[27.926385378218463,29.818578091631643]],[[27.92636741191278,29.845852745231458],[27.928613200123078,29.851680762580244],[27.924139590008163,29.853628553490648],[27.921893801797864,29.84974851644965],[27.92636741191278,29.845852745231458]],[[27.90390952980979,29.0695486405642],[27.90390952980979,29.07738418983289],[27.89045276685368,29.075421432818846],[27.89269855506398,29.0695486405642],[27.90390952980979,29.0695486405642]],[[27.845537002647706,29.762056921203733],[27.858993765603817,29.754258393308103],[27.861239553814112,29.76594036171867],[27.847782790858005,29.777636562109475],[27.845537002647706,29.762056921203733]],[[27.841027459921428,29.734759418923183],[27.834308061596214,29.742543864214362],[27.834308061596214,29.734759418923183],[27.841027459921428,29.734759418923183]],[[27.784882754663954,29.777636562109475],[27.780409144549044,29.77180422757769],[27.787128542874253,29.77375357503788],[27.784882754663954,29.777636562109475]],[[27.787146509179937,29.781534992031144],[27.789374331084556,29.775702884556328],[27.791620119294855,29.77958579604345],[27.787146509179937,29.781534992031144]],[[27.753459686025455,29.295017451080497],[27.755705474235754,29.289157216203137],[27.77589960182276,29.2911158882655],[27.771408025402163,29.302851464388613],[27.753459686025455,29.295017451080497]],[[27.753459686025455,29.65087064819862],[27.760179084350668,29.652806731649246],[27.753459686025455,29.65475839098025],[27.753459686025455,29.65087064819862]],[[27.762424872560967,29.65085503447102],[27.760197050656352,29.645015330504123],[27.764670660771266,29.646967140912114],[27.762424872560967,29.65085503447102]],[[27.769162237191864,29.644999715868277],[27.76244283886665,29.637207710476332],[27.771408025402163,29.63135159818274],[27.769162237191864,29.644999715868277]],[[27.737739168553365,29.130380185033097],[27.744458566878578,29.151941237076805],[27.739984956763664,29.153902534768193],[27.737739168553365,29.130380185033097]],[[27.737739168553365,29.11860914359187],[27.744458566878578,29.120555382073718],[27.739984956763664,29.122517278753577],[27.737739168553365,29.11860914359187]],[[27.704052345398882,29.206843411062252],[27.70629813360918,29.18921517252421],[27.710771743724095,29.18725454947905],[27.713017531934394,29.204883125082446],[27.704052345398882,29.206843411062252]],[[27.71078971002978,29.18723886434358],[27.72201865108127,29.163724150172236],[27.728738049406484,29.163724150172236],[27.728738049406484,29.183317505223805],[27.71078971002978,29.18723886434358]],[[27.73772120224768,29.167630569912514],[27.731001803922467,29.15980189246626],[27.73996699045798,29.16176304004754],[27.73772120224768,29.167630569912514]],[[27.737739168553365,29.173513451657634],[27.74221277866828,29.163724150172236],[27.74221277866828,29.17547433730932],[27.737739168553365,29.173513451657634]],[[27.728756015712168,29.112723117656504],[27.73547541403738,29.124479138008546],[27.731001803922467,29.126440959837037],[27.728756015712168,29.112723117656504]],[[27.72426443929157,29.130380185033097],[27.730983837616783,29.134287872854525],[27.72651022750187,29.13624950752686],[27.72426443929157,29.130380185033097]],[[27.70629813360918,29.637207710476332],[27.713017531934394,29.644999715868277],[27.70854392181948,29.646951526579006],[27.70629813360918,29.637207710476332]],[[27.717509108354992,29.635240094728747],[27.71078971002978,29.62939948508872],[27.715263320144693,29.62744733416584],[27.717509108354992,29.635240094728747]],[[27.70629813360918,29.030283415053614],[27.713017531934394,29.038121947882864],[27.70854392181948,29.04008541497301],[27.70629813360918,29.030283415053614]],[[27.663628157613502,29.08915994670617],[27.677102886875293,29.063659809667115],[27.69955677659776,29.05580618846284],[27.706280167303497,29.045991298778016],[27.708525955513796,29.05579180666926],[27.67034755593872,29.091122441968363],[27.663628157613502,29.08915994670617]],[[27.674839132359313,29.06757003091097],[27.6703655222444,29.063644105668313],[27.6726113104547,29.059733735513646],[27.677084920569612,29.061696791278194],[27.674839132359313,29.06757003091097]],[[27.701806557188583,29.075437135023307],[27.708525955513796,29.08523484398968],[27.704052345398882,29.08719741404608],[27.701806557188583,29.075437135023307]],[[27.701806557188583,29.598160531902757],[27.708525955513796,29.60009762847905],[27.704052345398882,29.60205030914732],[27.701806557188583,29.598160531902757]],[[27.697314980767985,29.210779552078318],[27.704034379093198,29.212724044037902],[27.699560768978284,29.21664427853609],[27.697314980767985,29.210779552078318]],[[27.683840251506194,29.104874559245868],[27.690559649831407,29.110745337356615],[27.686086039716493,29.112707421137117],[27.683840251506194,29.104874559245868]],[[27.6703655222444,29.022428576737514],[27.677084920569612,29.024376632359523],[27.6726113104547,29.02634036091158],[27.6703655222444,29.022428576737514]],[[27.661382369403206,29.030283415053614],[27.66810176772842,29.038121947882864],[27.663628157613502,29.04008541497301],[27.661382369403206,29.030283415053614]],[[27.656890792982608,29.126456654260753],[27.663610191307818,29.128402744237466],[27.659136581192907,29.130364491208244],[27.656890792982608,29.126456654260753]],[[27.647907640141412,29.044027944065796],[27.654627038466625,29.045975592088574],[27.650153428351707,29.049902190020603],[27.647907640141412,29.044027944065796]],[[27.656872826676924,29.044012237077457],[27.654645004772306,29.038137655767827],[27.659118614887223,29.040101122559104],[27.656872826676924,29.044012237077457]],[[27.647907640141412,29.140188356889404],[27.654627038466625,29.14213418692157],[27.650153428351707,29.14409567184044],[27.647907640141412,29.140188356889404]],[[27.636669715937074,29.057770642375054],[27.645643885625432,29.057770642375054],[27.643398097415133,29.06757003091097],[27.638924487300216,29.06757003091097],[27.636669715937074,29.057770642375054]],[[27.647889673835728,29.05775493747926],[27.645661851931113,29.051881138731012],[27.650135462046027,29.05384434398215],[27.647889673835728,29.05775493747926]],[[27.620958181617826,29.051881138731012],[27.62543179173274,29.05775493747926],[27.618712393407527,29.05775493747926],[27.620958181617826,29.051881138731012]],[[27.607483452356036,29.055807511864028],[27.614202850681245,29.061681086980382],[27.605237664145733,29.061681086980382],[27.607483452356036,29.055807511864028]],[[27.59625451130454,29.061696791278194],[27.602973909629753,29.07149580663206],[27.598500299514836,29.073458638418035],[27.59625451130454,29.061696791278194]],[[27.57153287468557,29.00082469081779],[27.56704129826497,29.006701395043425],[27.56032189993976,29.006701395043425],[27.562567688150057,28.99886047719982],[27.57153287468557,29.00082469081779]],[[27.564813476360357,29.112723117656504],[27.57153287468557,29.11663147644568],[27.567059264570656,29.118593447970554],[27.564813476360357,29.112723117656504]],[[27.564795510054672,29.063659809667115],[27.56704129826497,29.07149580663206],[27.562567688150057,29.073458638418035],[27.56032189993976,29.06758573431171],[27.564795510054672,29.063659809667115]],[[27.528880864995575,28.971357568197824],[27.537846051531087,28.97723594719018],[27.526635076785276,28.975271285484688],[27.528880864995575,28.971357568197824]],[[27.490702465420497,29.024376632359523],[27.49743983005139,29.00671710770837],[27.522125534058997,29.00671710770837],[27.52886289868989,29.01850093351068],[27.522125534058997,29.030267705973355],[27.490702465420497,29.024376632359523]],[[27.504177194682285,29.637207710476332],[27.5108965930075,29.64109598092505],[27.506422982892584,29.643047867316454],[27.504177194682285,29.637207710476332]],[[27.463735040591224,29.00671710770837],[27.463735040591224,29.012593476851436],[27.450278277635118,29.010629486915704],[27.452524065845413,29.00671710770837],[27.463735040591224,29.00671710770837]],[[27.425574607321828,29.66451611987327],[27.430066183742426,29.648918913477456],[27.452506099539733,29.65087064819862],[27.441277158488237,29.66451611987327],[27.425574607321828,29.66451611987327]],[[27.432311971952725,29.62549514541564],[27.448014523119138,29.619638352216416],[27.448014523119138,29.631335981428098],[27.434557760163024,29.637192094629675],[27.432311971952725,29.62549514541564]],[[27.396370377435105,29.637207710476332],[27.40309875891316,29.635255710878077],[27.407590335333758,29.644999715868277],[27.398625148798242,29.646951526579006],[27.396370377435105,29.637207710476332]],[[27.394133572377648,29.615733634308427],[27.40085297070286,29.617670393299402],[27.396379360587947,29.619622733646136],[27.394133572377648,29.615733634308427]],[[26.71141395644681,28.95956836881199],[26.718133354772025,28.967412265625367],[26.713659744657107,28.96937707654259],[26.71141395644681,28.95956836881199]],[[26.702430803605615,28.95365754492451],[26.711395990141128,28.94384734797578],[26.711395990141128,28.95562261690058],[26.702430803605615,28.95365754492451]],[[26.715887566561726,28.947762105276485],[26.713659744657107,28.939916719937678],[26.718133354772025,28.941882052595776],[26.715887566561726,28.947762105276485]],[[26.702430803605615,28.888804991480512],[26.70915020193083,28.890755562542058],[26.704676591815915,28.892721826928053],[26.702430803605615,28.888804991480512]],[[26.70241283729993,29.793244962593604],[26.706904413720533,29.8029892330821],[26.70465862551023,29.812716965902407],[26.697939227185017,29.81076837726143],[26.70241283729993,29.793244962593604]],[[26.682200743407243,28.94384734797578],[26.684446531617542,28.949727289110864],[26.67997292150263,28.951692435660732],[26.67772713329233,28.947777826895102],[26.682200743407243,28.94384734797578]],[[26.31615523143422,29.14213418692157],[26.32736620618003,29.1362652004533],[26.325120417969732,29.14409567184044],[26.31615523143422,29.14213418692157]]]}}]}