{"type":"FeatureCollection","features":[{"type":"Feature","properties":{"rank":1,"area_km2":59.3,"grid_km":10.4,"road_km":0.3},"geometry":{"type":"Point","coordinates":[33.50069,28.51763]}},{"type":"Feature","properties":{"rank":2,"area_km2":59.2,"grid_km":5.9,"road_km":1.1},"geometry":{"type":"Point","coordinates":[31.20386,28.37131]}},{"type":"Feature","properties":{"rank":3,"area_km2":266.6,"grid_km":1.6,"road_km":12.4},"geometry":{"type":"Point","coordinates":[31.61538,28.34466]}},{"type":"Feature","properties":{"rank":4,"area_km2":307.4,"grid_km":2.6,"road_km":0.2},"geometry":{"type":"Point","coordinates":[32.10767,28.31909]}},{"type":"Feature","properties":{"rank":5,"area_km2":122.5,"grid_km":12.2,"road_km":0.7},"geometry":{"type":"Point","coordinates":[33.59957,28.32618]}},{"type":"Feature","properties":{"rank":6,"area_km2":94.0,"grid_km":9.9,"road_km":1.9},"geometry":{"type":"Point","coordinates":[31.44079,28.23505]}},{"type":"Feature","properties":{"rank":7,"area_km2":336.3,"grid_km":12.6,"road_km":5.8},"geometry":{"type":"Point","coordinates":[30.96415,28.19632]}},{"type":"Feature","properties":{"rank":8,"area_km2":84.4,"grid_km":9.0,"road_km":6.4},"geometry":{"type":"Point","coordinates":[32.11385,26.31137]}},{"type":"Feature","properties":{"rank":9,"area_km2":58.7,"grid_km":1.6,"road_km":2.5},"geometry":{"type":"Point","coordinates":[32.25874,25.93902]}},{"type":"Feature","properties":{"rank":10,"area_km2":193.9,"grid_km":1.6,"road_km":1.0},"geometry":{"type":"Point","coordinates":[32.3938,25.5003]}}]}