{"type":"FeatureCollection","features":[{"type":"Feature","properties":{"School_Name":"Port Fouad Military High School","Gender_Type":"Boys","School_Type":"Government General (Military)","district":"Port Fuad","Number_of_Students":500,"capacity":850,"Students_per_class":20,"Students_per_teacher":10,"gi_z":-0.763,"gi_p":0.042,"gi_bin":-2,"gwr_local_r2":0.159},"geometry":{"type":"Point","coordinates":[32.3161,31.22902]}},{"type":"Feature","properties":{"School_Name":"Port Said Secondary Military School","Gender_Type":"Boys","School_Type":"Government General (Military)","district":"Al-Arab","Number_of_Students":600,"capacity":1020,"Students_per_class":20,"Students_per_teacher":11,"gi_z":-0.254,"gi_p":0.42,"gi_bin":0,"gwr_local_r2":0.158},"geometry":{"type":"Point","coordinates":[32.30201,31.26845]}},{"type":"Feature","properties":{"School_Name":"Port Fouad Secondary School For Girls","Gender_Type":"Girls","School_Type":"Government General","district":"Port Fuad","Number_of_Students":700,"capacity":1190,"Students_per_class":20,"Students_per_teacher":11,"gi_z":-0.509,"gi_p":0.178,"gi_bin":0,"gwr_local_r2":0.161},"geometry":{"type":"Point","coordinates":[32.31435,31.24446]}},{"type":"Feature","properties":{"School_Name":"Port Said High School for Girls","Gender_Type":"Girls","School_Type":"Government General","district":"Al-Arab","Number_of_Students":650,"capacity":1088,"Students_per_class":20,"Students_per_teacher":11,"gi_z":-0.085,"gi_p":0.34200001,"gi_bin":0,"gwr_local_r2":0.157},"geometry":{"type":"Point","coordinates":[32.30096,31.26983]}},{"type":"Feature","properties":{"School_Name":"Sadat Secondary School For Boys","Gender_Type":"Boys","School_Type":"Government General","district":"Port Fuad","Number_of_Students":800,"capacity":850,"Students_per_class":32,"Students_per_teacher":16,"gi_z":-0.551,"gi_p":0.008,"gi_bin":-3,"gwr_local_r2":0.16},"geometry":{"type":"Point","coordinates":[32.31589,31.22992]}},{"type":"Feature","properties":{"School_Name":"Virgin Girls Industrial School","Gender_Type":"Girls","School_Type":"Technical Industrial","district":"Port Fuad","Number_of_Students":450,"capacity":850,"Students_per_class":18,"Students_per_teacher":10,"gi_z":-0.509,"gi_p":0.212,"gi_bin":0,"gwr_local_r2":0.156},"geometry":{"type":"Point","coordinates":[32.32223,31.24821]}},{"type":"Feature","properties":{"School_Name":"St. Mary’s Private School","Gender_Type":"Mixed","School_Type":"Private","district":"Al-Sharq","Number_of_Students":470,"capacity":646,"Students_per_class":25,"Students_per_teacher":12,"gi_z":-0.424,"gi_p":0.108,"gi_bin":0,"gwr_local_r2":0.157},"geometry":{"type":"Point","coordinates":[32.30923,31.26325]}},{"type":"Feature","properties":{"School_Name":"October 6 Secondary School","Gender_Type":"Mixed","School_Type":"Government General","district":"Al-Zohour","Number_of_Students":760,"capacity":884,"Students_per_class":29,"Students_per_teacher":15,"gi_z":0.721,"gi_p":0.03,"gi_bin":2,"gwr_local_r2":0.154},"geometry":{"type":"Point","coordinates":[32.27822,31.26996]}},{"type":"Feature","properties":{"School_Name":"Port Said International School","Gender_Type":"Mixed","School_Type":"International","district":"Al-Arab","Number_of_Students":340,"capacity":544,"Students_per_class":21,"Students_per_teacher":11,"gi_z":-0.297,"gi_p":0.31400001,"gi_bin":0,"gwr_local_r2":0.187},"geometry":{"type":"Point","coordinates":[32.29007,31.24917]}},{"type":"Feature","properties":{"School_Name":"Alam Edin Secondary School for Girls","Gender_Type":"Girls","School_Type":"Government General","district":"Al-Munakh","Number_of_Students":715,"capacity":850,"Students_per_class":29,"Students_per_teacher":15,"gi_z":0.594,"gi_p":0.08,"gi_bin":1,"gwr_local_r2":0.162},"geometry":{"type":"Point","coordinates":[32.28662,31.26423]}},{"type":"Feature","properties":{"School_Name":"Port Fouad Official Language School","Gender_Type":"Mixed","School_Type":"Language (Government General)","district":"Port Fuad","Number_of_Students":460,"capacity":612,"Students_per_class":26,"Students_per_teacher":12,"gi_z":-0.551,"gi_p":0.047,"gi_bin":-2,"gwr_local_r2":0.159},"geometry":{"type":"Point","coordinates":[32.31653,31.23009]}},{"type":"Feature","properties":{"School_Name":"International Public School (Awf Hamada International School)","Gender_Type":"Mixed","School_Type":"International","district":"Al-Dawahy","Number_of_Students":330,"capacity":510,"Students_per_class":22,"Students_per_teacher":11,"gi_z":-0.339,"gi_p":0.249,"gi_bin":0,"gwr_local_r2":0.212},"geometry":{"type":"Point","coordinates":[32.28501,31.24199]}},{"type":"Feature","properties":{"School_Name":"Port Fouad Modern School","Gender_Type":"Mixed","School_Type":"Language / Private","district":"Port Fuad 2","Number_of_Students":485,"capacity":680,"Students_per_class":24,"Students_per_teacher":12,"gi_z":-0.763,"gi_p":0.019,"gi_bin":-2,"gwr_local_r2":0.154},"geometry":{"type":"Point","coordinates":[32.31919,31.20891]}},{"type":"Feature","properties":{"School_Name":"Al-Shaheed Tayyar Refaat Al-Borai Industrial School","Gender_Type":"Mixed","School_Type":"Technical Industrial","district":"Al-Munakh","Number_of_Students":640,"capacity":782,"Students_per_class":28,"Students_per_teacher":14,"gi_z":0.085,"gi_p":0.472,"gi_bin":0,"gwr_local_r2":0.158},"geometry":{"type":"Point","coordinates":[32.29598,31.2687]}},{"type":"Feature","properties":{"School_Name":"Azhar Institute Fouad Girls Model","Gender_Type":"Girls","School_Type":"Azhar (Religious)","district":"Port Fuad","Number_of_Students":505,"capacity":646,"Students_per_class":27,"Students_per_teacher":14,"gi_z":-0.806,"gi_p":0.007,"gi_bin":-3,"gwr_local_r2":0.159},"geometry":{"type":"Point","coordinates":[32.31483,31.25243]}},{"type":"Feature","properties":{"School_Name":"Hotel School (Port Said Secondary Hotel School)","Gender_Type":"Mixed","School_Type":"Technical Hotel","district":"Al-Dawahy","Number_of_Students":580,"capacity":714,"Students_per_class":28,"Students_per_teacher":13,"gi_z":0.382,"gi_p":0.21,"gi_bin":0,"gwr_local_r2":0.172},"geometry":{"type":"Point","coordinates":[32.26709,31.25168]}},{"type":"Feature","properties":{"School_Name":"El-Fayrouz British International College","Gender_Type":"Mixed","School_Type":"International (British)","district":"Al-Dawahy","Number_of_Students":310,"capacity":476,"Students_per_class":22,"Students_per_teacher":11,"gi_z":-0.297,"gi_p":0.281,"gi_bin":0,"gwr_local_r2":0.204},"geometry":{"type":"Point","coordinates":[32.29086,31.23677]}},{"type":"Feature","properties":{"School_Name":"Lycee El-Horreya","Gender_Type":"Mixed","School_Type":"Language (French Government)","district":"Al-Sharq","Number_of_Students":455,"capacity":612,"Students_per_class":25,"Students_per_teacher":13,"gi_z":-0.467,"gi_p":0.109,"gi_bin":0,"gwr_local_r2":0.157},"geometry":{"type":"Point","coordinates":[32.30772,31.26574]}},{"type":"Feature","properties":{"School_Name":"El Nasr Secondary School For Boys","Gender_Type":"Boys","School_Type":"Government General","district":"Al-Munakh","Number_of_Students":770,"capacity":884,"Students_per_class":30,"Students_per_teacher":15,"gi_z":0.085,"gi_p":0.401,"gi_bin":0,"gwr_local_r2":0.158},"geometry":{"type":"Point","coordinates":[32.29524,31.26896]}},{"type":"Feature","properties":{"School_Name":"School Channel Secondary School For Boys","Gender_Type":"Boys","School_Type":"Government General","district":"Al-Munakh","Number_of_Students":755,"capacity":850,"Students_per_class":30,"Students_per_teacher":15,"gi_z":0.085,"gi_p":0.38,"gi_bin":0,"gwr_local_r2":0.173},"geometry":{"type":"Point","coordinates":[32.28324,31.25541]}},{"type":"Feature","properties":{"School_Name":"EL-Fayrouz Modern School","Gender_Type":"Mixed","School_Type":"Private / Language","district":"Al-Dawahy","Number_of_Students":420,"capacity":544,"Students_per_class":26,"Students_per_teacher":11,"gi_z":-0.339,"gi_p":0.138,"gi_bin":0,"gwr_local_r2":0.212},"geometry":{"type":"Point","coordinates":[32.28413,31.24204]}},{"type":"Feature","properties":{"School_Name":"El Tahrir Technical Secondary School For Girls","Gender_Type":"Girls","School_Type":"Technical Industrial","district":"Al-Zohour","Number_of_Students":610,"capacity":748,"Students_per_class":28,"Students_per_teacher":14,"gi_z":0.551,"gi_p":0.083,"gi_bin":1,"gwr_local_r2":0.148},"geometry":{"type":"Point","coordinates":[32.25379,31.26715]}},{"type":"Feature","properties":{"School_Name":"Port Institute Azhari Secondary Intermediate Boys","Gender_Type":"Boys","School_Type":"Azhar (Religious)","district":"Al-Munakh","Number_of_Students":520,"capacity":646,"Students_per_class":27,"Students_per_teacher":14,"gi_z":0.763,"gi_p":0.01,"gi_bin":2,"gwr_local_r2":0.164},"geometry":{"type":"Point","coordinates":[32.28807,31.26259]}},{"type":"Feature","properties":{"School_Name":"El-Seif Modern School","Gender_Type":"Mixed","School_Type":"Private","district":"Al-Munakh","Number_of_Students":490,"capacity":680,"Students_per_class":24,"Students_per_teacher":13,"gi_z":0.382,"gi_p":0.098,"gi_bin":1,"gwr_local_r2":0.171},"geometry":{"type":"Point","coordinates":[32.28683,31.25719]}},{"type":"Feature","properties":{"School_Name":"Sports Preparatory and Secondary School for Boys","Gender_Type":"Boys","School_Type":"Sports (Government General)","district":"Al-Zohour","Number_of_Students":430,"capacity":578,"Students_per_class":25,"Students_per_teacher":13,"gi_z":0.594,"gi_p":0.024,"gi_bin":2,"gwr_local_r2":0.151},"geometry":{"type":"Point","coordinates":[32.26118,31.26679]}},{"type":"Feature","properties":{"School_Name":"Port Said Technical Nursing Secondary School for Girls","Gender_Type":"Girls","School_Type":"Technical Nursing","district":"Al-Sharq","Number_of_Students":420,"capacity":544,"Students_per_class":26,"Students_per_teacher":13,"gi_z":-0.424,"gi_p":0.094,"gi_bin":-1,"gwr_local_r2":0.16},"geometry":{"type":"Point","coordinates":[32.30332,31.26504]}},{"type":"Feature","properties":{"School_Name":"Ahmed Orabi Commercial Secondary School for Girls","Gender_Type":"Girls","School_Type":"Technical Commercial","district":"Al-Arab","Number_of_Students":570,"capacity":714,"Students_per_class":27,"Students_per_teacher":14,"gi_z":-0.085,"gi_p":0.357,"gi_bin":0,"gwr_local_r2":0.159},"geometry":{"type":"Point","coordinates":[32.29935,31.26749]}},{"type":"Feature","properties":{"School_Name":"Ali Suleiman Secondary School for Boys","Gender_Type":"Boys","School_Type":"Government General","district":"Al-Manasra","Number_of_Students":740,"capacity":850,"Students_per_class":30,"Students_per_teacher":15,"gi_z":0.382,"gi_p":0.27200001,"gi_bin":0,"gwr_local_r2":0.173},"geometry":{"type":"Point","coordinates":[32.26287,31.24951]}},{"type":"Feature","properties":{"School_Name":"Port Said Model Nursing School","Gender_Type":"Girls","School_Type":"Technical Nursing","district":"Al-Munakh","Number_of_Students":410,"capacity":544,"Students_per_class":26,"Students_per_teacher":13,"gi_z":0.806,"gi_p":0.003,"gi_bin":3,"gwr_local_r2":0.155},"geometry":{"type":"Point","coordinates":[32.28844,31.2724]}},{"type":"Feature","properties":{"School_Name":"Port Said Official Language School","Gender_Type":"Mixed","School_Type":"Language (Government General)","district":"Al-Arab","Number_of_Students":465,"capacity":612,"Students_per_class":26,"Students_per_teacher":13,"gi_z":-0.254,"gi_p":0.21,"gi_bin":0,"gwr_local_r2":0.156},"geometry":{"type":"Point","coordinates":[32.30182,31.27055]}},{"type":"Feature","properties":{"School_Name":"Martyr Nabil El-Asaily Architectural Secondary School for Boys","Gender_Type":"Boys","School_Type":"Technical Architectural","district":"Al-Zohour","Number_of_Students":630,"capacity":782,"Students_per_class":27,"Students_per_teacher":14,"gi_z":0.636,"gi_p":0.032,"gi_bin":2,"gwr_local_r2":0.151},"geometry":{"type":"Point","coordinates":[32.25595,31.26349]}},{"type":"Feature","properties":{"School_Name":"Rofeida Al-Ansariyah Secondary School for Girls","Gender_Type":"Girls","School_Type":"Government General","district":"Al-Zohour","Number_of_Students":705,"capacity":816,"Students_per_class":29,"Students_per_teacher":14,"gi_z":0.636,"gi_p":0.049,"gi_bin":2,"gwr_local_r2":0.158},"geometry":{"type":"Point","coordinates":[32.26096,31.25901]}},{"type":"Feature","properties":{"School_Name":"El Salam Commercial Secondary School for Girls","Gender_Type":"Girls","School_Type":"Technical Commercial","district":"Al-Dawahy","Number_of_Students":580,"capacity":714,"Students_per_class":28,"Students_per_teacher":13,"gi_z":0.0,"gi_p":0.364,"gi_bin":0,"gwr_local_r2":0.197},"geometry":{"type":"Point","coordinates":[32.27723,31.24493]}},{"type":"Feature","properties":{"School_Name":"El Shaheed Ahmed Sami Secondary Military School for Boys","Gender_Type":"Boys","School_Type":"Government General (Military)","district":"Al-Munakh","Number_of_Students":770,"capacity":884,"Students_per_class":30,"Students_per_teacher":15,"gi_z":0.085,"gi_p":0.401,"gi_bin":0,"gwr_local_r2":0.158},"geometry":{"type":"Point","coordinates":[32.295,31.26881]}},{"type":"Feature","properties":{"School_Name":"Port Said Commercial Secondary School","Gender_Type":"Boys","School_Type":"Technical Commercial","district":"Al-Arab","Number_of_Students":600,"capacity":748,"Students_per_class":27,"Students_per_teacher":13,"gi_z":-0.085,"gi_p":0.357,"gi_bin":0,"gwr_local_r2":0.159},"geometry":{"type":"Point","coordinates":[32.29952,31.26793]}},{"type":"Feature","properties":{"School_Name":"Advanced Industrial Technology Technical School","Gender_Type":"Boys","School_Type":"Technical Industrial","district":"Al-Manasra","Number_of_Students":650,"capacity":782,"Students_per_class":28,"Students_per_teacher":14,"gi_z":0.382,"gi_p":0.205,"gi_bin":0,"gwr_local_r2":0.172},"geometry":{"type":"Point","coordinates":[32.26193,31.24937]}},{"type":"Feature","properties":{"School_Name":"Gamal Abdel Nasser Technical Secondary School For Boys","Gender_Type":"Boys","School_Type":"Technical Industrial","district":"Al-Zohour","Number_of_Students":670,"capacity":816,"Students_per_class":28,"Students_per_teacher":14,"gi_z":0.254,"gi_p":0.336,"gi_bin":0,"gwr_local_r2":0.161},"geometry":{"type":"Point","coordinates":[32.26807,31.25897]}},{"type":"Feature","properties":{"School_Name":"Zahr Applied Technology School","Gender_Type":"Mixed","School_Type":"Technical Vocational","district":"Al-Munakh","Number_of_Students":560,"capacity":680,"Students_per_class":28,"Students_per_teacher":13,"gi_z":0.17,"gi_p":0.436,"gi_bin":0,"gwr_local_r2":0.167},"geometry":{"type":"Point","coordinates":[32.2806,31.25879]}},{"type":"Feature","properties":{"School_Name":"Emerald International School (EIS)","Gender_Type":"Mixed","School_Type":"International","district":"Al-Dawahy","Number_of_Students":350,"capacity":510,"Students_per_class":23,"Students_per_teacher":11,"gi_z":0.339,"gi_p":0.1,"gi_bin":1,"gwr_local_r2":0.174},"geometry":{"type":"Point","coordinates":[32.27196,31.25231]}},{"type":"Feature","properties":{"School_Name":"Nile Egyptian International School (NEIS)","Gender_Type":"Mixed","School_Type":"International","district":"Al-Dawahy","Number_of_Students":320,"capacity":476,"Students_per_class":23,"Students_per_teacher":11,"gi_z":0.339,"gi_p":0.1,"gi_bin":1,"gwr_local_r2":0.173},"geometry":{"type":"Point","coordinates":[32.27102,31.25257]}},{"type":"Feature","properties":{"School_Name":"NIS International School","Gender_Type":"Mixed","School_Type":"International","district":"Al-Manasra","Number_of_Students":300,"capacity":476,"Students_per_class":21,"Students_per_teacher":10,"gi_z":0.254,"gi_p":0.102,"gi_bin":0,"gwr_local_r2":0.582},"geometry":{"type":"Point","coordinates":[32.0713,31.35526]}},{"type":"Feature","properties":{"School_Name":"Bahr El-Baqar Preparatory and Secondary Azhar Institute for Boys","Gender_Type":"Boys","School_Type":"Azhar (Religious)","district":"Al-Ganoub","Number_of_Students":540,"capacity":680,"Students_per_class":27,"Students_per_teacher":14,"gi_z":-0.127,"gi_p":0.31,"gi_bin":0,"gwr_local_r2":0.301},"geometry":{"type":"Point","coordinates":[32.20441,31.04049]}}]}