{"type":"FeatureCollection","features":[{"type":"Feature","properties":{"village":"Qalbshoh","burden":7,"gi_bin":0,"Bilharzia (schistosomiasis)":1,"Hepatitis A":1,"Hepatitis C":0,"Parasitic infections":1,"Intestinal diseases":1,"Anemia":1,"Renal failure":1,"Pneumonia":1,"Hypertension & diabetes":0,"Heart disease":0,"Skin diseases":0,"Respiratory allergy":0,"gi_z":0.514},"geometry":{"type":"Polygon","coordinates":[[[31.40225,31.48274],[31.38714,31.49019],[31.37086,31.4981],[31.35457,31.506],[31.33829,31.51391],[31.322,31.52181],[31.30518,31.53046],[31.28837,31.53911],[31.27531,31.53481],[31.2642,31.52632],[31.25308,31.51783],[31.24504,31.51138],[31.23438,31.49347],[31.23416,31.48796],[31.23235,31.47694],[31.25272,31.46556],[31.27309,31.45418],[31.29267,31.44461],[31.31225,31.43504],[31.32608,31.42088],[31.35233,31.41213],[31.35679,31.41137],[31.36478,31.40741],[31.36662,31.40657],[31.37472,31.40614],[31.38709,31.40015],[31.39302,31.39702],[31.40645,31.41416],[31.39419,31.42256],[31.39444,31.42296],[31.38803,31.42598],[31.39578,31.4338],[31.36903,31.44312],[31.37177,31.44563],[31.37216,31.44678],[31.38721,31.46476],[31.40225,31.48274]]]}},{"type":"Feature","properties":{"village":"Damlash","burden":6,"gi_bin":1,"Bilharzia (schistosomiasis)":1,"Hepatitis A":1,"Hepatitis C":0,"Parasitic infections":1,"Intestinal diseases":1,"Anemia":1,"Renal failure":0,"Pneumonia":1,"Hypertension & diabetes":0,"Heart disease":0,"Skin diseases":0,"Respiratory allergy":0,"gi_z":1.088},"geometry":{"type":"Polygon","coordinates":[[[31.40969,31.18715],[31.40655,31.18783],[31.40433,31.20503],[31.39883,31.20592],[31.39474,31.20307],[31.39171,31.19807],[31.39203,31.18153],[31.39179,31.18033],[31.39245,31.17973],[31.393,31.17961],[31.39348,31.17912],[31.3961,31.17743],[31.39758,31.179],[31.39918,31.17889],[31.39943,31.17862],[31.39965,31.17969],[31.40019,31.17986],[31.40158,31.1777],[31.40317,31.17327],[31.4099,31.17944],[31.41097,31.18135],[31.41182,31.18389],[31.40969,31.18715]]]}},{"type":"Feature","properties":{"village":"El-Gawadia","burden":6,"gi_bin":0,"Bilharzia (schistosomiasis)":0,"Hepatitis A":1,"Hepatitis C":1,"Parasitic infections":0,"Intestinal diseases":0,"Anemia":0,"Renal failure":1,"Pneumonia":1,"Hypertension & diabetes":1,"Heart disease":1,"Skin diseases":0,"Respiratory allergy":0,"gi_z":0.729},"geometry":{"type":"Polygon","coordinates":[[[31.42544,31.19132],[31.42477,31.20197],[31.4231,31.2025],[31.42469,31.21939],[31.40133,31.2189],[31.40433,31.20503],[31.40655,31.18783],[31.40969,31.18715],[31.41131,31.18805],[31.41245,31.18807],[31.41358,31.18749],[31.41614,31.18991],[31.41753,31.18918],[31.41892,31.19027],[31.42185,31.19025],[31.42544,31.19132]]]}},{"type":"Feature","properties":{"village":"Basndyla","burden":5,"gi_bin":0,"Bilharzia (schistosomiasis)":1,"Hepatitis A":0,"Hepatitis C":0,"Parasitic infections":1,"Intestinal diseases":0,"Anemia":1,"Renal failure":0,"Pneumonia":1,"Hypertension & diabetes":0,"Heart disease":0,"Skin diseases":1,"Respiratory allergy":0,"gi_z":0.012},"geometry":{"type":"Polygon","coordinates":[[[31.45482,31.20925],[31.44807,31.21899],[31.42469,31.21939],[31.4231,31.2025],[31.42477,31.20197],[31.42544,31.19132],[31.42576,31.19058],[31.42578,31.18671],[31.44211,31.18957],[31.4433,31.19092],[31.44401,31.19312],[31.44701,31.19202],[31.44707,31.19286],[31.45172,31.19284],[31.45165,31.19438],[31.45378,31.19438],[31.45385,31.19466],[31.45676,31.19447],[31.45807,31.19618],[31.45908,31.19554],[31.46268,31.19631],[31.46279,31.19687],[31.45801,31.19765],[31.45801,31.19852],[31.46157,31.2077],[31.45482,31.20925]]]}},{"type":"Feature","properties":{"village":"Kafr El-Ghanama","burden":7,"gi_bin":0,"Bilharzia (schistosomiasis)":1,"Hepatitis A":1,"Hepatitis C":0,"Parasitic infections":1,"Intestinal diseases":1,"Anemia":1,"Renal failure":1,"Pneumonia":1,"Hypertension & diabetes":0,"Heart disease":0,"Skin diseases":0,"Respiratory allergy":0,"gi_z":0.299},"geometry":{"type":"Polygon","coordinates":[[[31.4667,31.2434],[31.47398,31.25553],[31.46449,31.26025],[31.4488,31.27133],[31.43801,31.26715],[31.44063,31.2605],[31.45052,31.2457],[31.46033,31.24592],[31.46489,31.2437],[31.4667,31.2434]]]}},{"type":"Feature","properties":{"village":"Monshaat Bsndyla","burden":5,"gi_bin":0,"Bilharzia (schistosomiasis)":1,"Hepatitis A":1,"Hepatitis C":0,"Parasitic infections":1,"Intestinal diseases":1,"Anemia":0,"Renal failure":0,"Pneumonia":1,"Hypertension & diabetes":0,"Heart disease":0,"Skin diseases":0,"Respiratory allergy":0,"gi_z":-0.078},"geometry":{"type":"Polygon","coordinates":[[[31.44807,31.21899],[31.45482,31.20925],[31.46269,31.21965],[31.47198,31.22772],[31.48817,31.23597],[31.48806,31.23747],[31.48636,31.2388],[31.47292,31.23911],[31.47111,31.2401],[31.4667,31.2434],[31.46489,31.2437],[31.46033,31.24592],[31.45052,31.2457],[31.45384,31.24045],[31.45549,31.23467],[31.45223,31.22688],[31.45189,31.22288],[31.45105,31.21865],[31.44807,31.21899]]]}},{"type":"Feature","properties":{"village":"El-Zahraa","burden":4,"gi_bin":0,"Bilharzia (schistosomiasis)":0,"Hepatitis A":0,"Hepatitis C":1,"Parasitic infections":0,"Intestinal diseases":0,"Anemia":0,"Renal failure":1,"Pneumonia":0,"Hypertension & diabetes":1,"Heart disease":1,"Skin diseases":0,"Respiratory allergy":0,"gi_z":-0.616},"geometry":{"type":"Polygon","coordinates":[[[31.42469,31.21939],[31.44807,31.21899],[31.45105,31.21865],[31.45189,31.22288],[31.45223,31.22688],[31.45549,31.23467],[31.45384,31.24045],[31.45052,31.2457],[31.44501,31.25395],[31.43894,31.2534],[31.43154,31.25157],[31.42782,31.24694],[31.4287,31.23551],[31.42646,31.23013],[31.42469,31.21939]]]}},{"type":"Feature","properties":{"village":"El-Damayra","burden":5,"gi_bin":0,"Bilharzia (schistosomiasis)":1,"Hepatitis A":1,"Hepatitis C":0,"Parasitic infections":1,"Intestinal diseases":1,"Anemia":0,"Renal failure":1,"Pneumonia":0,"Hypertension & diabetes":0,"Heart disease":0,"Skin diseases":0,"Respiratory allergy":0,"gi_z":0.299},"geometry":{"type":"Polygon","coordinates":[[[31.43154,31.25157],[31.42835,31.25418],[31.42732,31.258],[31.42348,31.26178],[31.42272,31.2623],[31.41866,31.2612],[31.41232,31.25921],[31.40716,31.25322],[31.40065,31.24274],[31.40133,31.23052],[31.39992,31.22649],[31.40133,31.2189],[31.42469,31.21939],[31.42646,31.23013],[31.4287,31.23551],[31.42782,31.24694],[31.43154,31.25157]]]}},{"type":"Feature","properties":{"village":"El-Ramla","burden":5,"gi_bin":0,"Bilharzia (schistosomiasis)":1,"Hepatitis A":1,"Hepatitis C":0,"Parasitic infections":1,"Intestinal diseases":1,"Anemia":1,"Renal failure":0,"Pneumonia":0,"Hypertension & diabetes":0,"Heart disease":0,"Skin diseases":0,"Respiratory allergy":0,"gi_z":-0.347},"geometry":{"type":"Polygon","coordinates":[[[31.43801,31.26715],[31.43465,31.27083],[31.43389,31.2786],[31.42549,31.28477],[31.42185,31.29161],[31.40954,31.28443],[31.39723,31.27725],[31.3948,31.2725],[31.40716,31.25322],[31.41232,31.25921],[31.41866,31.2612],[31.42272,31.2623],[31.42348,31.26178],[31.42732,31.258],[31.42835,31.25418],[31.43154,31.25157],[31.43894,31.2534],[31.44501,31.25395],[31.44063,31.2605],[31.43801,31.26715]]]}},{"type":"Feature","properties":{"village":"El-Sherka","burden":3,"gi_bin":0,"Bilharzia (schistosomiasis)":0,"Hepatitis A":0,"Hepatitis C":0,"Parasitic infections":0,"Intestinal diseases":0,"Anemia":0,"Renal failure":1,"Pneumonia":0,"Hypertension & diabetes":1,"Heart disease":1,"Skin diseases":0,"Respiratory allergy":0,"gi_z":-0.168},"geometry":{"type":"Polygon","coordinates":[[[31.42185,31.29161],[31.42586,31.3107],[31.42669,31.31923],[31.40838,31.30988],[31.39008,31.30052],[31.37563,31.29886],[31.36649,31.29467],[31.36661,31.28013],[31.36514,31.27963],[31.36218,31.27572],[31.36411,31.27205],[31.38051,31.259],[31.38997,31.26502],[31.39873,31.26637],[31.3948,31.2725],[31.39723,31.27725],[31.40954,31.28443],[31.42185,31.29161]]]}},{"type":"Feature","properties":{"village":"El-Nashra","burden":6,"gi_bin":0,"Bilharzia (schistosomiasis)":1,"Hepatitis A":1,"Hepatitis C":0,"Parasitic infections":1,"Intestinal diseases":1,"Anemia":1,"Renal failure":1,"Pneumonia":0,"Hypertension & diabetes":0,"Heart disease":0,"Skin diseases":0,"Respiratory allergy":0,"gi_z":0.729},"geometry":{"type":"Polygon","coordinates":[[[31.35804,31.26856],[31.34218,31.26461],[31.32527,31.26576],[31.32117,31.25977],[31.323,31.24846],[31.33809,31.24035],[31.36045,31.25392],[31.36347,31.26089],[31.35804,31.26856]]]}},{"type":"Feature","properties":{"village":"El-Samaheya El-Kobra","burden":7,"gi_bin":0,"Bilharzia (schistosomiasis)":1,"Hepatitis A":1,"Hepatitis C":1,"Parasitic infections":1,"Intestinal diseases":0,"Anemia":1,"Renal failure":0,"Pneumonia":1,"Hypertension & diabetes":1,"Heart disease":0,"Skin diseases":0,"Respiratory allergy":0,"gi_z":0.191},"geometry":{"type":"Polygon","coordinates":[[[31.39992,31.22649],[31.40133,31.23052],[31.40065,31.24274],[31.40716,31.25322],[31.39873,31.26637],[31.38997,31.26502],[31.38051,31.259],[31.36411,31.27205],[31.35804,31.26856],[31.36347,31.26089],[31.36045,31.25392],[31.33809,31.24035],[31.35568,31.23442],[31.36798,31.22765],[31.37902,31.2261],[31.39992,31.22649]]]}},{"type":"Feature","properties":{"village":"El-Shawamy","burden":5,"gi_bin":0,"Bilharzia (schistosomiasis)":1,"Hepatitis A":0,"Hepatitis C":0,"Parasitic infections":1,"Intestinal diseases":0,"Anemia":1,"Renal failure":1,"Pneumonia":1,"Hypertension & diabetes":0,"Heart disease":0,"Skin diseases":0,"Respiratory allergy":0,"gi_z":-0.04},"geometry":{"type":"Polygon","coordinates":[[[31.32527,31.26576],[31.34218,31.26461],[31.35804,31.26856],[31.36411,31.27205],[31.36218,31.27572],[31.36514,31.27963],[31.36661,31.28013],[31.36649,31.29467],[31.35457,31.29076],[31.33024,31.2874],[31.32914,31.27707],[31.32573,31.27195],[31.32527,31.26576]]]}},{"type":"Feature","properties":{"village":"Madenat Belqas","burden":7,"gi_bin":0,"Bilharzia (schistosomiasis)":0,"Hepatitis A":1,"Hepatitis C":1,"Parasitic infections":0,"Intestinal diseases":0,"Anemia":0,"Renal failure":1,"Pneumonia":0,"Hypertension & diabetes":1,"Heart disease":1,"Skin diseases":1,"Respiratory allergy":1,"gi_z":0.55},"geometry":{"type":"Polygon","coordinates":[[[31.32688,31.21068],[31.32705,31.2097],[31.32671,31.20869],[31.32622,31.20689],[31.32737,31.20627],[31.32765,31.20597],[31.33027,31.20578],[31.33094,31.20555],[31.33272,31.20561],[31.33478,31.20403],[31.33531,31.20407],[31.33563,31.20371],[31.33917,31.20335],[31.33956,31.20278],[31.34008,31.19795],[31.3407,31.19759],[31.34975,31.19415],[31.35057,31.19386],[31.35595,31.19407],[31.35742,31.18911],[31.36018,31.18555],[31.35974,31.17966],[31.3618,31.17883],[31.36361,31.17708],[31.36514,31.1775],[31.36615,31.17697],[31.3674,31.17711],[31.36776,31.17674],[31.36953,31.17647],[31.37012,31.17455],[31.37236,31.1751],[31.37501,31.17575],[31.37443,31.17797],[31.37942,31.1793],[31.37971,31.17997],[31.38331,31.18407],[31.38373,31.18392],[31.38827,31.1848],[31.38981,31.18408],[31.39131,31.18267],[31.39203,31.18153],[31.39171,31.19807],[31.39474,31.20307],[31.39883,31.20592],[31.40433,31.20503],[31.40133,31.2189],[31.39992,31.22649],[31.37902,31.2261],[31.36798,31.22765],[31.35568,31.23442],[31.33809,31.24035],[31.323,31.24846],[31.32484,31.24268],[31.32846,31.22974],[31.33021,31.22794],[31.32788,31.22208],[31.32883,31.21871],[31.32772,31.21103],[31.32688,31.21068]]]}},{"type":"Feature","properties":{"village":"Abou Dashesha","burden":5,"gi_bin":0,"Bilharzia (schistosomiasis)":1,"Hepatitis A":1,"Hepatitis C":1,"Parasitic infections":1,"Intestinal diseases":0,"Anemia":0,"Renal failure":0,"Pneumonia":1,"Hypertension & diabetes":0,"Heart disease":0,"Skin diseases":0,"Respiratory allergy":0,"gi_z":-0.168},"geometry":{"type":"Polygon","coordinates":[[[31.33046,31.29139],[31.33024,31.2874],[31.35457,31.29076],[31.35576,31.29115],[31.35596,31.29455],[31.35674,31.29874],[31.35685,31.30044],[31.35487,31.30536],[31.35484,31.30662],[31.35811,31.3126],[31.37296,31.32317],[31.37295,31.327],[31.36323,31.32858],[31.34882,31.333],[31.33441,31.33741],[31.33557,31.3036],[31.3334,31.29557],[31.33046,31.29139]]]}},{"type":"Feature","properties":{"village":"Sharkayet El-Maasara","burden":4,"gi_bin":0,"Bilharzia (schistosomiasis)":1,"Hepatitis A":0,"Hepatitis C":0,"Parasitic infections":1,"Intestinal diseases":1,"Anemia":0,"Renal failure":1,"Pneumonia":0,"Hypertension & diabetes":0,"Heart disease":0,"Skin diseases":0,"Respiratory allergy":0,"gi_z":-0.616},"geometry":{"type":"Polygon","coordinates":[[[31.27261,31.29638],[31.27391,31.29296],[31.27322,31.29059],[31.27653,31.29032],[31.27683,31.28923],[31.30292,31.28916],[31.30292,31.2922],[31.29747,31.33716],[31.27971,31.33705],[31.27918,31.30923],[31.28058,31.30932],[31.28057,31.30775],[31.27798,31.3058],[31.27878,31.30527],[31.27816,31.30412],[31.27618,31.30393],[31.27351,31.2988],[31.27391,31.29878],[31.27433,31.29776],[31.27261,31.29638]]]}},{"type":"Feature","properties":{"village":"Sherif Abou","burden":5,"gi_bin":-1,"Bilharzia (schistosomiasis)":1,"Hepatitis A":1,"Hepatitis C":0,"Parasitic infections":1,"Intestinal diseases":0,"Anemia":1,"Renal failure":1,"Pneumonia":0,"Hypertension & diabetes":0,"Heart disease":0,"Skin diseases":0,"Respiratory allergy":0,"gi_z":-0.616},"geometry":{"type":"Polygon","coordinates":[[[31.33041,31.29044],[31.33046,31.29139],[31.3334,31.29557],[31.33557,31.3036],[31.33441,31.33741],[31.31594,31.33729],[31.29747,31.33716],[31.30292,31.2922],[31.30292,31.28916],[31.30814,31.28915],[31.33041,31.29044]]]}},{"type":"Feature","properties":{"village":"Gamasa","burden":6,"gi_bin":0,"Bilharzia (schistosomiasis)":0,"Hepatitis A":1,"Hepatitis C":0,"Parasitic infections":0,"Intestinal diseases":0,"Anemia":0,"Renal failure":1,"Pneumonia":0,"Hypertension & diabetes":1,"Heart disease":1,"Skin diseases":1,"Respiratory allergy":1,"gi_z":0.729},"geometry":{"type":"Polygon","coordinates":[[[31.54653,31.42393],[31.54684,31.42456],[31.54829,31.42771],[31.54883,31.42756],[31.55064,31.4291],[31.55372,31.44042],[31.55402,31.4426],[31.55508,31.4433],[31.55652,31.44324],[31.55694,31.44591],[31.55419,31.44609],[31.55183,31.44629],[31.54871,31.44647],[31.54568,31.44695],[31.54324,31.44745],[31.54087,31.44802],[31.53879,31.4482],[31.53757,31.44858],[31.53618,31.44876],[31.52572,31.45194],[31.51557,31.45483],[31.50901,31.45636],[31.50654,31.45675],[31.50301,31.4582],[31.49663,31.46142],[31.49355,31.46249],[31.48709,31.46474],[31.47813,31.46824],[31.46913,31.47222],[31.45987,31.47602],[31.45476,31.47839],[31.44995,31.48032],[31.44493,31.48282],[31.44131,31.48454],[31.43403,31.48828],[31.42521,31.49187],[31.42025,31.49484],[31.40317,31.50524],[31.39561,31.5084],[31.38049,31.51498],[31.36536,31.52156],[31.34304,31.5339],[31.32413,31.54002],[31.31008,31.54625],[31.28837,31.53911],[31.30518,31.53046],[31.322,31.52181],[31.33829,31.51391],[31.35457,31.506],[31.37086,31.4981],[31.38714,31.49019],[31.40912,31.47937],[31.43109,31.46855],[31.45306,31.45772],[31.47502,31.44689],[31.46786,31.4382],[31.48031,31.43095],[31.48424,31.43589],[31.5095,31.42997],[31.53476,31.42404],[31.54046,31.42335],[31.54653,31.42393]]]}},{"type":"Feature","properties":{"village":"El-Hafeir and El-Amal","burden":5,"gi_bin":0,"Bilharzia (schistosomiasis)":1,"Hepatitis A":0,"Hepatitis C":1,"Parasitic infections":1,"Intestinal diseases":0,"Anemia":1,"Renal failure":0,"Pneumonia":0,"Hypertension & diabetes":1,"Heart disease":0,"Skin diseases":0,"Respiratory allergy":0,"gi_z":0.191},"geometry":{"type":"Polygon","coordinates":[[[31.34162,31.4157],[31.32608,31.42088],[31.31225,31.43504],[31.29267,31.44461],[31.27309,31.45418],[31.26468,31.44229],[31.26128,31.43874],[31.25721,31.43342],[31.27548,31.42533],[31.27432,31.42323],[31.27503,31.37846],[31.27531,31.33702],[31.27971,31.33705],[31.30706,31.33723],[31.33441,31.33741],[31.33433,31.34845],[31.34305,31.35997],[31.34476,31.38373],[31.34188,31.3946],[31.34162,31.4157]]]}},{"type":"Feature","properties":{"village":"El-Satamony","burden":6,"gi_bin":0,"Bilharzia (schistosomiasis)":0,"Hepatitis A":1,"Hepatitis C":1,"Parasitic infections":0,"Intestinal diseases":0,"Anemia":0,"Renal failure":1,"Pneumonia":1,"Hypertension & diabetes":1,"Heart disease":1,"Skin diseases":0,"Respiratory allergy":0,"gi_z":0.191},"geometry":{"type":"Polygon","coordinates":[[[31.41199,31.38731],[31.39302,31.39702],[31.38709,31.40015],[31.37472,31.40614],[31.36662,31.40657],[31.36478,31.40741],[31.35679,31.41137],[31.35233,31.41213],[31.34162,31.4157],[31.34188,31.3946],[31.34476,31.38373],[31.34305,31.35997],[31.33433,31.34845],[31.33441,31.33741],[31.34882,31.333],[31.36323,31.32858],[31.37295,31.327],[31.37296,31.32317],[31.38303,31.31929],[31.39429,31.32123],[31.3988,31.32581],[31.40722,31.34468],[31.41564,31.36355],[31.41368,31.37755],[31.41049,31.3842],[31.41199,31.38731]]]}},{"type":"Feature","properties":{"village":"El-khalala","burden":5,"gi_bin":0,"Bilharzia (schistosomiasis)":1,"Hepatitis A":1,"Hepatitis C":0,"Parasitic infections":1,"Intestinal diseases":0,"Anemia":1,"Renal failure":0,"Pneumonia":1,"Hypertension & diabetes":0,"Heart disease":0,"Skin diseases":0,"Respiratory allergy":0,"gi_z":-0.562},"geometry":{"type":"Polygon","coordinates":[[[31.41918,31.31539],[31.3988,31.32581],[31.39429,31.32123],[31.38303,31.31929],[31.37296,31.32317],[31.35811,31.3126],[31.35484,31.30662],[31.35487,31.30536],[31.35685,31.30044],[31.35674,31.29874],[31.35596,31.29455],[31.35576,31.29115],[31.36649,31.29467],[31.37563,31.29886],[31.39008,31.30052],[31.40463,31.30796],[31.41918,31.31539]]]}},{"type":"Feature","properties":{"village":"Monshaat Shoman","burden":5,"gi_bin":0,"Bilharzia (schistosomiasis)":1,"Hepatitis A":0,"Hepatitis C":0,"Parasitic infections":1,"Intestinal diseases":1,"Anemia":0,"Renal failure":1,"Pneumonia":1,"Hypertension & diabetes":0,"Heart disease":0,"Skin diseases":0,"Respiratory allergy":0,"gi_z":-0.132},"geometry":{"type":"Polygon","coordinates":[[[31.44279,31.37537],[31.42209,31.38215],[31.41199,31.38731],[31.41049,31.3842],[31.41368,31.37755],[31.41564,31.36355],[31.40722,31.34468],[31.3988,31.32581],[31.41918,31.31539],[31.42669,31.31923],[31.4284,31.33137],[31.44473,31.33987],[31.44324,31.36178],[31.44254,31.37293],[31.44279,31.37537]]]}},{"type":"Feature","properties":{"village":"Monshaat Abd El-Qader","burden":5,"gi_bin":0,"Bilharzia (schistosomiasis)":1,"Hepatitis A":1,"Hepatitis C":0,"Parasitic infections":1,"Intestinal diseases":0,"Anemia":1,"Renal failure":0,"Pneumonia":1,"Hypertension & diabetes":0,"Heart disease":0,"Skin diseases":0,"Respiratory allergy":0,"gi_z":-0.132},"geometry":{"type":"Polygon","coordinates":[[[31.46834,31.36134],[31.47091,31.36712],[31.46429,31.36669],[31.46499,31.36948],[31.46382,31.37085],[31.44797,31.37367],[31.44279,31.37537],[31.44254,31.37293],[31.44324,31.36178],[31.44473,31.33987],[31.4284,31.33137],[31.42669,31.31923],[31.43801,31.32209],[31.4437,31.32597],[31.45258,31.3277],[31.45407,31.33709],[31.45685,31.33968],[31.4571,31.34415],[31.46183,31.35249],[31.46834,31.36134]]]}},{"type":"Feature","properties":{"village":"El-Gazair","burden":5,"gi_bin":0,"Bilharzia (schistosomiasis)":1,"Hepatitis A":1,"Hepatitis C":0,"Parasitic infections":1,"Intestinal diseases":1,"Anemia":0,"Renal failure":1,"Pneumonia":0,"Hypertension & diabetes":0,"Heart disease":0,"Skin diseases":0,"Respiratory allergy":0,"gi_z":-0.078},"geometry":{"type":"Polygon","coordinates":[[[31.48308,31.33196],[31.48312,31.33464],[31.48576,31.34295],[31.47527,31.3514],[31.48098,31.36063],[31.46834,31.36134],[31.46183,31.35249],[31.4571,31.34415],[31.45685,31.33968],[31.45407,31.33709],[31.45258,31.3277],[31.45776,31.31487],[31.47464,31.31401],[31.48081,31.32902],[31.48308,31.33196]]]}},{"type":"Feature","properties":{"village":"Abou Basal","burden":5,"gi_bin":0,"Bilharzia (schistosomiasis)":1,"Hepatitis A":0,"Hepatitis C":0,"Parasitic infections":1,"Intestinal diseases":0,"Anemia":1,"Renal failure":1,"Pneumonia":1,"Hypertension & diabetes":0,"Heart disease":0,"Skin diseases":0,"Respiratory allergy":0,"gi_z":-0.347},"geometry":{"type":"Polygon","coordinates":[[[31.48686,31.29988],[31.4879,31.30023],[31.50545,31.30614],[31.50749,31.32163],[31.50874,31.32147],[31.50811,31.32406],[31.5086,31.32602],[31.50997,31.33036],[31.50954,31.33213],[31.50816,31.33413],[31.50775,31.33546],[31.50794,31.33666],[31.50885,31.33884],[31.5059,31.33978],[31.50528,31.34013],[31.5027,31.33945],[31.50197,31.33807],[31.49969,31.33861],[31.4996,31.33825],[31.5049,31.33654],[31.50388,31.3341],[31.49874,31.33145],[31.4952,31.3279],[31.49285,31.32406],[31.49161,31.32389],[31.48308,31.33196],[31.48081,31.32902],[31.47464,31.31401],[31.48068,31.30609],[31.48422,31.30574],[31.48686,31.29988]]]}},{"type":"Feature","properties":{"village":"El-Sabkhawyh","burden":5,"gi_bin":0,"Bilharzia (schistosomiasis)":1,"Hepatitis A":1,"Hepatitis C":0,"Parasitic infections":1,"Intestinal diseases":1,"Anemia":0,"Renal failure":0,"Pneumonia":1,"Hypertension & diabetes":0,"Heart disease":0,"Skin diseases":0,"Respiratory allergy":0,"gi_z":0.46},"geometry":{"type":"Polygon","coordinates":[[[31.4551,31.2776],[31.4488,31.27133],[31.46449,31.26025],[31.46783,31.25859],[31.47085,31.2721],[31.47252,31.27995],[31.47295,31.2876],[31.47681,31.29656],[31.48686,31.29988],[31.48422,31.30574],[31.48068,31.30609],[31.47464,31.31401],[31.45776,31.31487],[31.45939,31.3104],[31.45768,31.30306],[31.45618,31.29447],[31.45587,31.29092],[31.45534,31.2899],[31.4551,31.2776]]]}},{"type":"Feature","properties":{"village":"Abou Taha","burden":6,"gi_bin":0,"Bilharzia (schistosomiasis)":0,"Hepatitis A":1,"Hepatitis C":1,"Parasitic infections":0,"Intestinal diseases":0,"Anemia":0,"Renal failure":1,"Pneumonia":1,"Hypertension & diabetes":1,"Heart disease":1,"Skin diseases":0,"Respiratory allergy":0,"gi_z":-0.193},"geometry":{"type":"Polygon","coordinates":[[[31.45776,31.31487],[31.45258,31.3277],[31.4437,31.32597],[31.43801,31.32209],[31.42669,31.31923],[31.42586,31.3107],[31.42185,31.29161],[31.42549,31.28477],[31.43389,31.2786],[31.43465,31.27083],[31.43801,31.26715],[31.4488,31.27133],[31.4551,31.2776],[31.45534,31.2899],[31.45587,31.29092],[31.45618,31.29447],[31.45768,31.30306],[31.45939,31.3104],[31.45776,31.31487]]]}},{"type":"Feature","properties":{"village":"Zayan","burden":5,"gi_bin":0,"Bilharzia (schistosomiasis)":1,"Hepatitis A":0,"Hepatitis C":0,"Parasitic infections":1,"Intestinal diseases":0,"Anemia":1,"Renal failure":1,"Pneumonia":1,"Hypertension & diabetes":0,"Heart disease":0,"Skin diseases":0,"Respiratory allergy":0,"gi_z":0.299},"geometry":{"type":"Polygon","coordinates":[[[31.39302,31.39702],[31.40755,31.38958],[31.42209,31.38215],[31.44797,31.37367],[31.46382,31.37085],[31.46499,31.36948],[31.46429,31.36669],[31.47091,31.36712],[31.47498,31.36837],[31.47749,31.37013],[31.48094,31.3735],[31.48267,31.37514],[31.48821,31.378],[31.4897,31.37962],[31.4924,31.38224],[31.4976,31.38742],[31.50061,31.39341],[31.50748,31.3998],[31.51262,31.40394],[31.52451,31.40493],[31.52629,31.40568],[31.52961,31.40962],[31.53213,31.41026],[31.54259,31.41152],[31.54351,31.41316],[31.54396,31.41859],[31.54653,31.42393],[31.54046,31.42335],[31.53476,31.42404],[31.5095,31.42997],[31.48424,31.43589],[31.48031,31.43095],[31.46786,31.4382],[31.47502,31.44689],[31.45683,31.45586],[31.43864,31.46482],[31.42045,31.47378],[31.40225,31.48274],[31.38721,31.46476],[31.37216,31.44678],[31.37177,31.44563],[31.36903,31.44312],[31.39578,31.4338],[31.38803,31.42598],[31.39444,31.42296],[31.39419,31.42256],[31.40645,31.41416],[31.39302,31.39702]]]}},{"type":"Feature","properties":{"village":"El-Qanan","burden":5,"gi_bin":0,"Bilharzia (schistosomiasis)":0,"Hepatitis A":1,"Hepatitis C":0,"Parasitic infections":1,"Intestinal diseases":1,"Anemia":1,"Renal failure":0,"Pneumonia":1,"Hypertension & diabetes":0,"Heart disease":0,"Skin diseases":0,"Respiratory allergy":0,"gi_z":-0.347},"geometry":{"type":"Polygon","coordinates":[[[31.27236,31.28763],[31.2717,31.28674],[31.2716,31.28273],[31.27565,31.27674],[31.28033,31.2718],[31.28527,31.27281],[31.30292,31.27018],[31.31891,31.27265],[31.32573,31.27195],[31.32914,31.27707],[31.33024,31.2874],[31.33041,31.29044],[31.30814,31.28915],[31.29249,31.28919],[31.27683,31.28923],[31.27653,31.29032],[31.27322,31.29059],[31.27236,31.28763]]]}},{"type":"Feature","properties":{"village":"El-Areed","burden":6,"gi_bin":0,"Bilharzia (schistosomiasis)":1,"Hepatitis A":1,"Hepatitis C":0,"Parasitic infections":1,"Intestinal diseases":1,"Anemia":0,"Renal failure":1,"Pneumonia":1,"Hypertension & diabetes":0,"Heart disease":0,"Skin diseases":0,"Respiratory allergy":0,"gi_z":-0.132},"geometry":{"type":"Polygon","coordinates":[[[31.32177,31.25602],[31.32117,31.25977],[31.32527,31.26576],[31.32573,31.27195],[31.31891,31.27265],[31.30292,31.27018],[31.28527,31.27281],[31.28033,31.2718],[31.27974,31.26748],[31.2817,31.26354],[31.28557,31.26176],[31.28696,31.26061],[31.28426,31.25297],[31.28355,31.24706],[31.28524,31.24677],[31.28577,31.24698],[31.29248,31.24596],[31.29261,31.24357],[31.29166,31.24122],[31.29141,31.24134],[31.29031,31.2405],[31.2896,31.23979],[31.28902,31.23874],[31.28876,31.23769],[31.30003,31.23872],[31.31932,31.25094],[31.31992,31.25414],[31.32177,31.25602]]]}},{"type":"Feature","properties":{"village":"El-Maasara","burden":4,"gi_bin":1,"Bilharzia (schistosomiasis)":0,"Hepatitis A":0,"Hepatitis C":1,"Parasitic infections":0,"Intestinal diseases":0,"Anemia":0,"Renal failure":0,"Pneumonia":1,"Hypertension & diabetes":1,"Heart disease":1,"Skin diseases":0,"Respiratory allergy":0,"gi_z":0.37},"geometry":{"type":"Polygon","coordinates":[[[31.323,31.24846],[31.32177,31.25602],[31.31992,31.25414],[31.31932,31.25094],[31.30003,31.23872],[31.28876,31.23769],[31.28805,31.23479],[31.28766,31.23413],[31.28499,31.23273],[31.28479,31.23248],[31.28419,31.23254],[31.2835,31.23243],[31.28351,31.23205],[31.28273,31.23171],[31.28269,31.23137],[31.28162,31.23151],[31.28145,31.23129],[31.27841,31.23184],[31.27833,31.23122],[31.27918,31.23087],[31.27781,31.22888],[31.2837,31.22825],[31.28244,31.22706],[31.28109,31.22714],[31.28054,31.226],[31.28076,31.22509],[31.28158,31.22418],[31.28386,31.22458],[31.28394,31.22317],[31.2816,31.2203],[31.28052,31.21933],[31.27889,31.21942],[31.27824,31.21794],[31.27649,31.21728],[31.27598,31.21526],[31.27444,31.21306],[31.27383,31.21047],[31.27402,31.20937],[31.27347,31.20684],[31.27296,31.20665],[31.27172,31.20582],[31.26994,31.20502],[31.26637,31.20308],[31.26596,31.20142],[31.26324,31.20085],[31.26128,31.20127],[31.26027,31.20073],[31.25988,31.20124],[31.25573,31.19803],[31.25656,31.19575],[31.26226,31.18693],[31.28253,31.19177],[31.28352,31.19262],[31.28403,31.19431],[31.28316,31.1977],[31.2835,31.1985],[31.28862,31.2004],[31.29861,31.20422],[31.30247,31.20559],[31.30743,31.20679],[31.3099,31.20772],[31.31182,31.20996],[31.31262,31.21045],[31.31587,31.21091],[31.31793,31.21116],[31.3182,31.2105],[31.31955,31.21056],[31.31989,31.21068],[31.32152,31.21084],[31.32191,31.211],[31.32395,31.21124],[31.32473,31.21029],[31.32688,31.21068],[31.32772,31.21103],[31.32883,31.21871],[31.32788,31.22208],[31.33021,31.22794],[31.32846,31.22974],[31.32484,31.24268],[31.323,31.24846]]]}}]}