{"type":"FeatureCollection","features":[{"type":"Feature","properties":{},"geometry":{"type":"MultiPolygon","coordinates":[[[[25.1475,31.6563],[25.1702,31.5426],[25.2934,31.5067],[25.4964,31.5174],[25.8955,31.6296],[26.4973,31.4924],[26.5624,31.504],[26.7529,31.4825],[26.84,31.4407],[26.9855,31.4403],[27.0798,31.3816],[27.2284,31.3559],[27.3303,31.3718],[27.3868,31.2546],[27.4616,31.2074],[27.6738,31.1773],[27.8585,31.2431],[27.9214,31.0942],[28.3191,31.0633],[28.4205,31.086],[28.7528,30.9807],[28.8987,30.8717],[29.0308,30.8242],[29.2014,30.8388],[29.4603,30.9293],[29.7877,31.1495],[29.8286,31.1404],[29.8771,31.212],[29.9305,31.2203],[30.0701,31.33],[30.1048,31.2699],[30.2469,31.2997],[30.3328,31.3856],[30.3425,31.5003],[30.3832,31.4447],[30.4239,31.4354],[30.4208,31.3783],[30.4622,31.3337],[30.5199,31.3268],[30.4959,31.2388],[30.5226,31.1898],[30.5705,31.1978],[30.6387,31.1151],[30.7233,31.0675],[30.717,31.0195],[30.754,31.0036],[30.7475,30.9664],[30.761,30.9503],[30.7833,30.9343],[30.7556,30.8821],[30.7921,30.8631],[30.7814,30.8404],[30.7646,30.8277],[30.7634,30.822],[30.7666,30.8182],[30.7726,30.8169],[30.7992,30.8282],[30.8126,30.8204],[30.8096,30.8155],[30.7914,30.8071],[30.7566,30.7791],[30.7549,30.7668],[30.762,30.7574],[30.7968,30.7503],[30.7895,30.7339],[30.7665,30.7263],[30.7625,30.7172],[30.803,30.6844],[30.7872,30.6456],[30.7951,30.6124],[30.8179,30.585],[30.8375,30.5849],[30.8152,30.5624],[30.8151,30.5493],[30.8184,30.5438],[30.8246,30.5417],[30.8364,30.5426],[30.8461,30.5458],[30.8523,30.5386],[30.8361,30.5155],[30.8296,30.4986],[30.8374,30.4087],[30.8393,30.4045],[30.8453,30.4003],[30.8598,30.3941],[30.8697,30.3933],[30.8725,30.3845],[30.8282,30.3565],[30.8209,30.3472],[30.8217,30.3375],[30.8286,30.3294],[30.8484,30.323],[30.9172,30.3339],[30.9143,30.2861],[30.9237,30.2815],[30.9548,30.2834],[30.9697,30.2306],[30.9901,30.2078],[31.0161,30.1968],[31.0698,30.219],[31.1445,30.1552],[31.2143,30.1194],[31.2202,29.9789],[31.2311,29.9636],[31.2756,29.9368],[31.2818,29.8834],[31.2919,29.8596],[31.2643,29.7308],[31.2669,29.7116],[31.3003,29.6685],[31.2715,29.6345],[31.2621,29.6032],[31.2814,29.5466],[31.2043,29.4361],[31.2316,29.3859],[31.2095,29.3339],[31.2117,29.2232],[31.1318,29.0835],[31.0465,29.0172],[31.0021,28.9296],[30.9982,28.929],[30.9926,28.925],[30.958,28.8955],[30.9295,28.8832],[30.9072,28.8123],[30.9041,28.7444],[30.8713,28.7122],[30.8704,28.6623],[30.8407,28.6319],[30.8192,28.5245],[30.842,28.4381],[30.7715,28.3747],[30.7373,28.3006],[30.7455,28.2365],[30.7626,28.2094],[30.7372,28.1715],[30.7538,28.1114],[30.8679,27.9642],[30.8313,27.8694],[30.8288,27.821],[30.8408,27.809],[30.8951,27.7877],[30.8643,27.7322],[30.8973,27.6781],[30.8612,27.6282],[30.8416,27.5598],[30.868,27.5067],[30.8461,27.4575],[30.8725,27.4159],[30.9269,27.3799],[30.9745,27.3702],[30.955,27.3498],[30.9552,27.3367],[30.9986,27.328],[31.0193,27.2815],[31.0537,27.2665],[31.102,27.2719],[31.1253,27.2571],[31.1101,27.2124],[31.1204,27.1984],[31.1634,27.2155],[31.2073,27.1743],[31.3017,27.1545],[31.3202,27.0516],[31.3784,26.9815],[31.479,26.9116],[31.524,26.7752],[31.575,26.7462],[31.614,26.6905],[31.633,26.6818],[31.6383,26.636],[31.6971,26.638],[31.7067,26.5408],[31.7306,26.5406],[31.7719,26.5671],[31.8013,26.557],[31.808,26.4426],[31.8949,26.3479],[31.9895,26.2941],[32.0007,26.273],[32.0072,26.216],[32.0223,26.1756],[32.0491,26.168],[32.1015,26.2035],[32.1272,26.1926],[32.1465,26.1422],[32.2312,26.0964],[32.252,26.0363],[32.2748,26.0234],[32.3107,26.0318],[32.3296,26.0755],[32.3883,26.0599],[32.4336,26.1093],[32.5287,26.1082],[32.5843,26.1214],[32.6117,26.1344],[32.636,26.1743],[32.761,26.1056],[32.7837,25.9981],[32.7209,25.8853],[32.775,25.8104],[32.6787,25.7713],[32.5837,25.6281],[32.4752,25.5962],[32.4666,25.565],[32.4856,25.501],[32.5648,25.4005],[32.552,25.3216],[32.57,25.2678],[32.7489,25.1295],[32.8201,25.0993],[32.8702,25.0321],[32.867,24.877],[32.9201,24.7866],[32.9316,24.6803],[32.8688,24.484],[32.8808,24.4504],[32.9142,24.4357],[32.9011,24.3659],[32.9061,24.2948],[32.8883,24.274],[32.8826,24.2561],[32.8653,24.2366],[32.8628,24.2299],[32.8717,24.2413],[32.8659,24.1816],[32.8949,24.1069],[32.8633,24.0551],[32.8771,23.9726],[32.8502,23.8967],[32.8121,23.9221],[32.7606,23.895],[32.8095,23.8983],[32.8259,23.8866],[32.8118,23.8754],[32.8186,23.8687],[32.849,23.8858],[32.8318,23.8651],[32.8649,23.8728],[32.8868,23.8432],[32.8701,23.8064],[32.891,23.7948],[32.8483,23.7879],[32.8895,23.7858],[32.8903,23.7557],[32.8627,23.7553],[32.8897,23.7511],[32.8858,23.7117],[32.8027,23.7233],[32.8561,23.6796],[32.8812,23.7015],[32.8705,23.6576],[32.8604,23.6754],[32.8307,23.6705],[32.8682,23.6131],[32.8151,23.5913],[32.842,23.5733],[32.8154,23.5519],[32.7701,23.5975],[32.7412,23.5791],[32.6973,23.6437],[32.6997,23.5792],[32.746,23.5598],[32.5962,23.5037],[32.6483,23.4773],[32.768,23.5455],[32.7931,23.5467],[32.779,23.5127],[32.801,23.499],[32.8035,23.5315],[32.872,23.5182],[32.8212,23.47],[32.8765,23.4978],[32.8607,23.47],[32.9029,23.4258],[32.8667,23.4465],[32.8479,23.4289],[32.8706,23.4195],[32.8212,23.3908],[32.8987,23.3473],[32.912,23.2965],[32.8651,23.3252],[32.8319,23.3133],[32.8444,23.2503],[32.8218,23.2903],[32.7975,23.2862],[32.8,23.2505],[32.7612,23.2791],[32.7476,23.2333],[32.7083,23.2355],[32.7321,23.1808],[32.6764,23.1824],[32.6851,23.0722],[32.6467,23.0762],[32.6827,23.0552],[32.6408,23.0596],[32.6292,22.9921],[32.6144,23.0124],[32.602,23.0119],[32.6355,22.9531],[32.6066,22.9542],[32.598,22.9087],[32.5433,22.9277],[32.5699,22.9017],[32.566,22.7735],[32.5302,22.7505],[32.5112,22.7698],[32.4141,22.6989],[32.3724,22.6199],[32.3005,22.636],[32.2523,22.773],[32.2287,22.7497],[32.163,22.7641],[32.1815,22.8418],[32.1525,22.7628],[32.1182,22.7722],[32.0901,22.7362],[32.0698,22.7664],[32.0593,22.7202],[32.0096,22.7318],[31.9463,22.6534],[31.8665,22.6666],[31.8912,22.6188],[31.8362,22.5859],[31.8611,22.5605],[31.8308,22.5823],[31.778,22.5632],[31.774,22.594],[31.6649,22.6567],[31.7334,22.526],[31.7615,22.5357],[31.8197,22.475],[31.7954,22.4613],[31.7616,22.5043],[31.7346,22.4464],[31.6798,22.4669],[31.6995,22.3971],[31.6486,22.394],[31.6651,22.3751],[31.6257,22.3325],[31.4146,22.209],[31.3161,22.0],[29.4608,22.0006],[25.0006,22.0005],[25.0013,29.257],[24.8665,29.5206],[24.9058,29.6168],[24.8167,29.8057],[24.8291,29.889],[24.7649,30.0647],[24.6945,30.154],[24.7784,30.3213],[24.9409,30.5142],[25.0177,30.7863],[24.8806,31.1458],[24.8611,31.4059],[25.0627,31.542],[25.0901,31.6196],[25.1475,31.6563]],[[30.8268,29.5231],[30.6087,29.4989],[30.4717,29.4383],[30.4107,29.4467],[30.4881,29.407],[30.6077,29.4206],[30.6613,29.4584],[30.693,29.4438],[30.7082,29.481],[30.7874,29.4716],[30.8268,29.5231]],[[30.3695,29.1847],[30.3232,29.1796],[30.343,29.0639],[30.4769,29.014],[30.4603,29.0793],[30.5305,29.0145],[30.5014,29.1134],[30.4538,29.1171],[30.4347,29.1605],[30.462,29.2218],[30.5143,29.1916],[30.5228,29.259],[30.4434,29.2856],[30.3695,29.1847]],[[29.9386,31.1677],[29.8522,31.1468],[29.8755,31.0924],[29.9312,31.1285],[29.9009,31.1383],[29.9386,31.1677]],[[30.223,31.2044],[30.3114,31.2369],[30.308,31.2834],[30.15,31.2644],[30.1429,31.2242],[30.223,31.2044]]],[[[30.8473,28.6264],[30.8532,28.6428],[30.8565,28.6444],[30.8473,28.6264]]],[[[30.9645,28.9009],[30.9923,28.9239],[31.0025,28.9284],[30.9902,28.905],[30.9645,28.9009]]],[[[31.2189,29.233],[31.2133,29.2476],[31.2214,29.2594],[31.2189,29.233]]],[[[31.2148,29.4266],[31.2067,29.4348],[31.2091,29.4396],[31.2148,29.4266]]],[[[31.2653,29.6033],[31.2698,29.6033],[31.2652,29.5968],[31.2653,29.6033]]],[[[31.2852,29.9096],[31.2818,29.9064],[31.2824,29.9185],[31.2852,29.9096]]],[[[31.2479,29.957],[31.2479,29.9554],[31.2407,29.9605],[31.2479,29.957]]],[[[31.2419,29.9632],[31.2441,29.9628],[31.2442,29.9616],[31.2419,29.9632]]],[[[31.2354,29.9707],[31.2407,29.9658],[31.2412,29.963],[31.2354,29.9707]]],[[[31.2258,29.9888],[31.2232,29.978],[31.2257,30.0018],[31.2258,29.9888]]],[[[31.2288,29.9951],[31.2326,29.9826],[31.2316,29.9808],[31.2288,29.9951]]],[[[31.2205,29.997],[31.2215,29.9982],[31.221,29.9969],[31.2205,29.997]]],[[[31.2237,30.0259],[31.2314,30.027],[31.2259,30.0069],[31.2237,30.0259]]],[[[31.2295,30.0476],[31.2168,30.0649],[31.224,30.0739],[31.2295,30.0476]]],[[[31.2151,30.1239],[31.2331,30.1244],[31.2329,30.0979],[31.2151,30.1239]]],[[[31.1416,30.1701],[31.1563,30.1529],[31.1292,30.1754],[31.1416,30.1701]]],[[[31.0845,30.3325],[31.0869,30.3325],[31.0882,30.3318],[31.0845,30.3325]]],[[[31.1818,31.5908],[31.5644,31.4424],[31.7588,31.4867],[31.7553,31.4643],[31.7753,31.4518],[31.7669,31.4898],[31.8443,31.5235],[31.7979,31.4508],[31.8001,31.4324],[31.8105,31.4181],[31.756,31.4102],[31.7142,31.3796],[31.7162,31.3492],[31.6889,31.303],[31.688,31.2951],[31.692,31.2821],[31.6706,31.2923],[31.6579,31.2895],[31.6526,31.2858],[31.6776,31.2554],[31.6171,31.2452],[31.6153,31.2322],[31.6348,31.2171],[31.5793,31.1838],[31.5121,31.1906],[31.5075,31.1849],[31.5095,31.1646],[31.4837,31.1762],[31.4722,31.177],[31.4488,31.1543],[31.397,31.0554],[31.3851,31.0498],[31.3484,31.0473],[31.3372,31.0427],[31.2392,30.9526],[31.24,30.9489],[31.2452,30.9427],[31.2624,30.9276],[31.2612,30.9165],[31.2401,30.9058],[31.2338,30.8979],[31.2354,30.895],[31.2477,30.8881],[31.2484,30.8821],[31.2369,30.8801],[31.2346,30.8781],[31.2345,30.8769],[31.2541,30.8484],[31.2267,30.8433],[31.2208,30.8391],[31.2176,30.8329],[31.2263,30.7571],[31.2757,30.6669],[31.2421,30.5664],[31.2454,30.5582],[31.258,30.5445],[31.2515,30.5423],[31.2336,30.5506],[31.2261,30.5495],[31.2217,30.5413],[31.2238,30.5151],[31.1827,30.4877],[31.1754,30.4739],[31.1747,30.4563],[31.15,30.4503],[31.126,30.4384],[31.1286,30.3982],[31.1101,30.421],[31.1027,30.4235],[31.0957,30.4208],[31.0959,30.3646],[31.0678,30.3776],[31.0595,30.3755],[31.0543,30.3688],[31.0831,30.3329],[31.1085,30.3207],[31.1071,30.3089],[31.0928,30.2931],[31.0895,30.283],[31.0964,30.275],[31.1171,30.2675],[31.1035,30.2396],[31.1123,30.216],[31.1249,30.2036],[31.1396,30.174],[31.0683,30.2208],[30.9898,30.21],[30.96,30.2811],[30.9469,30.2891],[30.9155,30.2869],[30.9181,30.3349],[30.8234,30.3386],[30.8795,30.3737],[30.8716,30.3938],[30.8388,30.4089],[30.8539,30.5392],[30.8466,30.5471],[30.8199,30.5447],[30.8152,30.5583],[30.8413,30.5833],[30.8076,30.602],[30.8057,30.683],[30.7646,30.7195],[30.7908,30.7328],[30.7996,30.7497],[30.7583,30.7767],[30.8151,30.8174],[30.8135,30.8236],[30.801,30.83],[30.7647,30.8224],[30.7907,30.8437],[30.797,30.8579],[30.7872,30.8739],[30.7588,30.8842],[30.7875,30.9312],[30.7494,30.9661],[30.7648,30.9895],[30.7527,31.0073],[30.7215,31.024],[30.73,31.053],[30.7229,31.0711],[30.61,31.1752],[30.5594,31.2088],[30.5245,31.1997],[30.5004,31.246],[30.5231,31.3277],[30.4625,31.3375],[30.4247,31.3815],[30.4321,31.4304],[30.3461,31.5045],[30.3532,31.51],[30.3728,31.5074],[30.4853,31.4541],[31.0258,31.6033],[30.9663,31.5603],[30.7102,31.4889],[30.6484,31.4409],[30.5185,31.4247],[30.5426,31.4073],[30.5162,31.3783],[30.5539,31.3894],[30.5711,31.3598],[30.6698,31.4054],[30.7858,31.3838],[30.8111,31.4026],[30.7783,31.4219],[30.8208,31.4083],[30.8679,31.4321],[30.8861,31.4098],[30.9441,31.4552],[30.9831,31.4368],[31.0145,31.5197],[31.104,31.4939],[31.1132,31.5424],[31.0245,31.5757],[31.0306,31.6045],[31.1818,31.5908]],[[30.3792,31.4897],[30.3928,31.4657],[30.4075,31.4664],[30.3792,31.4897]],[[30.3565,31.5052],[30.3704,31.5027],[30.3574,31.5082],[30.3565,31.5052]]],[[[32.8692,24.1776],[32.8671,24.1886],[32.8724,24.168],[32.8692,24.1776]]],[[[32.9181,24.4594],[32.9076,24.4539],[32.882,24.4592],[32.9181,24.4594]]],[[[32.3888,26.0721],[32.3673,26.0665],[32.3546,26.0744],[32.3888,26.0721]]],[[[31.6242,26.6877],[31.618,26.7142],[31.6401,26.6865],[31.6242,26.6877]]],[[[31.8475,31.5257],[31.9283,31.5242],[31.9861,31.4871],[31.9921,31.4799],[31.9926,31.467],[31.9907,31.465],[31.9587,31.5016],[32.0091,31.4128],[32.1731,31.304],[32.3039,31.2743],[32.3339,31.2923],[32.3009,31.2553],[32.3021,31.2339],[32.2662,31.2454],[32.3027,31.2326],[32.3165,30.7959],[32.3451,30.6939],[32.31,30.5491],[32.3641,30.413],[32.3194,30.3973],[32.3098,30.3372],[32.3534,30.2819],[32.413,30.2743],[32.4868,30.2179],[32.4681,30.2018],[32.5017,30.1791],[32.5443,30.179],[32.5845,29.9742],[32.5667,29.9366],[32.5534,29.9603],[32.4823,29.9395],[32.4725,29.8938],[32.5176,29.861],[32.428,29.7769],[32.3498,29.6066],[32.3826,29.5306],[32.6,29.3404],[32.6666,29.1082],[32.6278,29.0586],[32.633,28.9723],[32.6958,28.8669],[32.8128,28.7772],[32.8706,28.5742],[33.0044,28.491],[33.2393,28.1479],[33.3398,28.0568],[33.4812,27.993],[33.5896,27.8423],[33.5934,27.7883],[33.4806,27.8334],[33.5241,27.7504],[33.5592,27.7623],[33.5403,27.7095],[33.5952,27.6506],[33.533,27.6807],[33.4936,27.6463],[33.5599,27.5919],[33.5602,27.5253],[33.6271,27.4951],[33.6806,27.4196],[33.6985,27.3355],[33.8493,27.2383],[33.8316,27.1058],[33.9003,27.0634],[33.9021,26.9905],[33.9711,26.8888],[33.9966,26.9013],[34.0057,26.8546],[33.9687,26.8631],[33.9485,26.8239],[33.938,26.6686],[34.0207,26.6116],[34.4193,25.8683],[34.5456,25.7466],[34.7073,25.3997],[34.9487,24.9977],[35.0005,24.8251],[35.0839,24.7469],[35.1172,24.6091],[35.1704,24.5687],[35.137,24.5183],[35.2232,24.4157],[35.3628,24.3196],[35.4983,24.1141],[35.5041,24.1454],[35.5543,24.1177],[35.6066,24.0184],[35.728,23.9954],[35.7987,23.9134],[35.7525,23.9448],[35.6905,23.912],[35.5661,23.9612],[35.5143,23.9316],[35.5598,23.9658],[35.5172,23.9843],[35.4745,23.9409],[35.4769,23.7894],[35.5163,23.775],[35.5104,23.7487],[35.4904,23.76],[35.5108,23.5855],[35.4833,23.5124],[35.5583,23.3718],[35.5729,23.2158],[35.6611,23.0603],[35.6685,22.95],[35.6863,22.9589],[35.7218,22.8913],[35.7816,22.8336],[35.7915,22.8533],[35.9249,22.6972],[35.9419,22.7164],[35.9463,22.6934],[35.9726,22.7115],[36.1815,22.6817],[36.2586,22.6231],[36.3142,22.5001],[36.427,22.4398],[36.4488,22.3636],[36.5566,22.3188],[36.7296,22.1729],[36.7796,22.1792],[36.9045,22.0761],[36.8836,21.9993],[33.5057,21.9994],[31.4144,22.0],[31.5164,22.1944],[31.5619,22.1858],[31.5389,22.2186],[31.6105,22.2623],[31.6822,22.2339],[31.6186,22.2932],[31.6535,22.3263],[31.6643,22.3045],[31.6686,22.3344],[31.7038,22.3137],[31.6884,22.3358],[31.739,22.3649],[31.7442,22.3182],[31.7711,22.3176],[31.7481,22.3554],[31.7713,22.3684],[31.8413,22.3285],[31.8152,22.4215],[31.897,22.4024],[31.8804,22.4452],[31.9133,22.4745],[31.9343,22.456],[31.92,22.4977],[31.9908,22.4827],[31.9262,22.5758],[31.9541,22.5889],[31.9784,22.556],[31.9768,22.5843],[32.0072,22.5778],[31.9615,22.6053],[32.0217,22.6672],[32.0697,22.6228],[32.0542,22.6544],[32.0743,22.6556],[32.0287,22.6722],[32.0748,22.6693],[32.0888,22.7028],[32.1155,22.6786],[32.1061,22.7166],[32.1742,22.7271],[32.2275,22.6884],[32.2074,22.6705],[32.2453,22.6721],[32.2223,22.6411],[32.2506,22.6578],[32.2614,22.6347],[32.2352,22.6259],[32.2756,22.6238],[32.2615,22.6008],[32.31,22.6049],[32.2778,22.5612],[32.2265,22.558],[32.2599,22.5446],[32.258,22.5088],[32.2911,22.5529],[32.2991,22.5081],[32.3504,22.5238],[32.3544,22.5039],[32.352,22.5286],[32.3134,22.5278],[32.338,22.5461],[32.3262,22.5965],[32.4045,22.601],[32.4147,22.5691],[32.4018,22.6136],[32.4314,22.6659],[32.4403,22.6532],[32.4536,22.6504],[32.4492,22.6872],[32.4975,22.6671],[32.4943,22.6392],[32.5245,22.6097],[32.5108,22.66],[32.4608,22.7056],[32.5269,22.7313],[32.5124,22.715],[32.5179,22.7032],[32.5395,22.737],[32.5473,22.7088],[32.5481,22.7427],[32.5588,22.6919],[32.59,22.6764],[32.5599,22.7502],[32.5879,22.745],[32.5799,22.7159],[32.6023,22.7309],[32.5987,22.7226],[32.6088,22.7159],[32.6356,22.7119],[32.6304,22.7222],[32.6492,22.7169],[32.6221,22.726],[32.6133,22.7162],[32.6159,22.7355],[32.5726,22.7508],[32.5864,22.7766],[32.6014,22.7574],[32.6052,22.837],[32.6513,22.7976],[32.6714,22.8173],[32.5984,22.8449],[32.6023,22.8921],[32.6196,22.9096],[32.6309,22.8843],[32.642,22.8794],[32.6245,22.9086],[32.6595,22.928],[32.6939,22.9058],[32.6751,22.9593],[32.7084,22.9421],[32.69,22.9228],[32.7021,22.9136],[32.7405,22.973],[32.7221,22.9899],[32.7533,22.9903],[32.7365,23.0489],[32.7587,23.0621],[32.7827,23.0707],[32.7928,23.0109],[32.9277,22.9249],[32.9284,22.8985],[32.9356,22.942],[33.1263,22.8784],[33.1037,22.912],[33.0115,22.9293],[33.0056,22.9556],[32.9373,22.953],[32.9386,22.9859],[32.9261,22.966],[32.9161,22.9684],[32.9557,23.0051],[32.8948,23.0688],[32.858,23.0686],[32.8805,23.0844],[32.8408,23.1559],[32.9706,23.1217],[32.922,23.228],[32.8928,23.2334],[32.9611,23.2571],[32.963,23.2098],[33.0434,23.1979],[32.9999,23.2785],[33.0385,23.2793],[33.0221,23.3236],[33.0483,23.2787],[33.048,23.3143],[33.0674,23.2897],[33.0792,23.3],[33.0404,23.3357],[32.9875,23.3199],[32.9658,23.3628],[33.0456,23.3515],[33.0443,23.3634],[33.0777,23.3554],[33.0859,23.3717],[33.0201,23.3639],[32.9973,23.405],[32.9603,23.3745],[32.9442,23.4121],[32.9782,23.4095],[33.0066,23.4593],[32.9422,23.4172],[32.9504,23.449],[32.9205,23.4342],[32.9108,23.4695],[32.9557,23.4674],[32.9024,23.4969],[32.9225,23.5254],[32.9326,23.5018],[33.0246,23.4899],[32.9371,23.5217],[32.9775,23.5363],[32.9373,23.5433],[32.9626,23.5601],[32.9573,23.5677],[32.9264,23.5473],[32.8988,23.5756],[32.9236,23.6621],[32.9348,23.637],[32.994,23.6126],[32.9632,23.6362],[32.9927,23.6405],[32.9737,23.6924],[32.9971,23.7007],[32.9601,23.7289],[33.0074,23.7421],[32.9975,23.7738],[32.9489,23.7534],[32.9429,23.8254],[32.8888,23.8846],[32.9358,23.8659],[32.8989,23.8915],[32.9315,23.8949],[32.8721,23.9223],[32.9042,23.9322],[32.8861,23.9452],[32.9225,23.9322],[32.9313,23.9401],[32.8897,23.9489],[32.9122,23.9641],[32.8787,23.993],[32.9025,24.0328],[32.8652,24.0475],[32.9002,24.1083],[32.8692,24.1985],[32.9114,24.3015],[32.9277,24.4492],[32.9151,24.4629],[32.8785,24.4662],[32.8739,24.4945],[32.9397,24.7008],[32.9176,24.8065],[32.8731,24.8848],[32.8918,24.9851],[32.876,25.0464],[32.8391,25.0897],[32.5671,25.281],[32.5702,25.3966],[32.473,25.5532],[32.4795,25.5859],[32.5603,25.6024],[32.6211,25.6583],[32.6808,25.7657],[32.7732,25.7964],[32.779,25.8147],[32.7757,25.8252],[32.7285,25.8822],[32.7901,25.983],[32.7636,26.1072],[32.6372,26.181],[32.5747,26.1225],[32.439,26.1153],[32.3817,26.0731],[32.313,26.0806],[32.2775,26.0264],[32.2491,26.0918],[32.1496,26.1457],[32.125,26.2069],[32.0907,26.2057],[32.0251,26.1767],[32.0025,26.2898],[31.8214,26.4344],[31.8089,26.559],[31.7718,26.5718],[31.709,26.5463],[31.7115,26.6335],[31.6813,26.6448],[31.6501,26.6458],[31.6415,26.7044],[31.5469,26.7717],[31.4827,26.9136],[31.3357,27.0502],[31.3031,27.1572],[31.2059,27.1811],[31.185,27.2167],[31.1572,27.22],[31.1287,27.2087],[31.1181,27.2228],[31.1305,27.2539],[31.1206,27.2669],[31.0858,27.2783],[31.0453,27.274],[31.0211,27.2862],[31.0085,27.3262],[30.9614,27.3456],[30.9816,27.3694],[30.8763,27.4189],[30.8507,27.4612],[30.871,27.5094],[30.8474,27.56],[30.9017,27.6718],[30.876,27.7491],[30.9019,27.7845],[30.8302,27.8303],[30.8715,27.9658],[30.7456,28.149],[30.7691,28.2029],[30.7423,28.2988],[30.8488,28.4433],[30.8251,28.518],[30.9012,28.7081],[30.9274,28.8527],[30.9972,28.9059],[31.0643,29.0252],[31.1297,29.0719],[31.2307,29.2454],[31.2164,29.3446],[31.2399,29.3844],[31.2134,29.4419],[31.2833,29.5384],[31.2721,29.6267],[31.3037,29.6622],[31.2808,29.706],[31.2674,29.7169],[31.2998,29.7999],[31.2848,29.9241],[31.2276,30.0048],[31.2322,30.025],[31.2304,30.0381],[31.2334,30.0426],[31.2281,30.0708],[31.2448,30.1097],[31.2307,30.1299],[31.1686,30.1456],[31.1431,30.1742],[31.1195,30.2657],[31.1133,30.2718],[31.0954,30.2785],[31.0911,30.2841],[31.1081,30.3063],[31.1105,30.322],[31.0578,30.3687],[31.0957,30.3626],[31.1144,30.3956],[31.0979,30.421],[31.1303,30.3964],[31.1289,30.4391],[31.1772,30.4535],[31.2257,30.5144],[31.227,30.5478],[31.2526,30.5401],[31.2598,30.5447],[31.2792,30.668],[31.2193,30.8313],[31.2554,30.8473],[31.2498,30.887],[31.2351,30.8983],[31.2601,30.9139],[31.263,30.918],[31.264,30.927],[31.2418,30.9543],[31.3389,31.0423],[31.3869,31.0482],[31.398,31.054],[31.4734,31.1758],[31.5105,31.1621],[31.5121,31.1892],[31.5826,31.1821],[31.6334,31.2101],[31.6369,31.2216],[31.6181,31.2425],[31.6812,31.2561],[31.6586,31.2857],[31.6859,31.2778],[31.6949,31.2824],[31.7185,31.3479],[31.7162,31.3787],[31.8121,31.4159],[31.8475,31.5257]],[[31.8499,31.4101],[31.8349,31.3757],[31.8839,31.345],[31.8395,31.3348],[31.7752,31.3672],[31.7922,31.3309],[31.8178,31.3429],[31.8043,31.3082],[31.8281,31.2992],[31.8303,31.3287],[31.8552,31.3223],[31.8412,31.298],[31.8709,31.3077],[31.8451,31.2922],[31.8624,31.2336],[32.0215,31.2219],[32.0702,31.1166],[32.1229,31.1001],[32.1122,31.1227],[32.1837,31.1301],[32.1968,31.1536],[32.1665,31.157],[32.1961,31.1724],[32.2131,31.095],[32.246,31.0862],[32.2843,31.1696],[32.2808,31.2246],[32.265,31.244],[32.0812,31.3525],[31.8499,31.4101]],[[31.8589,31.408],[31.9894,31.4044],[31.9486,31.4904],[31.8583,31.509],[31.9008,31.4873],[31.9098,31.4656],[31.8709,31.4696],[31.8589,31.408]]],[[[34.6853,27.9606],[34.7383,27.9167],[34.7058,27.9055],[34.6868,27.9458],[34.6565,27.9262],[34.6853,27.9606]]],[[[34.542,27.9944],[34.5066,27.9793],[34.5899,27.9695],[34.6242,27.9218],[34.5552,27.9132],[34.5054,27.9467],[34.4976,28.0052],[34.542,27.9944]]],[[[34.2186,31.3262],[34.5233,30.5314],[34.5652,30.4899],[34.5493,30.4135],[34.6128,30.3709],[34.8509,29.7451],[34.8653,29.5648],[34.9092,29.4985],[34.8584,29.4745],[34.7404,29.3065],[34.7381,29.2075],[34.6924,29.1618],[34.6639,29.0483],[34.6876,28.9888],[34.6423,28.9542],[34.6298,28.7331],[34.4101,28.312],[34.409,28.2306],[34.451,28.1601],[34.4338,27.9896],[34.3321,27.9131],[34.3189,27.8503],[34.2755,27.8549],[34.2585,27.7918],[34.2085,27.791],[34.2221,27.7634],[34.2568,27.767],[34.2484,27.7266],[34.1922,27.7842],[34.0583,27.8071],[33.9174,27.935],[33.8756,27.9311],[33.7629,28.0171],[33.5655,28.2953],[33.4023,28.3897],[33.2566,28.5435],[33.254,28.5813],[33.2434,28.5503],[33.1976,28.6709],[33.229,28.7657],[33.1699,28.8681],[33.1806,29.0008],[32.891,29.2273],[32.8246,29.3267],[32.8202,29.4006],[32.739,29.4774],[32.7189,29.4536],[32.7273,29.5482],[32.6802,29.597],[32.6962,29.7254],[32.6101,29.8112],[32.6285,29.8665],[32.5586,29.9279],[32.5835,29.9482],[32.5882,29.972],[32.5733,30.2103],[32.5362,30.2687],[32.4661,30.2791],[32.4483,30.3483],[32.3646,30.4157],[32.3144,30.5529],[32.3531,30.7038],[32.3115,31.1062],[32.3507,31.239],[32.6076,31.059],[32.7839,31.0814],[32.8358,31.1007],[32.8666,31.1237],[32.9491,31.1616],[32.8133,31.0854],[32.6753,31.0497],[32.7221,31.0508],[32.7224,31.0286],[32.8733,31.0919],[32.9127,31.0755],[32.9459,31.0828],[32.9303,31.1079],[32.9835,31.089],[32.9477,31.0649],[33.0081,31.052],[33.0609,31.1263],[33.0247,31.0918],[32.9507,31.1053],[33.1081,31.1932],[33.0916,31.1814],[33.1515,31.1323],[33.1599,31.1133],[33.1143,31.147],[33.0956,31.1131],[33.1634,31.0874],[33.1417,31.078],[33.1303,31.049],[33.1455,31.043],[33.2844,31.0939],[33.309,31.0764],[33.3072,31.112],[33.3807,31.1133],[33.3869,31.1683],[33.4205,31.16],[33.1734,31.2301],[33.1038,31.2292],[33.0883,31.2079],[32.9557,31.1645],[33.0912,31.2321],[33.1584,31.2341],[33.3911,31.1875],[33.4753,31.1297],[33.6824,31.1205],[33.9989,31.2025],[34.2186,31.3262]]],[[[32.9147,31.0904],[32.916,31.0843],[32.8986,31.0969],[32.9147,31.0904]]],[[[32.8863,31.1026],[32.8948,31.1109],[32.8956,31.1036],[32.8863,31.1026]]],[[[32.1662,31.1409],[32.0898,31.1698],[32.0859,31.1835],[32.1662,31.1409]]],[[[32.3276,31.2644],[32.3476,31.2363],[32.3104,31.114],[32.3091,31.2477],[32.3276,31.2644]]],[[[32.2363,31.2135],[32.2557,31.1786],[32.2266,31.2065],[32.2363,31.2135]]],[[[32.156,31.2216],[32.2203,31.207],[32.1733,31.21],[32.156,31.2216]]],[[[32.1521,31.246],[32.1817,31.2269],[32.1489,31.232],[32.1521,31.246]]],[[[32.0927,31.237],[32.0997,31.2518],[32.1025,31.2379],[32.0927,31.237]]],[[[32.146,31.2493],[32.1436,31.2569],[32.1527,31.2516],[32.146,31.2493]]],[[[32.0933,31.2902],[32.1041,31.2907],[32.1325,31.2852],[32.0933,31.2902]]]]}}]}