{"type":"FeatureCollection","features":[{"type":"Feature","properties":{},"geometry":{"type":"MultiLineString","coordinates":[[[32.8658,23.9895],[32.8754,23.9709]],[[32.8986,24.0895],[32.8925,24.0311],[32.8863,23.9727]],[[32.64,25.7004],[32.6443,25.6966]],[[32.2667,26.0258],[32.2783,26.0158],[32.2898,26.0057],[32.3014,25.9956],[32.313,25.9856],[32.3246,25.9755],[32.3362,25.9655],[32.3477,25.9554],[32.3593,25.9453],[32.3709,25.9353],[32.3825,25.9252],[32.394,25.9151],[32.4056,25.9051],[32.4172,25.895],[32.4287,25.8849],[32.4403,25.8748],[32.4518,25.8648],[32.4634,25.8547],[32.4749,25.8446],[32.4865,25.8345],[32.498,25.8245],[32.5096,25.8144],[32.5211,25.8043],[32.5327,25.7942],[32.5442,25.7842],[32.5558,25.7741],[32.5673,25.764],[32.5788,25.7539],[32.5904,25.7438],[32.6019,25.7337],[32.6134,25.7236],[32.625,25.7136],[32.6365,25.7035]],[[32.2418,26.0475],[32.2517,26.0154],[32.2616,25.9832],[32.2716,25.9511],[32.2815,25.919],[32.2913,25.8869],[32.3012,25.8548],[32.3111,25.8226],[32.321,25.7905],[32.3309,25.7584],[32.3407,25.7262],[32.3506,25.6941],[32.3604,25.662],[32.3703,25.6298],[32.3801,25.5977],[32.39,25.5656],[32.3998,25.5334],[32.4096,25.5013],[32.4194,25.4692],[32.4293,25.437],[32.4391,25.4049],[32.4489,25.3728],[32.4587,25.3406],[32.4685,25.3085],[32.4783,25.2763],[32.488,25.2442],[32.4978,25.2121],[32.5076,25.1799],[32.5174,25.1478],[32.5271,25.1156],[32.5369,25.0835],[32.5466,25.0513],[32.5564,25.0192],[32.5661,24.987],[32.5759,24.9549],[32.5856,24.9227],[32.5953,24.8906],[32.605,24.8584],[32.6147,24.8263],[32.6245,24.7941],[32.6342,24.762],[32.6439,24.7298],[32.6536,24.6976],[32.6632,24.6655],[32.6729,24.6333],[32.6826,24.6012],[32.6923,24.569],[32.702,24.5368],[32.7116,24.5047],[32.7213,24.4725],[32.7309,24.4404],[32.7406,24.4082],[32.7502,24.376],[32.7599,24.3439],[32.7695,24.3117],[32.7791,24.2795],[32.7888,24.2474],[32.7984,24.2152],[32.808,24.183],[32.8176,24.1509],[32.8272,24.1187],[32.8368,24.0865],[32.8464,24.0543],[32.856,24.0222],[32.8656,23.99]],[[32.2418,26.0475],[32.2504,26.04]],[[32.1595,26.136],[32.1698,26.1249],[32.1801,26.1139],[32.1904,26.1028],[32.2007,26.0917],[32.211,26.0807],[32.2213,26.0696],[32.2315,26.0586],[32.2418,26.0475]],[[32.1493,26.1469],[32.1537,26.1422]],[[32.0989,26.2011],[32.1108,26.1883],[32.1227,26.1756],[32.1346,26.1628],[32.1465,26.15]],[[31.8181,26.503],[31.8354,26.4844],[31.8527,26.4659],[31.87,26.4474],[31.8873,26.4288],[31.9046,26.4103],[31.9219,26.3917],[31.9391,26.3732],[31.9564,26.3546],[31.9737,26.336],[31.9909,26.3175],[32.0082,26.2989],[32.0254,26.2803],[32.0427,26.2618],[32.0599,26.2432],[32.0771,26.2246],[32.0943,26.2061]],[[31.7616,26.5638],[31.7741,26.5504],[31.7865,26.537],[31.7989,26.5237],[31.8113,26.5103]],[[31.7139,26.6151],[31.7248,26.6034],[31.7356,26.5917],[31.7465,26.58],[31.7573,26.5684]],[[31.6923,26.6383],[31.7063,26.6232]],[[31.6449,26.6893],[31.6556,26.6777],[31.6664,26.6661],[31.6772,26.6546],[31.6879,26.643]],[[31.6242,26.7115],[31.6388,26.6958]],[[31.5318,26.8108],[31.5426,26.7992],[31.5535,26.7875],[31.5643,26.7759],[31.5751,26.7643],[31.5859,26.7527],[31.5967,26.741],[31.6075,26.7294],[31.6183,26.7178]],[[31.1751,27.2109],[31.1815,27.1957],[31.1879,27.1806],[31.1983,27.1695],[31.2086,27.1583],[31.219,27.1472],[31.2294,27.1361],[31.2397,27.125],[31.2501,27.1139],[31.2605,27.1028],[31.2708,27.0917],[31.2812,27.0806],[31.2915,27.0695],[31.3019,27.0584],[31.3122,27.0473],[31.3226,27.0361],[31.3329,27.025],[31.3433,27.0139],[31.3536,27.0028],[31.3639,26.9917],[31.3743,26.9806],[31.3846,26.9694],[31.395,26.9583],[31.4053,26.9472],[31.4156,26.9361],[31.4259,26.9249],[31.4363,26.9138],[31.4466,26.9027],[31.4569,26.8916],[31.4672,26.8804],[31.4775,26.8693],[31.4879,26.8582],[31.4982,26.8471],[31.5085,26.8359],[31.5188,26.8248]],[[30.8688,27.9357],[30.8784,27.9133],[30.8879,27.8908],[30.8975,27.8684],[30.907,27.8459],[30.9165,27.8235],[30.9261,27.801],[30.9356,27.7786],[30.9451,27.7561],[30.9547,27.7337],[30.9642,27.7112],[30.9737,27.6888],[30.9832,27.6663],[30.9927,27.6438],[31.0022,27.6214],[31.0117,27.5989],[31.0212,27.5765],[31.0307,27.554],[31.0402,27.5315],[31.0496,27.5091],[31.0591,27.4866],[31.0686,27.4641],[31.0781,27.4417],[31.0875,27.4192],[31.097,27.3967],[31.1064,27.3743],[31.1159,27.3518],[31.1253,27.3293],[31.1348,27.3069],[31.1442,27.2844],[31.1536,27.2619],[31.1631,27.2394],[31.1725,27.217]],[[30.8221,28.0462],[30.8329,28.0208],[30.8436,27.9954],[30.8543,27.97],[30.8651,27.9446]],[[30.7603,28.1925],[30.7674,28.1758],[30.7744,28.1592],[30.7815,28.1425],[30.7885,28.1258],[30.7956,28.1091],[30.8026,28.0924],[30.8097,28.0757],[30.8167,28.059]],[[30.7141,28.3019],[30.7248,28.2765],[30.7355,28.2512],[30.7463,28.2258],[30.757,28.2004]],[[30.7141,28.3019],[30.738,28.3025]],[[30.7436,28.3027],[30.7618,28.3033],[30.7801,28.3039],[30.7983,28.3045],[30.8166,28.3052],[30.8348,28.3058],[30.8531,28.3064],[30.8713,28.307],[30.8896,28.3076],[30.9078,28.3082],[30.9261,28.3088],[30.9443,28.3094],[30.9626,28.31],[30.9808,28.3106],[30.9991,28.3112],[31.0173,28.3118],[31.0356,28.3124],[31.0538,28.313],[31.0721,28.3135],[31.0903,28.3141],[31.1086,28.3147],[31.1268,28.3153],[31.1451,28.3159],[31.1634,28.3164],[31.1816,28.317],[31.1999,28.3176],[31.2181,28.3181],[31.2364,28.3187],[31.2546,28.3192],[31.2729,28.3198],[31.2912,28.3204],[31.3094,28.3209],[31.3277,28.3215],[31.3459,28.322],[31.3642,28.3225],[31.3824,28.3231],[31.4007,28.3236],[31.419,28.3242],[31.4372,28.3247],[31.4555,28.3252],[31.4737,28.3258],[31.492,28.3263],[31.5103,28.3268],[31.5285,28.3273],[31.5468,28.3279],[31.565,28.3284],[31.5833,28.3289],[31.6016,28.3294],[31.6198,28.3299],[31.6381,28.3304],[31.6564,28.3309],[31.6746,28.3314],[31.6929,28.3319],[31.7112,28.3324],[31.7294,28.3329],[31.7477,28.3334],[31.7659,28.3339],[31.7842,28.3344],[31.8025,28.3349],[31.8207,28.3354],[31.839,28.3358],[31.8573,28.3363],[31.8755,28.3368],[31.8938,28.3373],[31.9121,28.3377],[31.9303,28.3382],[31.9486,28.3387],[31.9669,28.3391],[31.9851,28.3396],[32.0034,28.34],[32.0217,28.3405],[32.04,28.341],[32.0582,28.3414],[32.0765,28.3419],[32.0948,28.3423],[32.113,28.3427],[32.1313,28.3432],[32.1496,28.3436],[32.1678,28.3441],[32.1861,28.3445],[32.2044,28.3449],[32.2227,28.3454],[32.2409,28.3458],[32.2592,28.3462],[32.2775,28.3466],[32.2957,28.3471],[32.314,28.3475],[32.3323,28.3479],[32.3506,28.3483],[32.3688,28.3487],[32.3871,28.3491],[32.4054,28.3495],[32.4236,28.3499],[32.4419,28.3503],[32.4602,28.3507],[32.4785,28.3511],[32.4967,28.3515],[32.515,28.3519],[32.5333,28.3523],[32.5516,28.3527],[32.5698,28.3531],[32.5881,28.3534],[32.6064,28.3538],[32.6247,28.3542],[32.6429,28.3546],[32.6612,28.3549],[32.6795,28.3553],[32.6978,28.3557],[32.716,28.356],[32.7343,28.3564],[32.7526,28.3567],[32.7709,28.3571],[32.7891,28.3575],[32.8074,28.3578],[32.8257,28.3582],[32.844,28.3585],[32.8623,28.3588],[32.8805,28.3592],[32.8988,28.3595],[32.9171,28.3599],[32.9354,28.3602],[32.9536,28.3605],[32.9719,28.3609],[32.9902,28.3612],[33.0085,28.3615],[33.0267,28.3618],[33.045,28.3621],[33.0633,28.3625],[33.0816,28.3628]],[[30.8458,29.309],[30.8416,29.2775],[30.8375,29.246],[30.8333,29.2146],[30.8292,29.1831],[30.8251,29.1516],[30.8209,29.1201],[30.8168,29.0887],[30.8127,29.0572],[30.8085,29.0257],[30.8044,28.9943],[30.8003,28.9628],[30.7962,28.9313],[30.792,28.8999],[30.7879,28.8684],[30.7838,28.8369],[30.7797,28.8055],[30.7756,28.774],[30.7715,28.7425],[30.7674,28.711],[30.7632,28.6796],[30.755,28.6166],[30.7468,28.5537],[30.7386,28.4908],[30.7304,28.4278],[30.7223,28.3649],[30.7141,28.3019]],[[31.2931,29.7984],[31.2791,29.7831],[31.2651,29.7679],[31.251,29.7526],[31.237,29.7373],[31.223,29.722],[31.2089,29.7067],[31.1949,29.6915],[31.1809,29.6762],[31.1669,29.6609],[31.1529,29.6456],[31.1389,29.6303],[31.1249,29.615],[31.1109,29.5997],[31.0969,29.5844],[31.0829,29.5692],[31.0689,29.5539],[31.0549,29.5386],[31.041,29.5233],[31.027,29.508],[31.013,29.4927],[30.9991,29.4774],[30.9851,29.4621],[30.9712,29.4468],[30.9572,29.4314],[30.9433,29.4161],[30.9293,29.4008],[30.9154,29.3855],[30.9014,29.3702],[30.8875,29.3549],[30.8736,29.3396],[30.8597,29.3243],[30.8458,29.309]],[[31.3336,29.8426],[31.3161,29.8235],[31.2986,29.8043]],[[31.3336,29.8426],[31.3407,29.8646],[31.3478,29.8865],[31.3549,29.9084],[31.362,29.9304],[31.3691,29.9523],[31.3762,29.9742],[31.3833,29.9962],[31.3904,30.0181],[31.3975,30.04],[31.4046,30.0619],[31.4118,30.0839],[31.4189,30.1058],[31.426,30.1277],[31.4331,30.1497],[31.4403,30.1716],[31.4474,30.1935]],[[31.2873,29.9095],[31.2989,29.8928],[31.3104,29.8761],[31.322,29.8594],[31.3336,29.8426]],[[31.2822,29.9169],[31.2837,29.9146]],[[32.7157,29.9437],[32.7245,29.9301],[32.7334,29.9164],[32.7422,29.9027],[32.751,29.889],[32.7598,29.8753],[32.7687,29.8617],[32.7775,29.848],[32.7863,29.8343],[32.7951,29.8206],[32.8039,29.8069],[32.8127,29.7932],[32.8215,29.7796],[32.8303,29.7659],[32.8391,29.7522],[32.8479,29.7385],[32.8567,29.7248],[32.8655,29.7111],[32.8743,29.6974],[32.8831,29.6838],[32.8918,29.6701],[32.9006,29.6564],[32.9094,29.6427],[32.9182,29.629],[32.927,29.6153],[32.9357,29.6016],[32.9445,29.5879],[32.9533,29.5742],[32.962,29.5605],[32.9708,29.5468],[32.9795,29.5331],[32.9883,29.5195],[32.9971,29.5058],[33.0058,29.4921],[33.0146,29.4784],[33.0233,29.4647],[33.0321,29.451],[33.0408,29.4373],[33.0495,29.4236],[33.0583,29.4099],[33.067,29.3962],[33.0758,29.3825],[33.0845,29.3688],[33.0932,29.3551],[33.1019,29.3414],[33.1107,29.3277],[33.1194,29.3139],[33.1281,29.3002],[33.1368,29.2865],[33.1455,29.2728],[33.1543,29.2591],[33.163,29.2454],[33.1717,29.2317],[33.1804,29.218],[33.1891,29.2043],[33.1978,29.1906],[33.2065,29.1769],[33.2152,29.1632],[33.2239,29.1494],[33.2326,29.1357],[33.2413,29.122],[33.2499,29.1083],[33.2586,29.0946],[33.2673,29.0809],[33.276,29.0672],[33.2847,29.0534],[33.2933,29.0397],[33.302,29.026],[33.3107,29.0123],[33.3194,28.9986],[33.328,28.9849],[33.3367,28.9711],[33.3454,28.9574],[33.354,28.9437],[33.3627,28.93],[33.3713,28.9163],[33.38,28.9025],[33.3886,28.8888],[33.3973,28.8751],[33.4059,28.8614],[33.4146,28.8476],[33.4232,28.8339],[33.4319,28.8202],[33.4405,28.8065],[33.4491,28.7927],[33.4578,28.779],[33.4664,28.7653],[33.475,28.7516],[33.4837,28.7378],[33.4923,28.7241],[33.5009,28.7104],[33.5095,28.6966],[33.5181,28.6829],[33.5268,28.6692],[33.5354,28.6554],[33.544,28.6417],[33.5526,28.628],[33.5612,28.6142],[33.5698,28.6005],[33.5784,28.5868],[33.587,28.573],[33.5956,28.5593],[33.6042,28.5456],[33.6128,28.5318],[33.6214,28.5181],[33.63,28.5044],[33.6386,28.4906],[33.6471,28.4769],[33.6557,28.4631],[33.6643,28.4494],[33.6729,28.4357],[33.6815,28.4219],[33.69,28.4082],[33.6986,28.3944],[33.7072,28.3807],[33.7157,28.367],[33.7243,28.3532],[33.7329,28.3395],[33.7414,28.3257],[33.75,28.312],[33.7585,28.2982],[33.7671,28.2845],[33.7756,28.2707],[33.7842,28.257],[33.7927,28.2432],[33.8013,28.2295],[33.8098,28.2157],[33.8184,28.202],[33.8269,28.1882],[33.8461,28.1859],[33.8653,28.1835],[33.8845,28.1811],[33.9037,28.1788],[33.9228,28.1764],[33.942,28.174],[33.9612,28.1716],[33.9804,28.1693],[33.9996,28.1669],[34.0188,28.1645],[34.0379,28.1621],[34.0571,28.1597],[34.0763,28.1573],[34.0955,28.1549],[34.1147,28.1525],[34.1338,28.1501],[34.153,28.1477],[34.1722,28.1453],[34.1913,28.1429],[34.2105,28.1405],[34.2297,28.1381],[34.2489,28.1356],[34.268,28.1332],[34.2872,28.1308],[34.3064,28.1284],[34.3255,28.1259],[34.3447,28.1235],[34.3639,28.1211],[34.383,28.1186],[34.4022,28.1162],[34.4213,28.1137],[34.4405,28.1113]],[[32.7157,29.9437],[32.7328,29.9403],[32.7499,29.9369],[32.767,29.9336],[32.7841,29.9302],[32.8012,29.9268],[32.8183,29.9234],[32.8354,29.92],[32.8525,29.9165],[32.8696,29.9131],[32.8867,29.9097],[32.9038,29.9063],[32.9208,29.9029],[32.9379,29.8995],[32.955,29.8961],[32.9721,29.8926],[32.9892,29.8892],[33.0063,29.8858],[33.0233,29.8824],[33.0404,29.8789],[33.0575,29.8755],[33.0746,29.8721],[33.0917,29.8686],[33.1087,29.8652],[33.1258,29.8618],[33.1429,29.8583],[33.16,29.8549],[33.177,29.8514],[33.1941,29.848],[33.2112,29.8445],[33.2282,29.8411],[33.2453,29.8376],[33.2624,29.8341],[33.2794,29.8307],[33.2965,29.8272],[33.3135,29.8238],[33.3306,29.8203],[33.3477,29.8168],[33.3647,29.8133],[33.3818,29.8099],[33.3988,29.8064],[33.4159,29.8029],[33.4329,29.7994],[33.45,29.796],[33.467,29.7925],[33.4841,29.789],[33.5011,29.7855],[33.5182,29.782],[33.5352,29.7785],[33.5523,29.775],[33.5693,29.7715],[33.5863,29.768],[33.6034,29.7645],[33.6204,29.761],[33.6375,29.7575],[33.6545,29.754],[33.6715,29.7505],[33.6886,29.747],[33.7056,29.7434],[33.7226,29.7399],[33.7397,29.7364],[33.7567,29.7329],[33.7737,29.7294],[33.7907,29.7258],[33.8078,29.7223],[33.8248,29.7188],[33.8418,29.7152],[33.8588,29.7117],[33.8759,29.7082],[33.8929,29.7046],[33.9099,29.7011],[33.9269,29.6975],[33.9439,29.694],[33.9609,29.6905],[33.978,29.6869],[33.995,29.6833],[34.012,29.6798],[34.029,29.6762],[34.046,29.6727],[34.063,29.6691],[34.08,29.6656],[34.097,29.662],[34.114,29.6584],[34.131,29.6549],[34.148,29.6513],[34.165,29.6477],[34.182,29.6441],[34.199,29.6406],[34.216,29.637],[34.233,29.6334],[34.25,29.6298],[34.267,29.6262],[34.284,29.6226],[34.301,29.619],[34.318,29.6154],[34.3349,29.6118],[34.3519,29.6082],[34.3689,29.6046],[34.3859,29.601],[34.4029,29.5974],[34.4198,29.5938],[34.4368,29.5902],[34.4538,29.5866],[34.4708,29.583],[34.4878,29.5794],[34.5047,29.5758],[34.5217,29.5722],[34.5387,29.5685],[34.5556,29.5649],[34.5726,29.5613],[34.5896,29.5577],[34.6065,29.554],[34.6235,29.5504],[34.6405,29.5468],[34.6574,29.5431],[34.6744,29.5395],[34.6913,29.5358],[34.7083,29.5322],[34.7253,29.5286],[34.7422,29.5249],[34.7592,29.5213],[34.7761,29.5176],[34.7931,29.514],[34.81,29.5103],[34.827,29.5067],[34.8439,29.503],[34.8609,29.4993],[34.8778,29.4957],[34.8947,29.492],[34.9067,29.4963]],[[31.2618,29.9463],[31.2697,29.935],[31.2775,29.9237]],[[32.5877,29.969],[32.6037,29.9659],[32.6197,29.9627],[32.6357,29.9596],[32.6517,29.9564],[32.6677,29.9532],[32.6837,29.9501],[32.6997,29.9469],[32.7157,29.9437]],[[31.2331,29.9878],[31.2452,29.9703],[31.2574,29.9527]],[[31.2288,29.9941],[31.232,29.9894]],[[31.2248,29.9998],[31.227,29.9966]],[[31.2118,30.0186],[31.1951,30.0157],[31.1783,30.0129],[31.1616,30.01],[31.1449,30.0071],[31.1282,30.0042],[31.1115,30.0013],[31.0948,29.9985],[31.0781,29.9956],[31.0614,29.9927],[31.0447,29.9898],[31.028,29.9869],[31.0113,29.984],[30.9946,29.9811],[30.9779,29.9782],[30.9612,29.9753],[30.9445,29.9724],[30.9383,29.9309],[30.9321,29.8895],[30.9259,29.848],[30.9197,29.8066],[30.9135,29.7651],[30.9073,29.7236],[30.9011,29.6822],[30.895,29.6407],[30.8888,29.5992],[30.8826,29.5578],[30.8765,29.5163],[30.8703,29.4748],[30.8642,29.4334],[30.858,29.3919],[30.8519,29.3504],[30.8458,29.309]],[[31.2118,30.0186],[31.2224,30.0033]],[[32.5758,30.0382],[32.5975,30.0352],[32.6191,30.0323],[32.6407,30.0293],[32.6624,30.0263],[32.6757,30.0057],[32.689,29.985],[32.7024,29.9644],[32.7157,29.9437]],[[31.2195,30.027],[31.2118,30.0186]],[[31.2357,30.0444],[31.2325,30.0409]],[[31.2357,30.0444],[31.2287,30.0663]],[[31.2357,30.0444],[31.2489,30.0538],[31.2621,30.0631],[31.2754,30.0724],[31.2886,30.0817],[31.3018,30.0911],[31.315,30.1004],[31.3283,30.1097],[31.3415,30.119],[31.3547,30.1283],[31.368,30.1376],[31.3812,30.147],[31.3944,30.1563],[31.4077,30.1656],[31.4209,30.1749],[31.4342,30.1842],[31.4474,30.1935]],[[31.2357,30.0444],[31.2402,30.0756],[31.2447,30.1067],[31.2492,30.1379],[31.2538,30.1691],[31.2583,30.2002],[31.2628,30.2314],[31.2673,30.2625],[31.2718,30.2937],[31.2764,30.3248],[31.2809,30.356],[31.2854,30.3872],[31.29,30.4183],[31.2945,30.4495],[31.299,30.4806],[31.3036,30.5118],[31.3081,30.5429],[31.3127,30.5741],[31.3172,30.6052],[31.3218,30.6364],[31.3263,30.6676],[31.3309,30.6987],[31.3354,30.7299],[31.34,30.761],[31.3446,30.7922],[31.3491,30.8233],[31.3537,30.8545],[31.3583,30.8856],[31.3628,30.9168],[31.3674,30.9479],[31.372,30.9791],[31.3766,31.0102],[31.3812,31.0414]],[[31.233,30.048],[31.2357,30.0444]],[[31.2176,30.068],[31.2281,30.0543]],[[31.2256,30.0761],[31.2181,30.0995],[31.2106,30.1229]],[[31.2093,30.127],[31.2081,30.1308]],[[31.2065,30.1357],[31.2013,30.1519],[31.1961,30.1682],[31.1909,30.1845],[31.1857,30.2007],[31.1805,30.217],[31.1753,30.2333],[31.1701,30.2495],[31.1649,30.2658],[31.1597,30.2821],[31.1545,30.2984],[31.1493,30.3146],[31.1441,30.3309],[31.1388,30.3472],[31.1336,30.3634],[31.1284,30.3797],[31.1232,30.396]],[[31.1522,30.1529],[31.1685,30.1318],[31.1848,30.1107],[31.201,30.0895],[31.2173,30.0684]],[[31.1369,30.1728],[31.1507,30.1549]],[[31.4474,30.1935],[31.4646,30.1902],[31.4817,30.1869],[31.4989,30.1836],[31.5161,30.1803],[31.5332,30.177],[31.5504,30.1737],[31.5676,30.1704],[31.5847,30.1671],[31.6019,30.1638],[31.619,30.1605],[31.6362,30.1571],[31.6533,30.1538],[31.6705,30.1505],[31.6876,30.1472],[31.7048,30.1439],[31.7219,30.1405],[31.7391,30.1372],[31.7562,30.1339],[31.7734,30.1305],[31.7905,30.1272],[31.8077,30.1239],[31.8248,30.1205],[31.8419,30.1172],[31.8591,30.1138],[31.8762,30.1105],[31.8934,30.1071],[31.9105,30.1038],[31.9276,30.1004],[31.9448,30.0971],[31.9619,30.0937],[31.979,30.0903],[31.9962,30.087],[32.0133,30.0836],[32.0304,30.0802],[32.0475,30.0769],[32.0647,30.0735],[32.0818,30.0701],[32.0989,30.0667],[32.116,30.0634],[32.1332,30.06],[32.1503,30.0566],[32.1674,30.0532],[32.1845,30.0498],[32.2017,30.0464],[32.2188,30.043],[32.2359,30.0396],[32.253,30.0362],[32.2701,30.0328],[32.2872,30.0294],[32.3043,30.026],[32.3214,30.0226],[32.3386,30.0192],[32.3557,30.0158],[32.3728,30.0124],[32.3899,30.009],[32.407,30.0055],[32.4241,30.0021],[32.4412,29.9987],[32.4583,29.9953],[32.4754,29.9918],[32.4925,29.9884],[32.5096,29.985],[32.5267,29.9816],[32.5438,29.9781],[32.5637,29.974],[32.5835,29.9699]],[[31.4474,30.1935],[31.465,30.1912],[31.4825,30.1888],[31.5001,30.1865],[31.5176,30.1841],[31.5352,30.1818],[31.5527,30.1794],[31.5703,30.1771],[31.5878,30.1747],[31.6054,30.1724],[31.6229,30.17],[31.6404,30.1677],[31.658,30.1653],[31.6755,30.1629],[31.6931,30.1606],[31.7106,30.1582],[31.7281,30.1558],[31.7457,30.1534],[31.7632,30.1511],[31.7808,30.1487],[31.7983,30.1463],[31.8158,30.1439],[31.8334,30.1415],[31.8509,30.1391],[31.8684,30.1367],[31.886,30.1344],[31.9035,30.132],[31.921,30.1296],[31.9386,30.1272],[31.9561,30.1248],[31.9736,30.1223],[31.9911,30.1199],[32.0087,30.1175],[32.0262,30.1151],[32.0437,30.1127],[32.0613,30.1103],[32.0788,30.1079],[32.0963,30.1054],[32.1138,30.103],[32.1313,30.1006],[32.1489,30.0982],[32.1664,30.0957],[32.1839,30.0933],[32.2014,30.0908],[32.2189,30.0884],[32.2365,30.086],[32.254,30.0835],[32.2715,30.0811],[32.289,30.0786],[32.3065,30.0762],[32.324,30.0737],[32.3415,30.0713],[32.3591,30.0688],[32.3766,30.0664],[32.3941,30.0639],[32.4116,30.0614],[32.4291,30.059],[32.4466,30.0565],[32.4641,30.054],[32.4816,30.0515],[32.4991,30.0491],[32.5166,30.0466],[32.5341,30.0441],[32.5516,30.0416],[32.5691,30.0391]],[[31.7494,30.2878],[31.7305,30.2819],[31.7116,30.276],[31.6927,30.2701],[31.6738,30.2643],[31.6549,30.2584],[31.6361,30.2525],[31.6172,30.2466],[31.5983,30.2407],[31.5795,30.2348],[31.5606,30.2289],[31.5417,30.223],[31.5229,30.2171],[31.504,30.2112],[31.4851,30.2053],[31.4663,30.1994],[31.4474,30.1935]],[[31.1226,30.3977],[31.1149,30.4219],[31.1072,30.446],[31.0995,30.4701],[31.0918,30.4943],[31.0841,30.5184],[31.0764,30.5425],[31.0687,30.5667],[31.0609,30.5908],[31.0532,30.6149],[31.0455,30.639],[31.0377,30.6632],[31.03,30.6873],[31.0223,30.7114],[31.0145,30.7355],[31.0068,30.7597],[30.999,30.7838]],[[30.8529,30.5418],[30.8616,30.5305],[30.8704,30.5192],[30.8791,30.5078],[30.8879,30.4965],[30.8966,30.4852],[30.9054,30.4738],[30.9141,30.4625],[30.9229,30.4512],[30.9316,30.4399],[30.9404,30.4285],[30.9491,30.4172],[30.9578,30.4059],[30.9666,30.3945],[30.9753,30.3832],[30.984,30.3719],[30.9928,30.3605],[31.0015,30.3492],[31.0102,30.3378],[31.0189,30.3265],[31.0276,30.3152],[31.0364,30.3038],[31.0451,30.2925],[31.0538,30.2811],[31.0625,30.2698],[31.0712,30.2585],[31.0799,30.2471],[31.0886,30.2358],[31.0973,30.2244],[31.106,30.2131],[31.1147,30.2017],[31.1234,30.1904],[31.1321,30.179]],[[30.8299,30.5717],[30.8408,30.5575],[30.8518,30.5433]],[[30.8203,30.5841],[30.8277,30.5745]],[[30.8139,30.5924],[30.8191,30.5858]],[[30.999,30.7838],[31.0095,30.7954],[31.0201,30.8071],[31.0306,30.8187],[31.0412,30.8303],[31.0517,30.842],[31.0623,30.8536],[31.0728,30.8652],[31.0834,30.8769],[31.094,30.8885],[31.1045,30.9001],[31.1151,30.9118],[31.1257,30.9234],[31.1362,30.935],[31.1468,30.9466],[31.1574,30.9583],[31.168,30.9699],[31.1891,30.977],[31.2102,30.9841],[31.2313,30.9912],[31.2524,30.9982],[31.2735,31.0053],[31.2946,31.0124],[31.3158,31.0195],[31.3369,31.0265]],[[30.7657,30.8967],[30.7803,30.8897],[30.7949,30.8827],[30.8095,30.8756],[30.8241,30.8685],[30.8387,30.8615],[30.8533,30.8544],[30.8679,30.8474],[30.8824,30.8403],[30.897,30.8333],[30.9116,30.8262],[30.9262,30.8191],[30.9407,30.8121],[30.9553,30.805],[30.9699,30.7979],[30.9844,30.7909],[30.999,30.7838]],[[31.3391,31.0273],[31.3601,31.0343],[31.3812,31.0414]],[[31.3812,31.0414],[31.3913,31.0502]],[[30.4691,31.0404],[30.4793,31.0272],[30.4895,31.0141],[30.4997,31.0009],[30.5098,30.9877],[30.52,30.9746],[30.5302,30.9614],[30.5403,30.9483],[30.5505,30.9351],[30.5607,30.9219],[30.5708,30.9088],[30.581,30.8956],[30.5911,30.8824],[30.6013,30.8693],[30.6114,30.8561],[30.6216,30.8429],[30.6317,30.8298],[30.6418,30.8166],[30.652,30.8034],[30.6621,30.7902],[30.6722,30.7771],[30.6824,30.7639],[30.6925,30.7507],[30.7026,30.7375],[30.7127,30.7244],[30.7228,30.7112],[30.7329,30.698],[30.7431,30.6848],[30.7532,30.6716],[30.7633,30.6584],[30.7734,30.6453],[30.7835,30.6321],[30.7936,30.6189]],[[30.4691,31.0404],[30.4875,31.0315],[30.5059,31.0226],[30.5243,31.0137],[30.5427,31.0049],[30.5611,30.996],[30.5795,30.9871],[30.5979,30.9782],[30.6162,30.9693],[30.6346,30.9604],[30.653,30.9515],[30.6713,30.9426],[30.6897,30.9337],[30.7081,30.9248],[30.7264,30.9159],[30.7448,30.9069],[30.7631,30.898]],[[31.3995,31.0573],[31.4174,31.0728],[31.4352,31.0884],[31.4531,31.1039],[31.471,31.1194],[31.4889,31.135],[31.5068,31.1505],[31.5247,31.166],[31.5426,31.1815]],[[28.4439,31.0287],[28.4623,31.0216],[28.4807,31.0145],[28.4991,31.0074],[28.5175,31.0003],[28.5359,30.9933],[28.5543,30.9862],[28.5727,30.9791],[28.591,30.972],[28.6094,30.9649],[28.6278,30.9578],[28.6462,30.9507],[28.6645,30.9436],[28.6829,30.9365],[28.7013,30.9294],[28.7196,30.9222],[28.738,30.9151],[28.7563,30.908],[28.7747,30.9009],[28.793,30.8937],[28.8114,30.8866],[28.8297,30.8795],[28.8481,30.8723],[28.8664,30.8652],[28.8848,30.8581],[28.9031,30.8509],[28.9214,30.8438],[28.9398,30.8366],[28.9581,30.8295],[28.9764,30.8223],[28.9947,30.8152],[29.0131,30.808],[29.0314,30.8008],[29.0475,30.8038],[29.0636,30.8068],[29.0798,30.8097],[29.0959,30.8127],[29.112,30.8156],[29.1282,30.8186],[29.1443,30.8215],[29.1604,30.8245],[29.1766,30.8274],[29.1927,30.8304],[29.2088,30.8333],[29.225,30.8363],[29.2411,30.8392],[29.2573,30.8421],[29.2734,30.8451],[29.2896,30.848],[29.3063,30.8555],[29.323,30.8631],[29.3397,30.8706],[29.3564,30.8781],[29.3732,30.8856],[29.3899,30.8931],[29.4066,30.9006],[29.4234,30.9082],[29.4401,30.9157],[29.4568,30.9232],[29.4736,30.9307],[29.4903,30.9382],[29.5071,30.9457],[29.5238,30.9532],[29.5406,30.9607],[29.5573,30.9682],[29.5783,30.9826],[29.5992,30.9969],[29.6201,31.0113],[29.641,31.0256],[29.662,31.04],[29.6829,31.0543],[29.7039,31.0687],[29.7248,31.083],[29.7458,31.0974],[29.7668,31.1117],[29.7878,31.126],[29.8087,31.1404],[29.8297,31.1547],[29.8507,31.169],[29.8717,31.1833],[29.8927,31.1976],[29.908,31.1935],[29.9232,31.1894],[29.9384,31.1852],[29.9536,31.1811],[29.9689,31.1769],[29.9841,31.1728],[29.9993,31.1686],[30.0145,31.1644],[30.0297,31.1603],[30.0449,31.1561],[30.0602,31.152],[30.0754,31.1478],[30.0906,31.1436],[30.1058,31.1395],[30.121,31.1353],[30.1362,31.1311]],[[32.133,31.1465],[32.1444,31.1503]],[[30.1355,31.1314],[30.1564,31.1258],[30.1772,31.1201],[30.1981,31.1144],[30.219,31.1088],[30.2398,31.1031],[30.2607,31.0974],[30.2815,31.0917],[30.3024,31.086],[30.3232,31.0803],[30.3441,31.0746],[30.3649,31.0689],[30.3858,31.0632],[30.4066,31.0575],[30.4275,31.0518],[30.4483,31.0461],[30.4691,31.0404]],[[32.1811,31.1628],[32.1953,31.1676]],[[32.2529,31.1872],[32.2569,31.1886]],[[31.545,31.1836],[31.5586,31.1954],[31.5722,31.2072],[31.5858,31.2191],[31.5994,31.2309],[31.613,31.2427],[31.6266,31.2545],[31.6402,31.2663],[31.6538,31.2781]],[[32.2828,31.1974],[32.2892,31.2154],[32.2956,31.2333]],[[32.3497,31.2295],[32.3606,31.2191],[32.3716,31.2086],[32.3826,31.1982],[32.3936,31.1878],[32.4045,31.1773],[32.4155,31.1669],[32.4265,31.1564],[32.4374,31.146],[32.4484,31.1355],[32.4593,31.1251],[32.4703,31.1146],[32.4812,31.1042],[32.4922,31.0937],[32.5031,31.0833],[32.5141,31.0728],[32.525,31.0623],[32.5412,31.0592],[32.5573,31.056],[32.5735,31.0529],[32.5896,31.0497],[32.6057,31.0466],[32.6219,31.0434],[32.638,31.0403],[32.6541,31.0371],[32.6703,31.0339],[32.6864,31.0308],[32.7026,31.0276],[32.7187,31.0244],[32.7348,31.0213],[32.7509,31.0181],[32.7671,31.0149],[32.7832,31.0117],[32.7992,31.0136],[32.8151,31.0155],[32.831,31.0173],[32.847,31.0192],[32.8629,31.0211],[32.8789,31.0229],[32.8948,31.0248],[32.9108,31.0266],[32.9267,31.0285],[32.9427,31.0303],[32.9587,31.0322],[32.9746,31.034],[32.9906,31.0359],[33.0065,31.0377],[33.0225,31.0395],[33.0384,31.0414],[33.0544,31.0432],[33.0703,31.045],[33.0863,31.0469],[33.1023,31.0487],[33.1182,31.0505],[33.1342,31.0524],[33.1501,31.0542],[33.1661,31.056],[33.1821,31.0578],[33.198,31.0596],[33.214,31.0614],[33.23,31.0633],[33.2459,31.0651],[33.2619,31.0669],[33.2778,31.0687],[33.2938,31.0705],[33.3098,31.0723],[33.3257,31.0741],[33.3417,31.0759],[33.3577,31.0777],[33.3736,31.0795],[33.3896,31.0813],[33.4056,31.0831],[33.4216,31.0849],[33.4375,31.0866],[33.4535,31.0884],[33.4695,31.0902],[33.4854,31.092],[33.5014,31.0938],[33.5174,31.0956],[33.5334,31.0973],[33.5493,31.0991],[33.5653,31.1009],[33.5813,31.1026],[33.5973,31.1044],[33.6132,31.1062],[33.6292,31.1079],[33.6452,31.1097],[33.6612,31.1115],[33.6772,31.1132],[33.6931,31.115],[33.7091,31.1167],[33.7251,31.1185],[33.7411,31.1202],[33.7571,31.122],[33.7731,31.1237],[33.789,31.1255],[33.805,31.1272]],[[32.2957,31.234],[32.2998,31.2633],[32.3096,31.2567]],[[32.3144,31.2534],[32.3305,31.2425],[32.3466,31.2316]],[[32.3136,31.2539],[32.3143,31.2535]],[[31.6589,31.2825],[31.6675,31.29]],[[31.6702,31.2923],[31.6833,31.3037],[31.6965,31.3152]],[[31.7946,31.3302],[31.8015,31.3154],[31.8083,31.3006],[31.8152,31.2858],[31.822,31.2709],[31.8289,31.2561],[31.8357,31.2413],[31.8425,31.2265],[31.8494,31.2116],[31.8753,31.203],[31.9011,31.1945],[31.927,31.1859],[31.9529,31.1773],[31.9788,31.1687],[32.0046,31.16],[32.0305,31.1514],[32.0563,31.1428]],[[31.7131,31.3296],[31.7258,31.3406],[31.7384,31.3516],[31.751,31.3626],[31.7637,31.3736],[31.7764,31.3845],[31.789,31.3955],[31.8017,31.4065],[31.8143,31.4175],[31.8081,31.39],[31.8019,31.3626]],[[31.7999,31.3536],[31.7988,31.3486]],[[25.1594,31.5528],[25.1645,31.5364],[25.1697,31.52],[25.1913,31.5168],[25.213,31.5135],[25.2347,31.5103],[25.2563,31.5071],[25.278,31.5038],[25.2996,31.5005],[25.3213,31.4973],[25.343,31.494],[25.3646,31.4908],[25.3863,31.4875],[25.4079,31.4842],[25.4296,31.4809],[25.4512,31.4777],[25.4729,31.4744],[25.4946,31.4711],[25.5162,31.4678],[25.5379,31.4645],[25.5595,31.4612],[25.5812,31.4579],[25.6028,31.4546],[25.6245,31.4513],[25.6461,31.4479],[25.6678,31.4446],[25.6894,31.4413],[25.711,31.438],[25.7327,31.4346],[25.7543,31.4313],[25.776,31.4279],[25.7976,31.4246],[25.8193,31.4212],[25.8409,31.4179],[25.8625,31.4145],[25.8842,31.4112],[25.9058,31.4078],[25.9275,31.4044],[25.9491,31.4011],[25.9707,31.3977],[25.9924,31.3943],[26.014,31.3909],[26.0356,31.3875],[26.0573,31.3841],[26.0789,31.3807],[26.1005,31.3773],[26.1221,31.3739],[26.1438,31.3705],[26.1654,31.3671],[26.187,31.3637],[26.2087,31.3603],[26.2303,31.3569],[26.2519,31.3534],[26.2735,31.35],[26.2951,31.3466],[26.3168,31.3431],[26.3384,31.3397],[26.36,31.3362],[26.3816,31.3328],[26.4032,31.3293],[26.4249,31.3259],[26.4465,31.3224],[26.4681,31.3189],[26.4897,31.3155],[26.5113,31.312],[26.5329,31.3085],[26.5545,31.305],[26.5761,31.3015],[26.5978,31.298],[26.6194,31.2946],[26.641,31.2911],[26.6626,31.2876],[26.6842,31.284],[26.7058,31.2805],[26.7274,31.277],[26.749,31.2735],[26.7706,31.27],[26.7922,31.2665],[26.8138,31.2629],[26.8354,31.2594],[26.857,31.2559],[26.8786,31.2523],[26.9002,31.2488],[26.9218,31.2452],[26.9434,31.2417],[26.965,31.2381],[26.9865,31.2346],[27.0081,31.231],[27.0297,31.2274],[27.0513,31.2239],[27.0729,31.2203],[27.0945,31.2167],[27.1161,31.2131],[27.1377,31.2095],[27.1592,31.2059],[27.1808,31.2023],[27.2024,31.1987],[27.224,31.1951],[27.2456,31.1915],[27.2671,31.1879],[27.2887,31.1843],[27.3103,31.1807],[27.3319,31.1771],[27.3534,31.1734],[27.375,31.1698],[27.3966,31.1662],[27.4181,31.1625],[27.4397,31.1589],[27.4613,31.1553],[27.4829,31.1516],[27.5044,31.148],[27.526,31.1443],[27.5475,31.1406],[27.5691,31.137],[27.5907,31.1333],[27.6122,31.1296],[27.6338,31.126],[27.6553,31.1223],[27.6769,31.1186],[27.6985,31.1149],[27.72,31.1112],[27.7416,31.1075],[27.7631,31.1038],[27.7847,31.1001],[27.8062,31.0964],[27.8278,31.0927],[27.8493,31.089],[27.8709,31.0853],[27.8924,31.0816],[27.9139,31.0778],[27.9355,31.0741],[27.9514,31.0727],[27.9673,31.0713],[27.9832,31.0699],[27.9991,31.0685],[28.015,31.0671],[28.0309,31.0657],[28.0467,31.0643],[28.0626,31.0629],[28.0785,31.0615],[28.0944,31.0601],[28.1103,31.0587],[28.1262,31.0573],[28.1421,31.0559],[28.158,31.0544],[28.1739,31.053],[28.1898,31.0516],[28.2057,31.0502],[28.2216,31.0488],[28.2375,31.0473],[28.2534,31.0459],[28.2692,31.0445],[28.2851,31.043],[28.301,31.0416],[28.3169,31.0402],[28.3328,31.0387],[28.3487,31.0373],[28.3646,31.0358],[28.3805,31.0344],[28.3964,31.0329],[28.4123,31.0315],[28.4281,31.03],[28.444,31.0286]],[[25.0764,31.5846],[25.0972,31.5766],[25.1179,31.5687],[25.1387,31.5608],[25.1595,31.5528]]]}}]}